AXGD538 6030, SN06032, SW3.28
HFDTE310708
HOPLTPILOT: Josh Cohn
HOGTYGLIDERTYPE: 8
HOGTYGLIDERID: 89
HODTM100GPSDATUM: WGS-84
HOCCLCOMPETITION CLASS: Open
HOSITSite: Chelan
B1900084748238N12002320WA0000001134
B1900134748238N12002321WA0000001134
B1900184748238N12002321WA0000001134
B1900234748238N12002322WA0000001134
B1900284748239N12002323WA0000001134
B1900334748239N12002323WA0000001134
B1900394748239N12002323WA0000001134
B1900444748239N12002323WA0000001134
B1900494748239N12002323WA0000001134
B1900544748239N12002324WA0000001134
B1900594748239N12002324WA0000001134
B1901044748239N12002326WA0000001134
B1901094748240N12002326WA0000001134
B1901144748239N12002325WA0000001134
B1901194748240N12002327WA0000001134
B1901244748240N12002326WA0000001134
B1901294748240N12002326WA0000001134
B1901344748240N12002325WA0000001134
B1901394748240N12002326WA0000001134
B1901444748240N12002326WA0000001134
B1901494748240N12002327WA0000001134
B1901544748239N12002326WA0000001135
B1901594748236N12002325WA0000001135
B1902044748223N12002326WA0000001136
B1902084748213N12002324WA0000001135
B1902144748197N12002321WA0000001134
B1902194748185N12002307WA0000001134
B1902244748177N12002294WA0000001135
B1902284748179N12002283WA0000001136
B1902334748197N12002277WA0000001139
B1902394748216N12002263WA0000001142
B1902444748232N12002246WA0000001143
B1902494748252N12002228WA0000001144
B1902544748267N12002213WA0000001144
B1902594748274N12002183WA0000001143
B1903044748269N12002152WA0000001141
B1903094748258N12002115WA0000001137
B1903144748244N12002079WA0000001133
B1903194748229N12002039WA0000001128
B1903244748217N12002009WA0000001122
B1903294748207N12001984WA0000001118
B1903344748199N12001965WA0000001115
B1903394748191N12001946WA0000001113
B1903444748196N12001923WA0000001112
B1903494748221N12001936WA0000001112
B1903544748229N12001977WA0000001112
B1903594748219N12002001WA0000001113
B1904044748204N12002014WA0000001115
B1904094748189N12002019WA0000001118
B1904144748174N12002014WA0000001122
B1904194748174N12001993WA0000001127
B1904254748195N12001979WA0000001135
B1904304748215N12001998WA0000001140
B1904354748221N12002030WA0000001145
B1904404748210N12002041WA0000001149
B1904454748204N12002023WA0000001154
B1904504748215N12001997WA0000001162
B1904554748239N12002011WA0000001170
B1905004748246N12002051WA0000001176
B1905054748235N12002068WA0000001183
B1905104748249N12002046WA0000001192
B1905154748257N12002073WA0000001202
B1905204748253N12002064WA0000001210
B1905254748279N12002059WA0000001221
B1905304748283N12002097WA0000001233
B1905354748271N12002107WA0000001241
B1905404748278N12002085WA0000001252
B1905454748304N12002104WA0000001264
B1905504748300N12002141WA0000001277
B1905554748287N12002143WA0000001285
B1906004748290N12002125WA0000001293
B1906054748315N12002135WA0000001305
B1906104748309N12002155WA0000001314
B1906154748306N12002140WA0000001321
B1906204748326N12002123WA0000001337
B1906254748354N12002132WA0000001352
B1906304748356N12002172WA0000001364
B1906354748343N12002186WA0000001372
B1906404748338N12002168WA0000001380
B1906454748362N12002160WA0000001391
B1906504748362N12002193WA0000001401
B1906554748359N12002183WA0000001407
B1907004748384N12002180WA0000001418
B1907054748387N12002211WA0000001428
B1907104748382N12002200WA0000001435
B1907154748410N12002202WA0000001447
B1907204748410N12002231WA0000001457
B1907254748400N12002226WA0000001463
B1907304748405N12002199WA0000001475
B1907354748433N12002200WA0000001486
B1907404748437N12002233WA0000001495
B1907454748428N12002236WA0000001501
B1907504748428N12002216WA0000001511
B1907564748455N12002205WA0000001528
B1908014748467N12002235WA0000001540
B1908064748461N12002250WA0000001547
B1908114748455N12002234WA0000001554
B1908164748460N12002209WA0000001565
B1908214748478N12002184WA0000001576
B1908264748506N12002203WA0000001586
B1908314748503N12002220WA0000001593
B1908364748501N12002199WA0000001601
B1908414748530N12002191WA0000001610
B1908464748543N12002222WA0000001617
B1908514748532N12002228WA0000001621
B1908564748522N12002225WA0000001625
B1909014748518N12002212WA0000001631
B1909064748545N12002199WA0000001639
B1909114748560N12002232WA0000001646
B1909164748547N12002242WA0000001650
B1909214748535N12002257WA0000001657
B1909264748513N12002276WA0000001664
B1909314748491N12002287WA0000001668
B1909364748468N12002292WA0000001669
B1909414748448N12002295WA0000001668
B1909464748430N12002298WA0000001667
B1909514748411N12002306WA0000001664
B1909564748393N12002313WA0000001660
B1910014748379N12002324WA0000001656
B1910064748369N12002330WA0000001654
B1910114748362N12002338WA0000001653
B1910174748351N12002320WA0000001653
B1910224748370N12002282WA0000001654
B1910274748409N12002283WA0000001654
B1910324748440N12002316WA0000001652
B1910374748447N12002352WA0000001652
B1910424748435N12002361WA0000001653
B1910474748422N12002347WA0000001653
B1910524748414N12002336WA0000001654
B1910574748408N12002353WA0000001654
B1911024748422N12002384WA0000001656
B1911074748447N12002415WA0000001658
B1911124748468N12002449WA0000001662
B1911174748469N12002474WA0000001668
B1911224748473N12002450WA0000001676
B1911274748502N12002458WA0000001687
B1911324748502N12002481WA0000001697
B1911374748501N12002466WA0000001707
B1911424748525N12002447WA0000001723
B1911474748550N12002468WA0000001739
B1911524748546N12002487WA0000001750
B1911574748544N12002483WA0000001760
B1912024748570N12002468WA0000001778
B1912074748594N12002495WA0000001795
B1912124748587N12002507WA0000001806
B1912174748594N12002491WA0000001817
B1912224748626N12002476WA0000001831
B1912274748642N12002507WA0000001843
B1912324748638N12002512WA0000001850
B1912374748640N12002495WA0000001860
B1912424748666N12002473WA0000001874
B1912474748693N12002496WA0000001886
B1912524748692N12002515WA0000001894
B1912574748687N12002502WA0000001900
B1913034748718N12002486WA0000001913
B1913084748729N12002519WA0000001923
B1913134748722N12002521WA0000001929
B1913184748736N12002493WA0000001938
B1913234748764N12002506WA0000001948
B1913284748764N12002535WA0000001955
B1913334748760N12002518WA0000001960
B1913384748785N12002484WA0000001966
B1913434748816N12002479WA0000001972
B1913484748827N12002510WA0000001978
B1913534748814N12002516WA0000001983
B1913584748810N12002488WA0000001988
B1914034748797N12002471WA0000001989
B1914084748781N12002455WA0000001987
B1914134748766N12002438WA0000001983
B1914184748751N12002419WA0000001978
B1914234748737N12002400WA0000001973
B1914284748724N12002382WA0000001968
B1914334748710N12002363WA0000001963
B1914384748698N12002346WA0000001957
B1914434748684N12002334WA0000001952
B1914484748669N12002328WA0000001947
B1914534748654N12002323WA0000001941
B1914584748639N12002315WA0000001934
B1915034748623N12002305WA0000001928
B1915084748607N12002303WA0000001923
B1915134748590N12002309WA0000001917
B1915184748577N12002313WA0000001912
B1915244748552N12002322WA0000001905
B1915294748534N12002327WA0000001899
B1915344748517N12002335WA0000001894
B1915394748500N12002342WA0000001889
B1915444748483N12002353WA0000001883
B1915494748467N12002363WA0000001878
B1915544748449N12002369WA0000001873
B1915594748431N12002374WA0000001868
B1916044748415N12002376WA0000001863
B1916094748397N12002375WA0000001858
B1916144748380N12002365WA0000001854
B1916194748366N12002346WA0000001849
B1916244748352N12002326WA0000001845
B1916294748338N12002305WA0000001841
B1916344748324N12002286WA0000001837
B1916394748308N12002269WA0000001834
B1916444748294N12002253WA0000001831
B1916494748281N12002233WA0000001828
B1916544748272N12002218WA0000001827
B1916594748261N12002218WA0000001826
B1917044748252N12002239WA0000001825
B1917094748245N12002268WA0000001823
B1917144748238N12002297WA0000001822
B1917194748232N12002328WA0000001820
B1917244748224N12002355WA0000001818
B1917294748213N12002381WA0000001816
B1917344748206N12002412WA0000001815
B1917404748199N12002452WA0000001812
B1917454748193N12002484WA0000001810
B1917504748188N12002519WA0000001808
B1917554748188N12002559WA0000001806
B1918004748194N12002602WA0000001805
B1918054748194N12002640WA0000001803
B1918104748181N12002649WA0000001802
B1918154748172N12002631WA0000001801
B1918204748170N12002600WA0000001799
B1918254748170N12002566WA0000001797
B1918304748168N12002536WA0000001796
B1918354748168N12002506WA0000001795
B1918404748162N12002482WA0000001794
B1918454748150N12002474WA0000001793
B1918504748136N12002485WA0000001792
B1918554748126N12002510WA0000001791
B1919004748121N12002543WA0000001791
B1919054748118N12002578WA0000001791
B1919104748115N12002612WA0000001790
B1919154748107N12002640WA0000001789
B1919204748098N12002667WA0000001788
B1919254748105N12002708WA0000001787
B1919304748123N12002747WA0000001787
B1919354748160N12002762WA0000001786
B1919404748190N12002740WA0000001786
B1919454748205N12002708WA0000001785
B1919504748225N12002676WA0000001785
B1919554748246N12002645WA0000001784
B1920004748268N12002605WA0000001784
B1920064748287N12002568WA0000001784
B1920114748286N12002539WA0000001784
B1920164748272N12002549WA0000001784
B1920214748265N12002575WA0000001784
B1920264748261N12002608WA0000001784
B1920314748265N12002645WA0000001783
B1920364748279N12002686WA0000001782
B1920414748307N12002715WA0000001781
B1920464748342N12002710WA0000001779
B1920514748368N12002685WA0000001779
B1920564748391N12002659WA0000001779
B1921014748399N12002621WA0000001780
B1921074748380N12002613WA0000001782
B1921124748373N12002639WA0000001783
B1921174748380N12002677WA0000001783
B1921224748388N12002715WA0000001783
B1921274748396N12002752WA0000001781
B1921324748386N12002773WA0000001779
B1921374748375N12002751WA0000001776
B1921424748375N12002711WA0000001773
B1921474748377N12002664WA0000001769
B1921524748385N12002617WA0000001765
B1921574748393N12002571WA0000001761
B1922024748388N12002549WA0000001759
B1922074748388N12002586WA0000001757
B1922124748405N12002623WA0000001754
B1922174748427N12002659WA0000001752
B1922224748448N12002696WA0000001750
B1922274748463N12002734WA0000001747
B1922324748460N12002769WA0000001745
B1922374748447N12002763WA0000001741
B1922424748445N12002733WA0000001738
B1922474748448N12002698WA0000001736
B1922524748451N12002661WA0000001733
B1922574748453N12002623WA0000001730
B1923024748457N12002585WA0000001727
B1923074748463N12002546WA0000001724
B1923124748470N12002504WA0000001720
B1923174748477N12002456WA0000001716
B1923224748485N12002410WA0000001712
B1923284748497N12002354WA0000001706
B1923334748504N12002305WA0000001702
B1923384748510N12002256WA0000001697
B1923434748517N12002208WA0000001692
B1923484748526N12002162WA0000001688
B1923534748538N12002121WA0000001684
B1923584748547N12002083WA0000001681
B1924034748556N12002049WA0000001679
B1924084748562N12002016WA0000001677
B1924134748567N12001993WA0000001676
B1924184748574N12001968WA0000001677
B1924234748595N12001947WA0000001680
B1924284748622N12001971WA0000001684
B1924334748617N12001996WA0000001688
B1924384748614N12001980WA0000001692
B1924434748630N12001955WA0000001700
B1924484748659N12001977WA0000001709
B1924534748655N12002001WA0000001718
B1924584748653N12001977WA0000001727
B1925034748681N12001961WA0000001739
B1925084748702N12001990WA0000001751
B1925134748695N12002000WA0000001759
B1925184748698N12001975WA0000001771
B1925234748727N12001969WA0000001784
B1925284748747N12001996WA0000001796
B1925334748742N12002012WA0000001805
B1925384748747N12001984WA0000001816
B1925434748776N12001975WA0000001829
B1925494748780N12002004WA0000001841
B1925544748789N12001984WA0000001851
B1925594748822N12001983WA0000001863
B1926044748837N12002011WA0000001872
B1926094748829N12002019WA0000001878
B1926144748827N12002000WA0000001886
B1926194748850N12001973WA0000001899
B1926244748883N12001988WA0000001911
B1926294748889N12002020WA0000001921
B1926344748882N12002014WA0000001927
B1926394748878N12002001WA0000001933
B1926444748890N12001972WA0000001945
B1926494748922N12001983WA0000001956
B1926544748930N12002013WA0000001966
B1926594748926N12002004WA0000001972
B1927044748952N12001985WA0000001983
B1927094748976N12002006WA0000001993
B1927144748975N12002025WA0000001999
B1927194748971N12001996WA0000002006
B1927244748976N12001964WA0000002013
B1927294748972N12001945WA0000002017
B1927344748965N12001943WA0000002020
B1927394748954N12001954WA0000002023
B1927444748939N12001951WA0000002027
B1927494748921N12001940WA0000002031
B1927544748908N12001923WA0000002033
B1927594748897N12001892WA0000002034
B1928044748886N12001862WA0000002035
B1928094748875N12001833WA0000002035
B1928154748862N12001802WA0000002034
B1928204748851N12001777WA0000002032
B1928254748836N12001750WA0000002029
B1928304748813N12001726WA0000002024
B1928354748791N12001713WA0000002019
B1928404748769N12001706WA0000002012
B1928454748754N12001701WA0000002006
B1928504748738N12001701WA0000002000
B1928554748725N12001701WA0000001996
B1929004748709N12001702WA0000001989
B1929054748696N12001704WA0000001983
B1929104748679N12001711WA0000001974
B1929154748668N12001716WA0000001969
B1929204748656N12001722WA0000001965
B1929254748643N12001726WA0000001960
B1929304748635N12001740WA0000001955
B1929354748628N12001772WA0000001947
B1929404748626N12001803WA0000001942
B1929454748623N12001835WA0000001938
B1929504748618N12001858WA0000001935
B1929554748608N12001868WA0000001932
B1930004748600N12001884WA0000001928
B1930064748592N12001910WA0000001922
B1930114748585N12001930WA0000001919
B1930164748574N12001945WA0000001917
B1930214748565N12001957WA0000001916
B1930264748554N12001965WA0000001915
B1930314748541N12001977WA0000001913
B1930364748528N12001992WA0000001909
B1930414748517N12002009WA0000001905
B1930464748509N12002027WA0000001902
B1930514748502N12002048WA0000001897
B1930564748494N12002068WA0000001892
B1931014748483N12002082WA0000001890
B1931064748468N12002090WA0000001884
B1931114748453N12002092WA0000001879
B1931164748434N12002095WA0000001872
B1931214748411N12002100WA0000001864
B1931264748392N12002106WA0000001856
B1931314748374N12002117WA0000001849
B1931364748356N12002130WA0000001843
B1931414748340N12002142WA0000001837
B1931464748324N12002158WA0000001831
B1931514748308N12002176WA0000001825
B1931564748285N12002193WA0000001817
B1932014748261N12002210WA0000001809
B1932064748236N12002228WA0000001802
B1932114748216N12002246WA0000001795
B1932164748200N12002261WA0000001789
B1932214748183N12002276WA0000001783
B1932264748166N12002293WA0000001778
B1932314748147N12002308WA0000001772
B1932374748123N12002327WA0000001766
B1932424748102N12002345WA0000001762
B1932474748083N12002364WA0000001758
B1932524748063N12002380WA0000001754
B1932574748045N12002400WA0000001751
B1933024748035N12002421WA0000001749
B1933074748027N12002436WA0000001748
B1933124748022N12002427WA0000001747
B1933174748033N12002398WA0000001745
B1933224748049N12002373WA0000001745
B1933274748068N12002345WA0000001746
B1933324748085N12002318WA0000001747
B1933374748094N12002289WA0000001748
B1933424748086N12002280WA0000001749
B1933474748076N12002290WA0000001749
B1933524748069N12002309WA0000001749
B1933574748063N12002325WA0000001749
B1934024748055N12002325WA0000001750
B1934074748049N12002311WA0000001750
B1934124748043N12002298WA0000001751
B1934174748038N12002278WA0000001754
B1934224748057N12002247WA0000001758
B1934274748092N12002256WA0000001761
B1934324748119N12002288WA0000001764
B1934374748132N12002327WA0000001768
B1934424748125N12002349WA0000001772
B1934474748126N12002330WA0000001776
B1934524748156N12002327WA0000001781
B1934574748180N12002363WA0000001788
B1935024748174N12002380WA0000001792
B1935074748186N12002348WA0000001798
B1935134748199N12002320WA0000001806
B1935184748217N12002294WA0000001812
B1935234748240N12002265WA0000001816
B1935284748240N12002242WA0000001818
B1935334748229N12002249WA0000001820
B1935384748220N12002254WA0000001822
B1935434748209N12002260WA0000001823
B1935484748194N12002271WA0000001825
B1935534748175N12002289WA0000001825
B1935584748162N12002304WA0000001827
B1936034748149N12002303WA0000001830
B1936084748158N12002271WA0000001835
B1936134748188N12002275WA0000001840
B1936184748204N12002303WA0000001847
B1936234748198N12002314WA0000001851
B1936284748201N12002286WA0000001858
B1936334748233N12002274WA0000001867
B1936384748260N12002290WA0000001877
B1936434748273N12002319WA0000001886
B1936484748270N12002325WA0000001892
B1936534748262N12002324WA0000001899
B1936584748249N12002330WA0000001908
B1937034748228N12002340WA0000001918
B1937084748207N12002343WA0000001926
B1937134748185N12002350WA0000001930
B1937184748166N12002363WA0000001934
B1937234748151N12002376WA0000001937
B1937294748142N12002397WA0000001939
B1937344748135N12002414WA0000001940
B1937394748127N12002425WA0000001943
B1937444748121N12002402WA0000001949
B1937494748144N12002372WA0000001955
B1937544748171N12002391WA0000001961
B1937594748169N12002413WA0000001964
B1938044748164N12002427WA0000001968
B1938094748156N12002436WA0000001971
B1938144748157N12002406WA0000001978
B1938194748188N12002392WA0000001985
B1938244748205N12002422WA0000001991
B1938294748196N12002433WA0000001996
B1938344748199N12002404WA0000002003
B1938394748229N12002391WA0000002009
B1938444748237N12002420WA0000002014
B1938494748228N12002428WA0000002017
B1938544748217N12002434WA0000002020
B1938594748202N12002418WA0000002024
B1939044748211N12002385WA0000002027
B1939094748238N12002368WA0000002030
B1939144748260N12002381WA0000002034
B1939194748270N12002408WA0000002039
B1939244748263N12002424WA0000002042
B1939294748247N12002432WA0000002049
B1939344748232N12002421WA0000002055
B1939394748237N12002382WA0000002061
B1939444748258N12002354WA0000002067
B1939494748285N12002343WA0000002072
B1939544748316N12002337WA0000002077
B1939594748347N12002330WA0000002081
B1940044748381N12002331WA0000002087
B1940094748411N12002353WA0000002094
B1940154748437N12002384WA0000002105
B1940204748435N12002410WA0000002111
B1940254748429N12002420WA0000002116
B1940304748420N12002405WA0000002120
B1940354748418N12002384WA0000002127
B1940404748412N12002353WA0000002135
B1940454748409N12002316WA0000002142
B1940504748418N12002275WA0000002151
B1940554748444N12002245WA0000002160
B1941004748475N12002241WA0000002170
B1941054748483N12002262WA0000002177
B1941104748478N12002263WA0000002182
B1941154748469N12002247WA0000002191
B1941204748475N12002206WA0000002202
B1941254748505N12002193WA0000002211
B1941304748527N12002208WA0000002219
B1941354748528N12002224WA0000002224
B1941404748522N12002195WA0000002233
B1941454748551N12002159WA0000002241
B1941504748577N12002173WA0000002249
B1941554748590N12002193WA0000002255
B1942004748606N12002219WA0000002260
B1942054748614N12002241WA0000002263
B1942104748619N12002266WA0000002265
B1942154748646N12002283WA0000002267
B1942204748681N12002292WA0000002269
B1942254748710N12002312WA0000002272
B1942304748731N12002338WA0000002277
B1942354748732N12002357WA0000002279
B1942404748721N12002349WA0000002280
B1942454748707N12002332WA0000002280
B1942504748692N12002313WA0000002280
B1942554748677N12002304WA0000002279
B1943014748655N12002302WA0000002275
B1943064748640N12002291WA0000002273
B1943114748626N12002274WA0000002270
B1943164748613N12002267WA0000002268
B1943214748601N12002272WA0000002266
B1943264748589N12002280WA0000002264
B1943314748577N12002287WA0000002262
B1943364748564N12002294WA0000002259
B1943414748557N12002298WA0000002256
B1943464748549N12002303WA0000002253
B1943514748541N12002306WA0000002250
B1943564748530N12002310WA0000002247
B1944014748520N12002315WA0000002244
B1944064748511N12002321WA0000002241
B1944114748503N12002332WA0000002238
B1944164748496N12002346WA0000002234
B1944214748489N12002361WA0000002231
B1944264748482N12002375WA0000002228
B1944314748474N12002387WA0000002225
B1944364748467N12002394WA0000002222
B1944414748459N12002400WA0000002219
B1944464748449N12002404WA0000002215
B1944514748439N12002409WA0000002211
B1944564748427N12002412WA0000002208
B1945014748415N12002414WA0000002205
B1945064748406N12002414WA0000002203
B1945114748398N12002412WA0000002201
B1945164748387N12002413WA0000002199
B1945214748379N12002417WA0000002198
B1945264748376N12002425WA0000002197
B1945314748373N12002432WA0000002197
B1945364748371N12002441WA0000002197
B1945424748362N12002450WA0000002198
B1945474748354N12002457WA0000002198
B1945524748348N12002453WA0000002199
B1945574748341N12002435WA0000002200
B1946024748335N12002416WA0000002202
B1946074748330N12002392WA0000002205
B1946124748325N12002370WA0000002207
B1946174748328N12002331WA0000002210
B1946224748352N12002286WA0000002213
B1946274748391N12002261WA0000002216
B1946324748429N12002262WA0000002219
B1946374748450N12002281WA0000002221
B1946424748457N12002300WA0000002224
B1946474748463N12002322WA0000002227
B1946524748476N12002345WA0000002231
B1946574748477N12002357WA0000002232
B1947024748472N12002360WA0000002235
B1947074748469N12002364WA0000002237
B1947124748466N12002366WA0000002240
B1947174748462N12002365WA0000002242
B1947224748456N12002359WA0000002245
B1947274748451N12002349WA0000002248
B1947324748450N12002320WA0000002253
B1947374748465N12002273WA0000002259
B1947424748498N12002237WA0000002263
B1947474748539N12002230WA0000002267
B1947524748563N12002249WA0000002270
B1947574748564N12002262WA0000002273
B1948024748564N12002268WA0000002275
B1948074748563N12002275WA0000002277
B1948124748562N12002282WA0000002280
B1948174748561N12002289WA0000002282
B1948224748564N12002302WA0000002285
B1948274748569N12002315WA0000002287
B1948324748570N12002324WA0000002290
B1948374748565N12002316WA0000002292
B1948424748560N12002300WA0000002294
B1948474748554N12002286WA0000002296
B1948534748552N12002292WA0000002298
B1948584748563N12002311WA0000002301
B1949034748581N12002332WA0000002303
B1949084748598N12002354WA0000002304
B1949134748606N12002370WA0000002305
B1949184748606N12002377WA0000002305
B1949234748602N12002365WA0000002306
B1949284748599N12002366WA0000002307
B1949334748611N12002386WA0000002309
B1949384748627N12002408WA0000002310
B1949434748632N12002424WA0000002311
B1949484748628N12002421WA0000002312
B1949534748625N12002417WA0000002313
B1949584748620N12002406WA0000002314
B1950034748616N12002393WA0000002315
B1950084748611N12002370WA0000002317
B1950134748614N12002331WA0000002320
B1950184748628N12002283WA0000002321
B1950234748663N12002242WA0000002323
B1950284748706N12002236WA0000002324
B1950334748730N12002255WA0000002324
B1950384748731N12002266WA0000002325
B1950434748726N12002274WA0000002325
B1950484748719N12002277WA0000002325
B1950534748713N12002281WA0000002325
B1950584748708N12002286WA0000002325
B1951034748704N12002293WA0000002325
B1951084748704N12002297WA0000002324
B1951134748704N12002300WA0000002324
B1951184748705N12002300WA0000002324
B1951234748709N12002307WA0000002324
B1951284748707N12002298WA0000002324
B1951334748714N12002255WA0000002325
B1951384748747N12002212WA0000002325
B1951434748786N12002213WA0000002325
B1951484748799N12002234WA0000002326
B1951534748804N12002241WA0000002328
B1951584748800N12002241WA0000002329
B1952044748789N12002237WA0000002330
B1952094748780N12002232WA0000002331
B1952144748770N12002232WA0000002330
B1952194748760N12002230WA0000002330
B1952244748750N12002224WA0000002329
B1952294748744N12002226WA0000002329
B1952344748734N12002231WA0000002328
B1952394748729N12002251WA0000002326
B1952444748729N12002275WA0000002323
B1952494748725N12002305WA0000002321
B1952544748725N12002324WA0000002320
B1952594748722N12002343WA0000002321
B1953044748717N12002353WA0000002322
B1953094748710N12002351WA0000002324
B1953144748702N12002340WA0000002327
B1953194748696N12002313WA0000002332
B1953244748707N12002267WA0000002338
B1953294748738N12002221WA0000002342
B1953344748774N12002183WA0000002345
B1953394748810N12002179WA0000002346
B1953444748832N12002205WA0000002347
B1953494748849N12002229WA0000002348
B1953544748857N12002249WA0000002349
B1953594748862N12002267WA0000002351
B1954044748858N12002282WA0000002352
B1954094748853N12002296WA0000002354
B1954154748842N12002292WA0000002356
B1954204748830N12002288WA0000002359
B1954254748822N12002263WA0000002362
B1954304748817N12002228WA0000002364
B1954354748806N12002224WA0000002364
B1954404748798N12002226WA0000002364
B1954454748791N12002235WA0000002364
B1954504748788N12002251WA0000002363
B1954554748784N12002268WA0000002362
B1955004748776N12002277WA0000002360
B1955054748768N12002286WA0000002359
B1955104748761N12002292WA0000002357
B1955154748754N12002299WA0000002356
B1955204748747N12002305WA0000002354
B1955254748741N12002307WA0000002352
B1955304748734N12002305WA0000002350
B1955354748724N12002302WA0000002349
B1955404748713N12002300WA0000002347
B1955454748706N12002301WA0000002345
B1955504748698N12002305WA0000002343
B1955554748692N12002312WA0000002340
B1956004748685N12002311WA0000002336
B1956054748676N12002309WA0000002332
B1956104748661N12002315WA0000002324
B1956154748647N12002322WA0000002318
B1956214748632N12002328WA0000002312
B1956264748623N12002334WA0000002308
B1956314748615N12002343WA0000002303
B1956364748607N12002356WA0000002298
B1956414748599N12002370WA0000002293
B1956464748591N12002381WA0000002288
B1956514748585N12002391WA0000002284
B1956564748576N12002392WA0000002279
B1957014748566N12002383WA0000002274
B1957064748553N12002371WA0000002269
B1957114748543N12002360WA0000002264
B1957164748536N12002363WA0000002259
B1957214748530N12002375WA0000002254
B1957264748525N12002391WA0000002250
B1957314748518N12002406WA0000002245
B1957364748511N12002419WA0000002241
B1957414748504N12002432WA0000002237
B1957464748499N12002443WA0000002233
B1957514748492N12002457WA0000002229
B1957564748487N12002473WA0000002225
B1958014748478N12002488WA0000002220
B1958064748467N12002495WA0000002216
B1958114748456N12002497WA0000002211
B1958164748446N12002490WA0000002207
B1958224748434N12002480WA0000002202
B1958274748424N12002472WA0000002198
B1958324748416N12002464WA0000002193
B1958374748405N12002448WA0000002186
B1958424748396N12002423WA0000002179
B1958474748389N12002389WA0000002172
B1958524748383N12002350WA0000002166
B1958574748371N12002312WA0000002161
B1959024748356N12002276WA0000002155
B1959074748340N12002238WA0000002150
B1959124748329N12002208WA0000002145
B1959174748315N12002183WA0000002139
B1959224748317N12002148WA0000002134
B1959274748330N12002107WA0000002130
B1959324748356N12002070WA0000002125
B1959374748390N12002039WA0000002120
B1959424748429N12002018WA0000002114
B1959474748466N12002000WA0000002108
B1959524748507N12001985WA0000002100
B1959574748544N12001962WA0000002093
B2000014748575N12001945WA0000002088
B2000024748582N12001941WA0000002086
B2000074748617N12001917WA0000002080
B2000124748650N12001887WA0000002074
B2000174748671N12001847WA0000002068
B2000224748687N12001807WA0000002061
B2000284748708N12001758WA0000002054
B2000334748733N12001725WA0000002047
B2000384748775N12001716WA0000002040
B2000434748821N12001708WA0000002033
B2000484748870N12001690WA0000002025
B2000534748919N12001676WA0000002017
B2000584748966N12001655WA0000002009
B2001034749007N12001632WA0000002001
B2001084749050N12001607WA0000001995
B2001134749091N12001585WA0000001990
B2001184749125N12001565WA0000001986
B2001234749163N12001530WA0000001981
B2001284749199N12001498WA0000001975
B2001334749236N12001462WA0000001969
B2001384749273N12001424WA0000001961
B2001434749309N12001388WA0000001954
B2001484749334N12001357WA0000001949
B2001534749354N12001324WA0000001945
B2001584749379N12001292WA0000001941
B2002034749404N12001256WA0000001937
B2002084749431N12001221WA0000001932
B2002134749458N12001184WA0000001926
B2002184749487N12001147WA0000001920
B2002234749519N12001116WA0000001914
B2002284749555N12001090WA0000001908
B2002334749590N12001063WA0000001901
B2002384749624N12001032WA0000001894
B2002434749660N12000996WA0000001886
B2002484749696N12000957WA0000001877
B2002534749730N12000918WA0000001869
B2002584749765N12000876WA0000001860
B2003034749800N12000837WA0000001850
B2003084749839N12000801WA0000001841
B2003134749878N12000766WA0000001831
B2003194749920N12000722WA0000001819
B2003244749951N12000682WA0000001808
B2003294749985N12000646WA0000001797
B2003344750019N12000611WA0000001787
B2003394750051N12000571WA0000001777
B2003444750080N12000535WA0000001768
B2003494750116N12000505WA0000001760
B2003544750154N12000480WA0000001752
B2003594750190N12000453WA0000001744
B2004044750224N12000424WA0000001736
B2004094750255N12000390WA0000001729
B2004144750284N12000354WA0000001721
B2004194750317N12000320WA0000001714
B2004244750351N12000286WA0000001706
B2004294750385N12000254WA0000001698
B2004344750418N12000220WA0000001691
B2004394750450N12000189WA0000001683
B2004444750481N12000157WA0000001676
B2004494750513N12000127WA0000001669
B2004544750545N12000098WA0000001662
B2004594750576N12000067WA0000001655
B2005044750607N12000037WA0000001648
B2005094750638N12000006WA0000001641
B2005144750670N11959970WA0000001633
B2005194750702N11959934WA0000001625
B2005244750735N11959898WA0000001617
B2005294750768N11959862WA0000001610
B2005354750804N11959819WA0000001601
B2005404750832N11959781WA0000001593
B2005454750861N11959743WA0000001586
B2005504750892N11959706WA0000001578
B2005554750924N11959672WA0000001571
B2006004750956N11959636WA0000001563
B2006054750988N11959598WA0000001555
B2006104751019N11959559WA0000001548
B2006154751045N11959519WA0000001540
B2006204751072N11959476WA0000001533
B2006254751101N11959437WA0000001526
B2006304751131N11959400WA0000001519
B2006354751162N11959363WA0000001511
B2006404751194N11959326WA0000001503
B2006454751229N11959292WA0000001496
B2006504751266N11959259WA0000001487
B2006554751301N11959227WA0000001479
B2007004751335N11959193WA0000001471
B2007054751368N11959157WA0000001462
B2007104751402N11959121WA0000001454
B2007154751435N11959085WA0000001445
B2007204751466N11959047WA0000001437
B2007254751499N11959007WA0000001429
B2007304751531N11958967WA0000001422
B2007354751559N11958929WA0000001415
B2007404751586N11958891WA0000001408
B2007454751612N11958855WA0000001401
B2007504751641N11958821WA0000001394
B2007554751671N11958789WA0000001387
B2008004751702N11958760WA0000001379
B2008054751734N11958733WA0000001370
B2008114751766N11958724WA0000001359
B2008164751790N11958715WA0000001351
B2008214751813N11958703WA0000001347
B2008264751835N11958686WA0000001347
B2008314751853N11958664WA0000001350
B2008364751850N11958638WA0000001356
B2008414751834N11958644WA0000001361
B2008464751836N11958687WA0000001368
B2008514751861N11958700WA0000001377
B2008564751877N11958677WA0000001386
B2009014751876N11958657WA0000001394
B2009064751860N11958656WA0000001406
B2009114751858N11958694WA0000001417
B2009164751879N11958728WA0000001428
B2009214751907N11958735WA0000001438
B2009264751927N11958713WA0000001450
B2009314751931N11958684WA0000001462
B2009364751919N11958683WA0000001470
B2009414751910N11958716WA0000001481
B2009464751932N11958756WA0000001493
B2009514751962N11958757WA0000001503
B2009564751988N11958746WA0000001514
B2010014752016N11958734WA0000001524
B2010064752019N11958705WA0000001533
B2010114752011N11958710WA0000001540
B2010164752014N11958749WA0000001549
B2010214752025N11958786WA0000001557
B2010274752059N11958791WA0000001566
B2010324752073N11958769WA0000001574
B2010374752069N11958749WA0000001580
B2010424752059N11958766WA0000001586
B2010474752065N11958810WA0000001592
B2010524752093N11958828WA0000001597
B2010574752115N11958813WA0000001603
B2011024752120N11958787WA0000001607
B2011074752118N11958759WA0000001610
B2011124752119N11958724WA0000001612
B2011174752123N11958699WA0000001616
B2011224752142N11958671WA0000001618
B2011274752170N11958680WA0000001622
B2011324752180N11958712WA0000001625
B2011374752165N11958720WA0000001627
B2011424752165N11958693WA0000001628
B2011474752182N11958663WA0000001630
B2011524752213N11958669WA0000001631
B2011574752231N11958696WA0000001633
B2012024752252N11958715WA0000001635
B2012074752258N11958748WA0000001636
B2012124752245N11958742WA0000001635
B2012174752235N11958716WA0000001633
B2012224752244N11958684WA0000001632
B2012274752272N11958666WA0000001631
B2012324752306N11958683WA0000001629
B2012374752321N11958711WA0000001628
B2012424752313N11958724WA0000001627
B2012474752302N11958705WA0000001627
B2012524752313N11958666WA0000001626
B2012584752351N11958626WA0000001621
B2013034752386N11958585WA0000001615
B2013084752416N11958543WA0000001608
B2013134752446N11958502WA0000001600
B2013184752474N11958459WA0000001591
B2013234752500N11958418WA0000001583
B2013284752520N11958380WA0000001576
B2013334752544N11958341WA0000001567
B2013384752574N11958291WA0000001558
B2013434752596N11958247WA0000001551
B2013484752614N11958206WA0000001545
B2013534752636N11958174WA0000001541
B2013584752661N11958134WA0000001536
B2014034752688N11958096WA0000001531
B2014084752720N11958078WA0000001526
B2014134752750N11958092WA0000001520
B2014184752779N11958092WA0000001516
B2014234752811N11958075WA0000001514
B2014284752823N11958051WA0000001513
B2014334752821N11958057WA0000001512
B2014384752826N11958084WA0000001511
B2014434752846N11958099WA0000001510
B2014484752871N11958078WA0000001510
B2014534752890N11958055WA0000001510
B2014584752908N11958032WA0000001510
B2015034752932N11958014WA0000001510
B2015084752954N11957989WA0000001510
B2015134752959N11957953WA0000001508
B2015184752938N11957944WA0000001507
B2015234752933N11957968WA0000001506
B2015284752959N11957974WA0000001505
B2015334752975N11957945WA0000001504
B2015384752979N11957912WA0000001503
B2015444752982N11957869WA0000001500
B2015494752999N11957836WA0000001498
B2015544753029N11957815WA0000001494
B2015594753059N11957822WA0000001490
B2016044753053N11957843WA0000001486
B2016094753033N11957836WA0000001482
B2016144753026N11957852WA0000001477
B2016194753057N11957846WA0000001471
B2016244753082N11957821WA0000001466
B2016294753106N11957786WA0000001460
B2016344753137N11957768WA0000001452
B2016394753170N11957764WA0000001443
B2016444753205N11957757WA0000001434
B2016494753237N11957762WA0000001424
B2016544753263N11957784WA0000001415
B2016594753276N11957811WA0000001408
B2017044753280N11957829WA0000001406
B2017094753277N11957846WA0000001406
B2017144753271N11957863WA0000001407
B2017194753260N11957871WA0000001410
B2017244753258N11957895WA0000001417
B2017294753277N11957882WA0000001425
B2017344753271N11957846WA0000001436
B2017394753262N11957849WA0000001443
B2017444753275N11957858WA0000001456
B2017494753285N11957828WA0000001471
B2017544753275N11957828WA0000001483
B2017594753288N11957841WA0000001500
B2018044753299N11957808WA0000001517
B2018104753283N11957805WA0000001531
B2018154753266N11957805WA0000001549
B2018204753261N11957816WA0000001562
B2018254753284N11957824WA0000001580
B2018304753313N11957804WA0000001596
B2018354753328N11957770WA0000001612
B2018404753311N11957762WA0000001627
B2018454753310N11957785WA0000001641
B2018504753336N11957793WA0000001654
B2018554753363N11957772WA0000001665
B2019004753353N11957756WA0000001675
B2019054753366N11957779WA0000001685
B2019104753398N11957774WA0000001697
B2019154753422N11957735WA0000001709
B2019204753419N11957694WA0000001721
B2019254753408N11957708WA0000001734
B2019304753435N11957724WA0000001747
B2019354753467N11957702WA0000001760
B2019404753494N11957684WA0000001774
B2019454753520N11957676WA0000001789
B2019504753535N11957645WA0000001802
B2019554753524N11957625WA0000001815
B2020004753512N11957629WA0000001824
B2020054753510N11957639WA0000001833
B2020104753538N11957639WA0000001850
B2020154753555N11957603WA0000001867
B2020204753545N11957579WA0000001882
B2020254753543N11957595WA0000001890
B2020304753566N11957611WA0000001906
B2020364753605N11957591WA0000001924
B2020414753628N11957557WA0000001938
B2020464753622N11957523WA0000001949
B2020514753612N11957528WA0000001956
B2020564753611N11957543WA0000001964
B2021014753613N11957557WA0000001973
B2021064753615N11957574WA0000001983
B2021114753629N11957594WA0000001997
B2021164753654N11957611WA0000002013
B2021214753666N11957632WA0000002027
B2021264753666N11957652WA0000002036
B2021314753661N11957660WA0000002044
B2021364753677N11957675WA0000002056
B2021414753707N11957656WA0000002068
B2021464753735N11957629WA0000002078
B2021514753767N11957610WA0000002086
B2021564753797N11957602WA0000002093
B2022014753818N11957627WA0000002101
B2022064753832N11957658WA0000002107
B2022114753839N11957683WA0000002114
B2022164753832N11957695WA0000002117
B2022214753821N11957671WA0000002121
B2022264753832N11957636WA0000002125
B2022314753851N11957602WA0000002128
B2022364753873N11957574WA0000002131
B2022414753890N11957538WA0000002133
B2022464753909N11957505WA0000002136
B2022514753931N11957472WA0000002140
B2022564753961N11957446WA0000002142
B2023014753994N11957437WA0000002143
B2023064754033N11957430WA0000002144
B2023114754072N11957417WA0000002143
B2023164754111N11957399WA0000002141
B2023224754156N11957368WA0000002138
B2023274754195N11957342WA0000002133
B2023324754236N11957322WA0000002128
B2023374754277N11957307WA0000002122
B2023424754320N11957291WA0000002115
B2023474754358N11957273WA0000002109
B2023524754400N11957256WA0000002103
B2023574754445N11957238WA0000002096
B2024024754489N11957218WA0000002088
B2024074754530N11957195WA0000002078
B2024124754570N11957168WA0000002069
B2024174754610N11957146WA0000002060
B2024224754652N11957125WA0000002050
B2024274754694N11957103WA0000002039
B2024324754736N11957081WA0000002028
B2024374754781N11957065WA0000002016
B2024424754823N11957049WA0000002004
B2024474754867N11957033WA0000001992
B2024524754910N11957014WA0000001979
B2024574754950N11956986WA0000001966
B2025024754986N11956944WA0000001954
B2025074755022N11956899WA0000001941
B2025124755059N11956857WA0000001928
B2025174755101N11956817WA0000001914
B2025224755145N11956774WA0000001899
B2025274755191N11956732WA0000001883
B2025324755233N11956691WA0000001868
B2025374755274N11956650WA0000001853
B2025424755313N11956605WA0000001838
B2025474755352N11956563WA0000001824
B2025524755394N11956521WA0000001810
B2025584755444N11956470WA0000001793
B2026034755484N11956431WA0000001780
B2026084755520N11956386WA0000001766
B2026134755555N11956342WA0000001753
B2026184755590N11956299WA0000001739
B2026234755626N11956254WA0000001725
B2026284755662N11956212WA0000001710
B2026334755697N11956169WA0000001696
B2026384755732N11956128WA0000001683
B2026434755765N11956085WA0000001670
B2026484755801N11956042WA0000001656
B2026534755837N11956000WA0000001644
B2026584755874N11955959WA0000001631
B2027034755912N11955924WA0000001618
B2027084755952N11955888WA0000001606
B2027134755989N11955850WA0000001594
B2027184756023N11955808WA0000001583
B2027234756056N11955766WA0000001571
B2027284756090N11955725WA0000001560
B2027334756125N11955682WA0000001549
B2027384756158N11955638WA0000001538
B2027434756188N11955590WA0000001527
B2027484756214N11955543WA0000001516
B2027534756244N11955496WA0000001504
B2027584756275N11955449WA0000001492
B2028034756305N11955401WA0000001479
B2028094756343N11955348WA0000001464
B2028144756377N11955303WA0000001451
B2028194756411N11955257WA0000001438
B2028244756444N11955212WA0000001426
B2028294756477N11955169WA0000001413
B2028344756511N11955128WA0000001401
B2028394756541N11955080WA0000001389
B2028444756568N11955028WA0000001378
B2028494756596N11954975WA0000001366
B2028544756617N11954930WA0000001356
B2028594756630N11954904WA0000001349
B2029044756623N11954896WA0000001345
B2029094756612N11954904WA0000001342
B2029144756599N11954907WA0000001339
B2029194756589N11954899WA0000001337
B2029244756568N11954880WA0000001331
B2029294756549N11954851WA0000001324
B2029344756536N11954809WA0000001315
B2029394756530N11954766WA0000001307
B2029444756525N11954719WA0000001297
B2029494756519N11954677WA0000001289
B2029544756514N11954642WA0000001281
B2029594756501N11954622WA0000001275
B2030044756482N11954630WA0000001270
B2030094756460N11954652WA0000001266
B2030144756444N11954668WA0000001263
B2030194756426N11954685WA0000001262
B2030254756404N11954707WA0000001263
B2030304756385N11954723WA0000001265
B2030354756369N11954742WA0000001266
B2030404756354N11954763WA0000001268
B2030454756338N11954785WA0000001269
B2030504756329N11954804WA0000001270
B2030554756318N11954831WA0000001272
B2031004756309N11954851WA0000001273
B2031054756302N11954865WA0000001275
B2031104756295N11954876WA0000001277
B2031154756283N11954880WA0000001279
B2031204756275N11954889WA0000001281
B2031254756267N11954896WA0000001283
B2031304756261N11954897WA0000001286
B2031354756261N11954868WA0000001292
B2031404756290N11954850WA0000001299
B2031454756314N11954872WA0000001305
B2031504756308N11954874WA0000001309
B2031554756311N11954844WA0000001317
B2032004756336N11954816WA0000001325
B2032054756366N11954830WA0000001332
B2032104756365N11954846WA0000001335
B2032154756360N11954840WA0000001339
B2032204756363N11954809WA0000001346
B2032254756389N11954784WA0000001352
B2032304756422N11954763WA0000001357
B2032354756445N11954718WA0000001362
B2032404756463N11954686WA0000001367
B2032454756479N11954656WA0000001372
B2032504756494N11954629WA0000001378
B2032554756507N11954605WA0000001383
B2033014756527N11954564WA0000001389
B2033064756544N11954533WA0000001395
B2033114756564N11954499WA0000001400
B2033164756589N11954470WA0000001404
B2033214756615N11954434WA0000001407
B2033264756638N11954402WA0000001410
B2033314756651N11954363WA0000001412
B2033364756654N11954325WA0000001414
B2033414756656N11954287WA0000001415
B2033464756653N11954257WA0000001417
B2033514756651N11954240WA0000001419
B2033564756651N11954222WA0000001422
B2034014756654N11954200WA0000001428
B2034064756681N11954189WA0000001437
B2034114756702N11954223WA0000001445
B2034164756697N11954243WA0000001452
B2034214756689N11954244WA0000001459
B2034264756694N11954222WA0000001465
B2034314756699N11954198WA0000001476
B2034364756719N11954173WA0000001487
B2034414756753N11954159WA0000001495
B2034464756783N11954186WA0000001502
B2034514756780N11954211WA0000001508
B2034564756771N11954218WA0000001512
B2035014756761N11954223WA0000001517
B2035064756765N11954196WA0000001525
B2035114756783N11954169WA0000001532
B2035164756812N11954159WA0000001538
B2035214756832N11954189WA0000001544
B2035264756825N11954197WA0000001548
B2035314756831N11954167WA0000001555
B2035374756861N11954140WA0000001564
B2035424756892N11954121WA0000001573
B2035474756926N11954113WA0000001581
B2035524756958N11954109WA0000001591
B2035574756984N11954130WA0000001601
B2036024756979N11954146WA0000001607
B2036074756981N11954122WA0000001616
B2036124757011N11954107WA0000001628
B2036174757024N11954133WA0000001638
B2036224757015N11954132WA0000001646
B2036274757032N11954107WA0000001656
B2036324757051N11954130WA0000001665
B2036374757056N11954159WA0000001674
B2036424757056N11954189WA0000001682
B2036474757049N11954189WA0000001687
B2036524757074N11954169WA0000001695
B2036574757101N11954189WA0000001703
B2037024757116N11954222WA0000001711
B2037074757111N11954242WA0000001717
B2037124757108N11954227WA0000001722
B2037174757130N11954205WA0000001731
B2037224757157N11954224WA0000001740
B2037274757157N11954250WA0000001748
B2037324757152N11954244WA0000001753
B2037374757175N11954222WA0000001760
B2037424757200N11954245WA0000001767
B2037474757198N11954275WA0000001772
B2037524757196N11954260WA0000001775
B2037584757233N11954241WA0000001780
B2038034757270N11954254WA0000001784
B2038084757305N11954270WA0000001789
B2038134757317N11954303WA0000001794
B2038184757311N11954294WA0000001798
B2038234757337N11954275WA0000001804
B2038284757372N11954288WA0000001810
B2038334757396N11954324WA0000001816
B2038384757401N11954367WA0000001820
B2038434757390N11954385WA0000001823
B2038484757396N11954365WA0000001827
B2038534757431N11954356WA0000001830
B2038584757470N11954360WA0000001833
B2039034757504N11954385WA0000001837
B2039084757514N11954428WA0000001840
B2039134757506N11954454WA0000001842
B2039184757502N11954490WA0000001844
B2039234757495N11954520WA0000001845
B2039284757483N11954517WA0000001845
B2039334757471N11954504WA0000001844
B2039384757475N11954477WA0000001842
B2039434757486N11954433WA0000001838
B2039484757502N11954395WA0000001834
B2039534757518N11954364WA0000001832
B2039584757531N11954329WA0000001830
B2040034757533N11954298WA0000001827
B2040084757519N11954274WA0000001822
B2040134757500N11954252WA0000001814
B2040184757479N11954230WA0000001805
B2040234757473N11954224WA0000001800
B2040294757460N11954206WA0000001788
B2040344757449N11954183WA0000001777
B2040394757430N11954157WA0000001763
B2040444757409N11954132WA0000001749
B2040494757390N11954109WA0000001734
B2040544757373N11954096WA0000001720
B2040594757355N11954097WA0000001708
B2041044757342N11954097WA0000001700
B2041094757333N11954095WA0000001695
B2041144757316N11954085WA0000001688
B2041194757297N11954070WA0000001682
B2041244757273N11954061WA0000001678
B2041294757256N11954049WA0000001678
B2041344757248N11954022WA0000001679
B2041394757248N11953988WA0000001682
B2041444757246N11953953WA0000001688
B2041494757240N11953920WA0000001695
B2041544757232N11953889WA0000001704
B2041594757219N11953866WA0000001713
B2042044757203N11953866WA0000001720
B2042094757210N11953890WA0000001728
B2042144757236N11953903WA0000001737
B2042194757261N11953904WA0000001749
B2042244757267N11953866WA0000001761
B2042294757256N11953879WA0000001773
B2042344757278N11953888WA0000001787
B2042404757300N11953851WA0000001802
B2042454757291N11953825WA0000001814
B2042504757275N11953834WA0000001824
B2042554757290N11953859WA0000001833
B2043004757319N11953857WA0000001843
B2043054757349N11953850WA0000001853
B2043104757379N11953840WA0000001863
B2043154757409N11953830WA0000001872
B2043204757439N11953812WA0000001881
B2043254757466N11953787WA0000001891
B2043304757497N11953762WA0000001901
B2043354757529N11953736WA0000001911
B2043404757555N11953702WA0000001920
B2043454757583N11953667WA0000001930
B2043504757610N11953632WA0000001940
B2043554757640N11953599WA0000001950
B2044004757670N11953576WA0000001960
B2044054757692N11953541WA0000001968
B2044104757713N11953498WA0000001976
B2044154757736N11953455WA0000001983
B2044204757761N11953450WA0000001990
B2044254757773N11953467WA0000001997
B2044304757788N11953484WA0000002008
B2044354757789N11953501WA0000002015
B2044404757783N11953514WA0000002021
B2044454757767N11953526WA0000002032
B2044504757755N11953531WA0000002038
B2044554757749N11953547WA0000002044
B2045004757740N11953565WA0000002053
B2045054757737N11953584WA0000002060
B2045104757734N11953607WA0000002069
B2045154757730N11953630WA0000002078
B2045204757730N11953662WA0000002086
B2045264757734N11953697WA0000002096
B2045314757736N11953723WA0000002103
B2045364757738N11953749WA0000002110
B2045414757752N11953779WA0000002117
B2045464757784N11953794WA0000002124
B2045514757818N11953775WA0000002132
B2045564757847N11953750WA0000002140
B2046014757866N11953716WA0000002147
B2046064757874N11953679WA0000002155
B2046114757880N11953641WA0000002163
B2046164757878N11953657WA0000002170
B2046214757905N11953675WA0000002179
B2046264757935N11953685WA0000002188
B2046314757957N11953672WA0000002196
B2046364757971N11953635WA0000002201
B2046414757993N11953592WA0000002205
B2046464758010N11953555WA0000002209
B2046514758028N11953518WA0000002212
B2046564758049N11953473WA0000002215
B2047014758068N11953426WA0000002216
B2047064758087N11953380WA0000002218
B2047114758112N11953349WA0000002220
B2047164758146N11953346WA0000002223
B2047214758182N11953345WA0000002226
B2047264758215N11953346WA0000002229
B2047314758247N11953335WA0000002232
B2047364758254N11953286WA0000002234
B2047414758254N11953235WA0000002237
B2047464758250N11953182WA0000002240
B2047524758250N11953121WA0000002243
B2047574758253N11953066WA0000002245
B2048024758259N11953014WA0000002245
B2048074758265N11952956WA0000002244
B2048124758274N11952902WA0000002242
B2048174758292N11952844WA0000002239
B2048224758310N11952783WA0000002234
B2048274758326N11952712WA0000002227
B2048324758339N11952646WA0000002220
B2048374758353N11952577WA0000002214
B2048424758363N11952518WA0000002208
B2048474758371N11952452WA0000002203
B2048524758384N11952398WA0000002198
B2048574758403N11952346WA0000002193
B2049024758424N11952294WA0000002188
B2049074758447N11952236WA0000002181
B2049124758469N11952181WA0000002173
B2049174758492N11952126WA0000002164
B2049224758519N11952070WA0000002155
B2049274758546N11952016WA0000002147
B2049324758572N11951964WA0000002139
B2049374758599N11951910WA0000002130
B2049424758626N11951856WA0000002121
B2049474758654N11951800WA0000002111
B2049524758682N11951744WA0000002101
B2049574758716N11951691WA0000002090
B2050024758750N11951630WA0000002078
B2050074758787N11951569WA0000002064
B2050124758823N11951507WA0000002051
B2050174758853N11951461WA0000002040
B2050224758884N11951413WA0000002029
B2050274758921N11951367WA0000002019
B2050334758969N11951313WA0000002005
B2050384759003N11951262WA0000001994
B2050434759032N11951210WA0000001985
B2050484759058N11951155WA0000001977
B2050534759081N11951106WA0000001971
B2050584759100N11951056WA0000001965
B2051034759118N11951002WA0000001959
B2051084759137N11950947WA0000001953
B2051134759157N11950893WA0000001947
B2051184759179N11950842WA0000001942
B2051234759197N11950797WA0000001937
B2051284759213N11950750WA0000001932
B2051334759231N11950703WA0000001928
B2051384759252N11950657WA0000001924
B2051434759270N11950610WA0000001919
B2051484759290N11950563WA0000001914
B2051534759310N11950518WA0000001909
B2051584759330N11950475WA0000001903
B2052034759352N11950426WA0000001896
B2052084759374N11950377WA0000001888
B2052134759395N11950328WA0000001880
B2052184759417N11950283WA0000001872
B2052234759433N11950236WA0000001862
B2052284759450N11950181WA0000001851
B2052334759468N11950131WA0000001840
B2052384759486N11950085WA0000001829
B2052444759507N11950034WA0000001817
B2052494759523N11949991WA0000001807
B2052544759539N11949946WA0000001798
B2052594759554N11949900WA0000001789
B2053044759565N11949852WA0000001779
B2053094759575N11949809WA0000001769
B2053144759594N11949767WA0000001758
B2053194759613N11949721WA0000001747
B2053244759638N11949679WA0000001735
B2053294759666N11949639WA0000001723
B2053344759694N11949599WA0000001711
B2053394759724N11949556WA0000001698
B2053444759760N11949518WA0000001683
B2053494759799N11949488WA0000001669
B2053544759840N11949457WA0000001654
B2053594759881N11949425WA0000001639
B2054044759922N11949393WA0000001626
B2054094759959N11949355WA0000001614
B2054144759993N11949314WA0000001603
B2054194800021N11949277WA0000001593
B2054244800050N11949255WA0000001586
B2054294800082N11949245WA0000001580
B2054344800126N11949228WA0000001571
B2054394800175N11949204WA0000001560
B2054454800225N11949186WA0000001551
B2054504800254N11949175WA0000001547
B2054554800285N11949167WA0000001545
B2055004800298N11949188WA0000001544
B2055054800284N11949197WA0000001545
B2055104800271N11949186WA0000001547
B2055154800287N11949143WA0000001552
B2055204800315N11949141WA0000001558
B2055254800310N11949155WA0000001562
B2055304800299N11949151WA0000001567
B2055354800297N11949160WA0000001574
B2055404800331N11949157WA0000001584
B2055454800327N11949129WA0000001594
B2055504800342N11949139WA0000001600
B2055554800363N11949151WA0000001609
B2056004800382N11949170WA0000001618
B2056054800406N11949143WA0000001626
B2056104800397N11949114WA0000001634
B2056154800389N11949127WA0000001640
B2056204800407N11949138WA0000001650
B2056254800424N11949107WA0000001660
B2056304800413N11949085WA0000001668
B2056354800405N11949105WA0000001675
B2056404800429N11949127WA0000001683
B2056454800450N11949121WA0000001691
B2056504800446N11949088WA0000001699
B2056554800433N11949098WA0000001705
B2057014800458N11949121WA0000001710
B2057064800484N11949109WA0000001712
B2057114800518N11949105WA0000001716
B2057164800538N11949086WA0000001721
B2057214800524N11949082WA0000001726
B2057264800543N11949112WA0000001732
B2057314800566N11949093WA0000001739
B2057364800561N11949062WA0000001746
B2057414800556N11949088WA0000001754
B2057464800583N11949108WA0000001762
B2057514800607N11949092WA0000001771
B2057564800616N11949063WA0000001778
B2058014800614N11949024WA0000001786
B2058064800623N11948986WA0000001794
B2058114800649N11948955WA0000001802
B2058164800677N11948924WA0000001809
B2058214800707N11948873WA0000001813
B2058264800736N11948819WA0000001815
B2058314800767N11948766WA0000001816
B2058364800800N11948716WA0000001815
B2058414800836N11948667WA0000001812
B2058464800868N11948620WA0000001809
B2058514800903N11948576WA0000001804
B2058564800936N11948529WA0000001799
B2059014800963N11948484WA0000001794
B2059064800998N11948438WA0000001786
B2059114801037N11948398WA0000001778
B2059164801079N11948355WA0000001768
B2059214801119N11948311WA0000001757
B2059274801167N11948251WA0000001742
B2059324801205N11948199WA0000001729
B2059374801235N11948151WA0000001716
B2059424801262N11948102WA0000001705
B2059474801289N11948046WA0000001695
B2059524801315N11947997WA0000001687
B2059574801341N11947965WA0000001682
B2100024801373N11947936WA0000001676
B2100074801399N11947895WA0000001671
B2100124801411N11947856WA0000001669
B2100174801412N11947821WA0000001668
B2100224801413N11947782WA0000001669
B2100274801437N11947745WA0000001671
B2100324801468N11947746WA0000001673
B2100374801473N11947772WA0000001674
B2100424801462N11947767WA0000001676
B2100474801456N11947732WA0000001679
B2100524801454N11947692WA0000001683
B2100574801466N11947649WA0000001687
B2101024801505N11947630WA0000001692
B2101074801536N11947640WA0000001696
B2101124801548N11947657WA0000001701
B2101174801544N11947652WA0000001704
B2101224801542N11947617WA0000001710
B2101274801553N11947578WA0000001715
B2101324801576N11947536WA0000001720
B2101374801613N11947513WA0000001724
B2101434801656N11947517WA0000001729
B2101484801668N11947536WA0000001732
B2101534801664N11947527WA0000001735
B2101584801671N11947490WA0000001739
B2102034801708N11947467WA0000001743
B2102084801740N11947480WA0000001747
B2102134801747N11947498WA0000001749
B2102184801743N11947480WA0000001752
B2102234801745N11947443WA0000001755
B2102284801747N11947415WA0000001757
B2102334801745N11947379WA0000001758
B2102384801727N11947351WA0000001755
B2102434801707N11947318WA0000001749
B2102484801688N11947293WA0000001742
B2102534801666N11947273WA0000001736
B2102584801647N11947256WA0000001731
B2103034801624N11947232WA0000001723
B2103084801597N11947210WA0000001713
B2103134801571N11947194WA0000001702
B2103184801544N11947179WA0000001690
B2103234801518N11947164WA0000001679
B2103284801490N11947167WA0000001668
B2103334801472N11947164WA0000001661
B2103384801461N11947160WA0000001659
B2103434801449N11947153WA0000001656
B2103484801439N11947145WA0000001655
B2103534801432N11947133WA0000001656
B2103584801422N11947122WA0000001657
B2104034801411N11947111WA0000001658
B2104094801378N11947100WA0000001658
B2104144801368N11947103WA0000001659
B2104194801364N11947100WA0000001661
B2104244801355N11947097WA0000001665
B2104294801342N11947103WA0000001669
B2104344801321N11947115WA0000001672
B2104394801300N11947119WA0000001673
B2104444801276N11947115WA0000001674
B2104494801255N11947111WA0000001677
B2104544801246N11947113WA0000001681
B2104594801269N11947141WA0000001689
B2105044801300N11947123WA0000001699
B2105094801307N11947095WA0000001708
B2105144801303N11947110WA0000001716
B2105194801334N11947137WA0000001727
B2105244801369N11947128WA0000001741
B2105294801381N11947098WA0000001755
B2105344801377N11947106WA0000001765
B2105394801404N11947136WA0000001781
B2105444801439N11947124WA0000001798
B2105494801447N11947091WA0000001815
B2105544801440N11947089WA0000001825
B2106004801467N11947123WA0000001848
B2106054801498N11947107WA0000001866
B2106104801500N11947079WA0000001880
B2106154801498N11947100WA0000001895
B2106204801528N11947129WA0000001913
B2106254801559N11947143WA0000001930
B2106304801569N11947117WA0000001946
B2106354801565N11947121WA0000001954
B2106404801590N11947148WA0000001971
B2106454801612N11947125WA0000001989
B2106504801605N11947124WA0000002001
B2106554801626N11947155WA0000002017
B2107004801664N11947146WA0000002032
B2107054801668N11947123WA0000002043
B2107104801655N11947134WA0000002054
B2107154801652N11947147WA0000002061
B2107204801651N11947146WA0000002068
B2107254801656N11947176WA0000002080
B2107304801674N11947220WA0000002092
B2107354801700N11947262WA0000002103
B2107404801733N11947293WA0000002114
B2107454801770N11947284WA0000002126
B2107504801775N11947266WA0000002134
B2107554801781N11947302WA0000002146
B2108004801787N11947336WA0000002157
B2108054801782N11947330WA0000002163
B2108114801811N11947309WA0000002179
B2108164801838N11947343WA0000002191
B2108214801838N11947378WA0000002201
B2108264801833N11947375WA0000002208
B2108314801855N11947364WA0000002223
B2108364801877N11947408WA0000002235
B2108414801872N11947421WA0000002243
B2108464801882N11947399WA0000002255
B2108514801913N11947399WA0000002270
B2108564801938N11947443WA0000002285
B2109014801936N11947468WA0000002296
B2109064801938N11947450WA0000002304
B2109114801953N11947429WA0000002316
B2109164801989N11947427WA0000002326
B2109214802017N11947465WA0000002335
B2109264802019N11947494WA0000002343
B2109314802018N11947488WA0000002348
B2109364802032N11947464WA0000002357
B2109414802064N11947450WA0000002365
B2109464802102N11947470WA0000002374
B2109514802114N11947509WA0000002382
B2109564802111N11947515WA0000002387
B2110014802132N11947491WA0000002394
B2110064802171N11947484WA0000002400
B2110114802212N11947495WA0000002406
B2110164802240N11947535WA0000002413
B2110214802243N11947560WA0000002417
B2110264802249N11947543WA0000002421
B2110314802278N11947512WA0000002425
B2110364802321N11947504WA0000002428
B2110414802361N11947524WA0000002433
B2110464802377N11947560WA0000002437
B2110524802378N11947561WA0000002440
B2110574802390N11947531WA0000002443
B2111024802415N11947491WA0000002446
B2111074802440N11947454WA0000002447
B2111124802471N11947420WA0000002449
B2111174802503N11947389WA0000002450
B2111224802532N11947355WA0000002450
B2111274802561N11947312WA0000002449
B2111324802595N11947267WA0000002447
B2111374802630N11947222WA0000002444
B2111424802661N11947181WA0000002442
B2111474802688N11947144WA0000002439
B2111524802712N11947104WA0000002435
B2111574802739N11947064WA0000002431
B2112024802766N11947022WA0000002427
B2112074802792N11946978WA0000002423
B2112124802816N11946934WA0000002419
B2112174802843N11946892WA0000002415
B2112224802873N11946849WA0000002409
B2112274802903N11946807WA0000002402
B2112324802934N11946767WA0000002395
B2112374802962N11946727WA0000002388
B2112424802987N11946684WA0000002381
B2112474803014N11946640WA0000002375
B2112524803039N11946598WA0000002369
B2112574803064N11946553WA0000002362
B2113024803092N11946509WA0000002357
B2113074803119N11946460WA0000002350
B2113134803155N11946401WA0000002342
B2113184803188N11946352WA0000002336
B2113234803218N11946309WA0000002330
B2113284803247N11946259WA0000002323
B2113334803277N11946206WA0000002316
B2113384803307N11946157WA0000002308
B2113434803337N11946111WA0000002299
B2113484803367N11946062WA0000002289
B2113534803396N11946015WA0000002279
B2113584803433N11945965WA0000002267
B2114034803470N11945918WA0000002256
B2114084803507N11945875WA0000002245
B2114134803540N11945838WA0000002234
B2114184803574N11945799WA0000002222
B2114234803610N11945765WA0000002208
B2114284803660N11945738WA0000002194
B2114334803701N11945712WA0000002181
B2114384803749N11945682WA0000002168
B2114434803796N11945652WA0000002154
B2114484803844N11945623WA0000002141
B2114534803896N11945595WA0000002127
B2114584803954N11945569WA0000002113
B2115034804011N11945569WA0000002104
B2115084804059N11945574WA0000002098
B2115144804117N11945594WA0000002097
B2115194804157N11945584WA0000002098
B2115244804162N11945583WA0000002100
B2115294804191N11945620WA0000002105
B2115344804235N11945621WA0000002112
B2115394804254N11945595WA0000002117
B2115444804255N11945605WA0000002122
B2115494804283N11945646WA0000002129
B2115544804326N11945641WA0000002137
B2115594804339N11945621WA0000002144
B2116044804349N11945610WA0000002149
B2116094804364N11945635WA0000002156
B2116144804413N11945652WA0000002164
B2116194804445N11945629WA0000002173
B2116244804453N11945625WA0000002178
B2116294804466N11945658WA0000002186
B2116344804510N11945686WA0000002194
B2116394804552N11945672WA0000002201
B2116444804559N11945655WA0000002204
B2116494804563N11945662WA0000002208
B2116544804572N11945689WA0000002214
B2116594804610N11945722WA0000002220
B2117044804655N11945712WA0000002225
B2117094804670N11945694WA0000002229
B2117144804673N11945696WA0000002231
B2117194804676N11945696WA0000002233
B2117244804682N11945686WA0000002236
B2117294804698N11945662WA0000002241
B2117344804740N11945646WA0000002247
B2117394804781N11945675WA0000002252
B2117454804794N11945710WA0000002255
B2117504804799N11945698WA0000002257
B2117554804828N11945673WA0000002263
B2118004804872N11945663WA0000002268
B2118054804917N11945646WA0000002271
B2118104804964N11945633WA0000002273
B2118154805010N11945626WA0000002273
B2118204805056N11945612WA0000002271
B2118254805091N11945589WA0000002270
B2118304805122N11945580WA0000002270
B2118354805155N11945571WA0000002272
B2118404805179N11945561WA0000002275
B2118454805180N11945577WA0000002278
B2118504805207N11945624WA0000002283
B2118554805237N11945615WA0000002288
B2119004805239N11945618WA0000002291
B2119054805251N11945666WA0000002297
B2119104805287N11945699WA0000002303
B2119154805328N11945708WA0000002308
B2119204805354N11945690WA0000002312
B2119254805357N11945688WA0000002315
B2119304805362N11945725WA0000002320
B2119354805393N11945767WA0000002325
B2119404805430N11945764WA0000002329
B2119454805453N11945742WA0000002333
B2119504805459N11945739WA0000002335
B2119554805469N11945720WA0000002337
B2120004805489N11945705WA0000002340
B2120054805507N11945679WA0000002341
B2120114805532N11945648WA0000002342
B2120164805553N11945628WA0000002344
B2120214805577N11945601WA0000002344
B2120264805604N11945560WA0000002343
B2120314805618N11945533WA0000002342
B2120364805638N11945504WA0000002340
B2120414805655N11945463WA0000002337
B2120464805661N11945441WA0000002335
B2120514805662N11945409WA0000002334
B2120564805670N11945385WA0000002334
B2121014805683N11945356WA0000002333
B2121064805688N11945326WA0000002332
B2121114805694N11945302WA0000002333
B2121164805703N11945275WA0000002335
B2121214805703N11945268WA0000002336
B2121264805713N11945306WA0000002339
B2121314805751N11945330WA0000002343
B2121364805780N11945308WA0000002347
B2121414805789N11945281WA0000002351
B2121464805799N11945258WA0000002356
B2121514805799N11945252WA0000002358
B2121564805813N11945290WA0000002363
B2122014805853N11945303WA0000002368
B2122064805872N11945278WA0000002373
B2122114805872N11945268WA0000002376
B2122164805871N11945286WA0000002381
B2122214805892N11945324WA0000002387
B2122264805935N11945334WA0000002392
B2122314805958N11945309WA0000002397
B2122364805958N11945306WA0000002400
B2122424805974N11945348WA0000002407
B2122474806017N11945355WA0000002412
B2122524806044N11945329WA0000002416
B2122574806059N11945293WA0000002418
B2123024806078N11945256WA0000002419
B2123074806103N11945226WA0000002420
B2123124806134N11945188WA0000002421
B2123174806161N11945153WA0000002421
B2123224806190N11945104WA0000002419
B2123274806216N11945056WA0000002416
B2123324806243N11945010WA0000002412
B2123374806267N11944960WA0000002408
B2123424806292N11944922WA0000002403
B2123474806321N11944890WA0000002398
B2123524806354N11944856WA0000002394
B2123574806388N11944833WA0000002392
B2124024806415N11944797WA0000002390
B2124074806445N11944770WA0000002390
B2124124806477N11944745WA0000002391
B2124174806503N11944720WA0000002392
B2124224806508N11944707WA0000002393
B2124274806515N11944738WA0000002392
B2124324806542N11944780WA0000002391
B2124374806583N11944811WA0000002391
B2124424806629N11944814WA0000002391
B2124474806676N11944788WA0000002389
B2124524806725N11944764WA0000002387
B2124574806772N11944739WA0000002383
B2125024806816N11944713WA0000002379
B2125074806859N11944676WA0000002373
B2125124806897N11944633WA0000002364
B2125174806936N11944584WA0000002353
B2125224806983N11944539WA0000002341
B2125274807032N11944504WA0000002328
B2125324807082N11944465WA0000002316
B2125384807144N11944419WA0000002302
B2125434807195N11944383WA0000002293
B2125484807243N11944348WA0000002283
B2125534807289N11944310WA0000002274
B2125584807334N11944270WA0000002265
B2126034807386N11944239WA0000002256
B2126084807441N11944219WA0000002247
B2126134807498N11944197WA0000002238
B2126184807554N11944172WA0000002230
B2126234807607N11944144WA0000002221
B2126284807662N11944118WA0000002213
B2126334807716N11944095WA0000002204
B2126384807777N11944071WA0000002193
B2126434807838N11944050WA0000002182
B2126484807901N11944027WA0000002171
B2126534807963N11944007WA0000002161
B2126584808023N11943988WA0000002151
B2127034808082N11943967WA0000002140
B2127084808143N11943943WA0000002129
B2127134808198N11943925WA0000002120
B2127184808252N11943912WA0000002112
B2127234808306N11943904WA0000002104
B2127284808357N11943894WA0000002097
B2127334808408N11943881WA0000002090
B2127384808459N11943868WA0000002083
B2127434808508N11943853WA0000002076
B2127484808560N11943841WA0000002069
B2127534808612N11943838WA0000002062
B2127584808662N11943833WA0000002055
B2128034808712N11943824WA0000002049
B2128094808772N11943810WA0000002041
B2128144808822N11943792WA0000002036
B2128194808864N11943775WA0000002032
B2128244808906N11943757WA0000002027
B2128294808955N11943741WA0000002021
B2128344809011N11943742WA0000002015
B2128394809068N11943748WA0000002009
B2128444809129N11943759WA0000002002
B2128494809190N11943775WA0000001995
B2128544809250N11943791WA0000001987
B2128594809310N11943806WA0000001978
B2129044809365N11943821WA0000001970
B2129094809422N11943832WA0000001962
B2129144809478N11943840WA0000001954
B2129194809537N11943848WA0000001945
B2129244809595N11943855WA0000001937
B2129294809655N11943854WA0000001929
B2129344809713N11943850WA0000001921
B2129394809772N11943851WA0000001912
B2129444809826N11943856WA0000001905
B2129494809882N11943869WA0000001896
B2129544809935N11943886WA0000001888
B2129594809990N11943903WA0000001878
B2130044810043N11943920WA0000001869
B2130094810100N11943933WA0000001858
B2130144810155N11943945WA0000001848
B2130204810220N11943959WA0000001835
B2130254810274N11943971WA0000001825
B2130304810327N11943982WA0000001814
B2130354810382N11943997WA0000001803
B2130404810437N11944010WA0000001792
B2130454810492N11944019WA0000001782
B2130504810548N11944028WA0000001771
B2130554810600N11944030WA0000001761
B2131004810653N11944036WA0000001750
B2131054810709N11944049WA0000001738
B2131104810763N11944063WA0000001727
B2131154810817N11944079WA0000001716
B2131204810872N11944096WA0000001706
B2131254810926N11944116WA0000001696
B2131304810980N11944131WA0000001685
B2131354811035N11944142WA0000001675
B2131404811089N11944152WA0000001665
B2131454811143N11944163WA0000001655
B2131504811198N11944169WA0000001644
B2131554811252N11944173WA0000001633
B2132004811306N11944176WA0000001621
B2132054811356N11944176WA0000001608
B2132104811397N11944173WA0000001596
B2132154811430N11944171WA0000001586
B2132204811460N11944157WA0000001579
B2132254811494N11944161WA0000001575
B2132304811515N11944190WA0000001575
B2132354811519N11944223WA0000001577
B2132404811506N11944231WA0000001580
B2132464811524N11944194WA0000001586
B2132514811556N11944201WA0000001592
B2132564811571N11944232WA0000001600
B2133014811579N11944267WA0000001609
B2133064811571N11944282WA0000001615
B2133114811571N11944253WA0000001625
B2133164811587N11944222WA0000001634
B2133214811617N11944214WA0000001643
B2133264811648N11944220WA0000001651
B2133314811678N11944240WA0000001660
B2133364811696N11944273WA0000001669
B2133414811699N11944307WA0000001678
B2133464811694N11944299WA0000001683
B2133514811708N11944273WA0000001693
B2133564811738N11944256WA0000001702
B2134014811767N11944276WA0000001711
B2134064811774N11944309WA0000001719
B2134114811766N11944314WA0000001724
B2134164811771N11944286WA0000001733
B2134214811800N11944265WA0000001743
B2134264811832N11944284WA0000001752
B2134314811833N11944311WA0000001758
B2134364811830N11944294WA0000001763
B2134414811849N11944267WA0000001770
B2134464811881N11944278WA0000001775
B2134514811896N11944316WA0000001780
B2134564811889N11944321WA0000001781
B2135014811895N11944292WA0000001784
B2135064811918N11944266WA0000001786
B2135114811940N11944237WA0000001789
B2135164811947N11944206WA0000001793
B2135224811934N11944199WA0000001797
B2135274811938N11944229WA0000001802
B2135324811970N11944235WA0000001806
B2135374811996N11944211WA0000001811
B2135424812020N11944185WA0000001814
B2135474812050N11944156WA0000001816
B2135524812081N11944123WA0000001817
B2135574812107N11944087WA0000001817
B2136024812127N11944050WA0000001819
B2136074812152N11944012WA0000001819
B2136124812188N11943963WA0000001817
B2136174812221N11943916WA0000001814
B2136224812256N11943874WA0000001810
B2136274812294N11943827WA0000001804
B2136324812324N11943776WA0000001797
B2136374812350N11943719WA0000001787
B2136424812372N11943667WA0000001776
B2136474812402N11943609WA0000001764
B2136524812438N11943555WA0000001751
B2136574812472N11943499WA0000001736
B2137024812507N11943441WA0000001720
B2137074812537N11943385WA0000001704
B2137124812570N11943329WA0000001686
B2137174812611N11943282WA0000001669
B2137224812658N11943241WA0000001651
B2137274812702N11943201WA0000001635
B2137324812746N11943164WA0000001620
B2137374812787N11943130WA0000001606
B2137424812831N11943096WA0000001592
B2137484812881N11943055WA0000001577
B2137534812922N11943023WA0000001566
B2137584812962N11942991WA0000001556
B2138034813003N11942952WA0000001546
B2138084813044N11942912WA0000001536
B2138134813086N11942872WA0000001527
B2138184813128N11942835WA0000001518
B2138234813173N11942796WA0000001510
B2138284813216N11942756WA0000001502
B2138334813254N11942709WA0000001494
B2138384813285N11942672WA0000001488
B2138434813318N11942636WA0000001482
B2138484813348N11942599WA0000001476
B2138534813384N11942559WA0000001470
B2138584813419N11942520WA0000001464
B2139034813448N11942488WA0000001459
B2139084813474N11942452WA0000001454
B2139134813503N11942417WA0000001449
B2139184813537N11942375WA0000001444
B2139234813566N11942341WA0000001439
B2139284813585N11942302WA0000001432
B2139334813604N11942262WA0000001425
B2139384813622N11942225WA0000001419
B2139434813640N11942186WA0000001411
B2139484813657N11942150WA0000001405
B2139534813673N11942115WA0000001397
B2139584813691N11942082WA0000001389
B2140034813707N11942046WA0000001379
B2140084813720N11942010WA0000001369
B2140134813730N11941972WA0000001356
B2140184813740N11941934WA0000001344
B2140234813751N11941899WA0000001332
B2140284813765N11941863WA0000001319
B2140344813784N11941816WA0000001302
B2140394813805N11941775WA0000001287
B2140444813846N11941759WA0000001271
B2140494813901N11941769WA0000001253
B2140544813952N11941806WA0000001235
B2140594813998N11941843WA0000001217
B2141044814043N11941880WA0000001199
B2141094814089N11941917WA0000001181
B2141144814128N11941947WA0000001165
B2141194814165N11941973WA0000001151
B2141244814206N11941997WA0000001139
B2141294814251N11942015WA0000001129
B2141344814296N11942024WA0000001120
B2141394814344N11942032WA0000001113
B2141444814396N11942034WA0000001106
B2141494814443N11942034WA0000001099
B2141544814495N11942026WA0000001090
B2141594814544N11942016WA0000001081
B2142044814592N11942016WA0000001072
B2142094814635N11942022WA0000001065
B2142144814679N11942030WA0000001058
B2142194814728N11942045WA0000001051
B2142244814763N11942058WA0000001046
B2142294814796N11942040WA0000001041
B2142344814803N11942017WA0000001037
B2142394814796N11942023WA0000001034
B2142444814800N11942058WA0000001027
B2142494814821N11942096WA0000001021
B2142544814864N11942106WA0000001017
B2142594814902N11942100WA0000001013
B2143044814938N11942088WA0000001010
B2143104814981N11942063WA0000001008
B2143154814988N11942035WA0000001006
B2143204814992N11942053WA0000001006
B2143254815028N11942067WA0000001005
B2143304815058N11942039WA0000001005
B2143354815064N11942013WA0000001005
B2143404815072N11942028WA0000001004
B2143454815112N11942041WA0000001003
B2143504815145N11942012WA0000001003
B2143554815159N11941966WA0000001003
B2144004815176N11941924WA0000001004
B2144054815192N11941881WA0000001004
B2144104815202N11941838WA0000001004
B2144154815208N11941790WA0000001003
B2144204815209N11941746WA0000001001
B2144254815208N11941704WA0000000999
B2144304815206N11941660WA0000000996
B2144354815204N11941622WA0000000992
B2144404815204N11941581WA0000000989
B2144454815200N11941541WA0000000985
B2144504815198N11941508WA0000000983
B2144554815197N11941480WA0000000982
B2145004815196N11941449WA0000000983
B2145054815198N11941421WA0000000986
B2145104815192N11941411WA0000000988
B2145154815214N11941443WA0000000989
B2145204815250N11941437WA0000000991
B2145254815263N11941402WA0000000994
B2145304815278N11941421WA0000000997
B2145354815308N11941397WA0000001001
B2145414815308N11941366WA0000001006
B2145464815324N11941334WA0000001009
B2145514815362N11941336WA0000001011
B2145564815370N11941359WA0000001013
B2146014815371N11941380WA0000001014
B2146064815377N11941412WA0000001015
B2146114815404N11941446WA0000001017
B2146164815440N11941435WA0000001019
B2146214815450N11941413WA0000001022
B2146264815448N11941423WA0000001023
B2146314815466N11941460WA0000001026
B2146364815503N11941466WA0000001028
B2146414815521N11941436WA0000001029
B2146464815527N11941411WA0000001029
B2146514815530N11941398WA0000001031
B2146564815549N11941430WA0000001033
B2147014815587N11941423WA0000001035
B2147064815603N11941394WA0000001036
B2147114815599N11941395WA0000001036
B2147164815607N11941432WA0000001036
B2147214815614N11941465WA0000001036
B2147264815612N11941479WA0000001035
B2147314815618N11941463WA0000001033
B2147364815637N11941437WA0000001028
B2147414815661N11941408WA0000001021
B2147464815688N11941373WA0000001012
B2147524815716N11941324WA0000001000
B2147574815739N11941281WA0000000988
B2148024815763N11941248WA0000000977
B2148074815790N11941220WA0000000967
B2148124815816N11941185WA0000000959
B2148174815841N11941155WA0000000952
B2148224815868N11941122WA0000000946
B2148274815891N11941094WA0000000942
B2148324815911N11941062WA0000000940
B2148374815922N11941026WA0000000940
B2148424815915N11941005WA0000000941
B2148474815913N11941033WA0000000945
B2148524815941N11941035WA0000000952
B2148574815932N11941029WA0000000960
B2149024815941N11941069WA0000000971
B2149074815965N11941064WA0000000982
B2149124815959N11941057WA0000000991
B2149174815969N11941096WA0000001005
B2149224815995N11941101WA0000001020
B2149274815997N11941087WA0000001030
B2149324815998N11941126WA0000001045
B2149374816027N11941139WA0000001057
B2149424816044N11941130WA0000001069
B2149484816036N11941136WA0000001082
B2149534816060N11941176WA0000001095
B2149584816091N11941175WA0000001107
B2150034816093N11941163WA0000001117
B2150084816111N11941201WA0000001131
B2150134816134N11941189WA0000001143
B2150184816127N11941189WA0000001152
B2150234816146N11941235WA0000001168
B2150284816182N11941246WA0000001182
B2150334816209N11941233WA0000001193
B2150384816205N11941225WA0000001200
B2150434816196N11941238WA0000001206
B2150484816190N11941267WA0000001216
B2150534816218N11941314WA0000001224
B2150584816260N11941329WA0000001231
B2151034816302N11941344WA0000001235
B2151084816339N11941334WA0000001238
B2151134816355N11941318WA0000001243
B2151184816354N11941333WA0000001248
B2151234816391N11941358WA0000001255
B2151284816412N11941344WA0000001263
B2151334816419N11941327WA0000001269
B2151384816423N11941352WA0000001276
B2151444816465N11941381WA0000001287
B2151494816490N11941359WA0000001296
B2151544816494N11941342WA0000001301
B2151594816495N11941368WA0000001309
B2152044816519N11941412WA0000001318
B2152094816557N11941417WA0000001327
B2152144816572N11941392WA0000001335
B2152194816569N11941398WA0000001340
B2152244816588N11941443WA0000001349
B2152294816629N11941452WA0000001355
B2152344816657N11941432WA0000001362
B2152394816669N11941402WA0000001368
B2152444816685N11941374WA0000001374
B2152494816702N11941348WA0000001380
B2152544816718N11941321WA0000001386
B2152594816735N11941289WA0000001389
B2153044816761N11941258WA0000001391
B2153094816784N11941227WA0000001392
B2153144816810N11941210WA0000001394
B2153194816837N11941190WA0000001394
B2153244816860N11941157WA0000001393
B2153294816887N11941134WA0000001394
B2153344816917N11941102WA0000001395
B2153394816941N11941067WA0000001397
B2153444816964N11941030WA0000001401
B2153494816988N11941004WA0000001407
B2153554817004N11940970WA0000001415
B2154004817023N11940948WA0000001422
B2154054817049N11940919WA0000001428
B2154104817075N11940885WA0000001433
B2154154817098N11940852WA0000001438
B2154204817123N11940834WA0000001444
B2154254817149N11940821WA0000001452
B2154304817176N11940804WA0000001461
B2154354817199N11940786WA0000001470
B2154404817217N11940764WA0000001481
B2154454817237N11940747WA0000001492
B2154504817257N11940724WA0000001501
B2154554817277N11940700WA0000001508
B2155004817297N11940677WA0000001514
B2155054817311N11940653WA0000001519
B2155104817318N11940621WA0000001520
B2155154817323N11940601WA0000001521
B2155204817333N11940566WA0000001519
B2155254817351N11940527WA0000001517
B2155304817376N11940487WA0000001514
B2155354817408N11940442WA0000001511
B2155404817437N11940400WA0000001508
B2155454817474N11940354WA0000001505
B2155504817512N11940317WA0000001503
B2155554817550N11940275WA0000001502
B2156004817575N11940249WA0000001507
B2156054817601N11940213WA0000001512
B2156104817628N11940175WA0000001518
B2156154817651N11940142WA0000001526
B2156204817676N11940103WA0000001537
B2156264817708N11940064WA0000001550
B2156314817739N11940034WA0000001563
B2156364817768N11939995WA0000001574
B2156414817799N11939950WA0000001583
B2156464817831N11939907WA0000001590
B2156514817867N11939863WA0000001597
B2156564817903N11939821WA0000001601
B2157014817944N11939773WA0000001604
B2157064817981N11939726WA0000001606
B2157114818019N11939680WA0000001607
B2157164818058N11939635WA0000001609
B2157214818098N11939588WA0000001610
B2157264818138N11939539WA0000001610
B2157314818174N11939485WA0000001609
B2157364818211N11939432WA0000001606
B2157414818251N11939386WA0000001603
B2157464818295N11939345WA0000001601
B2157514818341N11939302WA0000001597
B2157564818386N11939256WA0000001592
B2158014818428N11939210WA0000001586
B2158064818471N11939167WA0000001579
B2158114818515N11939119WA0000001571
B2158164818557N11939071WA0000001562
B2158214818600N11939022WA0000001552
B2158264818644N11938971WA0000001542
B2158314818684N11938920WA0000001532
B2158364818725N11938870WA0000001522
B2158414818767N11938823WA0000001512
B2158464818813N11938772WA0000001500
B2158514818857N11938721WA0000001488
B2158564818901N11938666WA0000001474
B2159024818953N11938604WA0000001458
B2159074818998N11938551WA0000001443
B2159124819042N11938495WA0000001429
B2159174819085N11938437WA0000001413
B2159224819128N11938378WA0000001398
B2159274819172N11938321WA0000001382
B2159324819218N11938266WA0000001366
B2159374819264N11938211WA0000001350
B2159424819307N11938150WA0000001333
B2159474819353N11938093WA0000001317
B2159524819398N11938038WA0000001300
B2159574819443N11937982WA0000001284
B2200024819486N11937931WA0000001267
B2200074819529N11937878WA0000001250
B2200124819574N11937825WA0000001234
B2200174819620N11937771WA0000001217
B2200224819664N11937718WA0000001201
B2200274819706N11937664WA0000001187
B2200324819745N11937612WA0000001172
B2200374819784N11937561WA0000001157
B2200424819822N11937510WA0000001142
B2200474819864N11937455WA0000001127
B2200524819903N11937401WA0000001112
B2200574819941N11937345WA0000001098
B2201034819987N11937277WA0000001081
B2201084820025N11937219WA0000001067
B2201134820063N11937161WA0000001055
B2201184820100N11937107WA0000001044
B2201234820130N11937051WA0000001034
B2201284820154N11937012WA0000001025
B2201334820189N11936964WA0000001015
B2201384820226N11936916WA0000001007
B2201434820261N11936871WA0000000999
B2201484820298N11936829WA0000000990
B2201534820333N11936784WA0000000981
B2201584820371N11936741WA0000000973
B2202034820406N11936696WA0000000964
B2202084820443N11936646WA0000000954
B2202134820480N11936595WA0000000944
B2202184820517N11936541WA0000000934
B2202234820556N11936490WA0000000923
B2202284820597N11936446WA0000000911
B2202334820635N11936406WA0000000899
B2202384820676N11936353WA0000000885
B2202434820716N11936305WA0000000873
B2202484820758N11936257WA0000000860
B2202534820798N11936213WA0000000849
B2202584820836N11936164WA0000000841
B2203034820872N11936123WA0000000835
B2203064820896N11936097WA0000000832
B2203074820904N11936089WA0000000831
B2203134820957N11936037WA0000000825
B2203184820994N11935999WA0000000820
B2203234821028N11935963WA0000000815
B2203284821061N11935931WA0000000809
B2203334821091N11935906WA0000000803
B2203384821123N11935872WA0000000797
B2203434821160N11935841WA0000000792
B2203444821167N11935834WA0000000790
B2203454821174N11935827WA0000000789
B2203504821209N11935801WA0000000781
B2203554821227N11935826WA0000000772
B2204004821227N11935854WA0000000762
B2204054821220N11935884WA0000000750
B2204104821208N11935904WA0000000740
B2204154821201N11935912WA0000000735
B2204204821192N11935931WA0000000725
B2204254821184N11935950WA0000000716
B2204304821183N11935958WA0000000712
B2204354821202N11935968WA0000000705
B2204404821236N11935944WA0000000699
B2204454821261N11935905WA0000000696
B2204504821289N11935857WA0000000691
B2204554821316N11935809WA0000000687
B2205004821341N11935763WA0000000682
B2205054821363N11935711WA0000000677
B2205104821386N11935661WA0000000671
B2205154821426N11935641WA0000000665
B2205204821460N11935618WA0000000659
B2205254821453N11935578WA0000000652
B2205304821438N11935561WA0000000645
B2205354821425N11935556WA0000000639
B2205404821411N11935552WA0000000633
B2205454821399N11935545WA0000000626
B2205504821394N11935549WA0000000621
B2205554821387N11935550WA0000000615
B2206004821384N11935547WA0000000611
B2206054821383N11935550WA0000000607
B2206104821384N11935555WA0000000604
B2206154821385N11935562WA0000000601
B2206204821384N11935569WA0000000598
B2206254821383N11935573WA0000000595
B2206304821380N11935578WA0000000592
B2206364821384N11935594WA0000000588
B2206414821388N11935610WA0000000585
B2206464821397N11935627WA0000000582
B2206514821405N11935641WA0000000579
B2206564821418N11935651WA0000000575
B2207014821435N11935667WA0000000570
B2207064821449N11935682WA0000000567
B2207114821459N11935695WA0000000564
B2207164821472N11935714WA0000000560
B2207214821495N11935732WA0000000555
B2207264821495N11935741WA0000000553
B2207314821488N11935736WA0000000550
B2207364821481N11935726WA0000000548
B2207414821474N11935734WA0000000545
B2207464821465N11935738WA0000000542
B2207514821457N11935741WA0000000538
B2207564821452N11935750WA0000000536
B2208014821447N11935750WA0000000534
B2208064821443N11935753WA0000000532
B2208114821437N11935745WA0000000530
B2208164821432N11935731WA0000000528
B2208214821423N11935723WA0000000525
B2208264821413N11935715WA0000000521
B2208314821407N11935720WA0000000516
B2208364821402N11935735WA0000000510
B2208414821394N11935735WA0000000504
B2208464821385N11935722WA0000000498
B2208514821388N11935681WA0000000485
B2208564821422N11935669WA0000000474
B2209014821434N11935687WA0000000465
B2209064821444N11935708WA0000000455
B2209114821473N11935724WA0000000447
B2209164821511N11935722WA0000000440
B2209214821536N11935738WA0000000434
B2209264821556N11935763WA0000000427
B2209314821568N11935778WA0000000421
B2209364821571N11935789WA0000000416
B2209414821563N11935770WA0000000411
B2209464821569N11935795WA0000000405
B2209514821563N11935785WA0000000401
B2209564821561N11935749WA0000000393
B2210014821568N11935770WA0000000388
B2210064821566N11935775WA0000000384
B2210114821570N11935738WA0000000376
B2210164821577N11935700WA0000000370
B2210214821569N11935685WA0000000366
B2210264821575N11935706WA0000000362
B2210314821597N11935731WA0000000358
B2210364821592N11935702WA0000000354
B2210414821583N11935697WA0000000351
B2210474821583N11935710WA0000000347
B2210524821578N11935685WA0000000344
B2210574821572N11935671WA0000000342
B2211024821568N11935669WA0000000340
B2211074821558N11935661WA0000000335
B2211124821550N11935657WA0000000331
B2211174821543N11935667WA0000000326
B2211224821536N11935679WA0000000321
B2211274821528N11935688WA0000000315
B2211324821518N11935693WA0000000310
B2211374821515N11935695WA0000000305
B2211424821517N11935696WA0000000301
B2211474821518N11935697WA0000000296
B2211524821518N11935697WA0000000293
B2211574821519N11935697WA0000000289
B2212024821519N11935697WA0000000286
B2212074821521N11935695WA0000000284
B2212124821523N11935694WA0000000281
B2212174821524N11935694WA0000000279
B2212224821524N11935693WA0000000278
B2212274821524N11935692WA0000000277
B2212324821523N11935689WA0000000276
B2212374821520N11935687WA0000000275
B2212424821516N11935685WA0000000275
B2212474821514N11935683WA0000000274
LXGD GpsDump version 4.19
LXGD Downloaded 2008-08-08  23:22:54
