AXGD538 6030, SN06032, SW3.28
HFDTE280708
HOPLTPILOT: Josh Cohn
HOGTYGLIDERTYPE: 8
HOGTYGLIDERID: 89
HODTM100GPSDATUM: WGS-84
HOCCLCOMPETITION CLASS: Open
HOSITSite: Chelan
B1920324748241N12002323WA0000001129
B1920374748241N12002323WA0000001129
B1920424748241N12002324WA0000001129
B1920474748241N12002325WA0000001129
B1920524748240N12002325WA0000001130
B1920574748240N12002323WA0000001130
B1921024748239N12002321WA0000001131
B1921074748239N12002320WA0000001131
B1921124748239N12002319WA0000001131
B1921174748239N12002319WA0000001131
B1921224748239N12002319WA0000001131
B1921274748239N12002318WA0000001130
B1921324748239N12002319WA0000001130
B1921374748239N12002319WA0000001129
B1921424748239N12002320WA0000001129
B1921474748239N12002320WA0000001128
B1921524748239N12002321WA0000001128
B1921574748239N12002321WA0000001128
B1922024748239N12002321WA0000001127
B1922074748239N12002320WA0000001128
B1922124748240N12002319WA0000001127
B1922174748239N12002320WA0000001127
B1922224748239N12002319WA0000001127
B1922274748238N12002320WA0000001127
B1922324748233N12002318WA0000001127
B1922374748218N12002317WA0000001127
B1922424748200N12002324WA0000001126
B1922474748182N12002320WA0000001123
B1922524748166N12002308WA0000001120
B1922574748147N12002294WA0000001118
B1923024748136N12002289WA0000001117
B1923074748116N12002276WA0000001117
B1923124748096N12002261WA0000001118
B1923174748083N12002240WA0000001120
B1923224748070N12002234WA0000001122
B1923274748074N12002263WA0000001128
B1923324748094N12002263WA0000001134
B1923374748108N12002233WA0000001141
B1923424748096N12002220WA0000001147
B1923474748092N12002245WA0000001155
B1923524748112N12002262WA0000001163
B1923574748129N12002240WA0000001172
B1924024748125N12002206WA0000001181
B1924074748109N12002191WA0000001188
B1924124748099N12002215WA0000001195
B1924174748106N12002242WA0000001204
B1924224748125N12002255WA0000001213
B1924274748146N12002238WA0000001221
B1924324748143N12002206WA0000001229
B1924374748132N12002179WA0000001238
B1924424748114N12002173WA0000001247
B1924484748096N12002165WA0000001257
B1924534748086N12002160WA0000001264
B1924584748070N12002146WA0000001275
B1925034748047N12002135WA0000001283
B1925084748027N12002135WA0000001292
B1925134748009N12002136WA0000001302
B1925184747989N12002132WA0000001312
B1925234747971N12002130WA0000001322
B1925284747951N12002123WA0000001331
B1925334747932N12002141WA0000001339
B1925384747937N12002176WA0000001346
B1925434747962N12002180WA0000001353
B1925484747966N12002148WA0000001359
B1925534747955N12002124WA0000001366
B1925584747947N12002108WA0000001370
B1926034747936N12002128WA0000001379
B1926084747955N12002130WA0000001389
B1926134747947N12002117WA0000001401
B1926184747944N12002147WA0000001414
B1926234747968N12002147WA0000001428
B1926284747969N12002128WA0000001437
B1926334747959N12002149WA0000001450
B1926384747981N12002156WA0000001465
B1926434747985N12002134WA0000001476
B1926484747972N12002154WA0000001493
B1926534747992N12002171WA0000001509
B1926584748001N12002151WA0000001523
B1927034747987N12002155WA0000001536
B1927084747994N12002190WA0000001556
B1927134748021N12002196WA0000001573
B1927184748020N12002179WA0000001583
B1927234748003N12002171WA0000001596
B1927284747986N12002182WA0000001613
B1927334747978N12002213WA0000001630
B1927384747982N12002255WA0000001645
B1927434747989N12002287WA0000001660
B1927484748012N12002294WA0000001674
B1927534748015N12002270WA0000001685
B1927584748000N12002263WA0000001695
B1928034747985N12002279WA0000001710
B1928084747999N12002307WA0000001723
B1928134748018N12002287WA0000001735
B1928184748020N12002259WA0000001746
B1928234748009N12002244WA0000001756
B1928294747988N12002244WA0000001770
B1928344747974N12002270WA0000001782
B1928394747987N12002302WA0000001793
B1928444748011N12002294WA0000001803
B1928494748033N12002270WA0000001812
B1928544748048N12002246WA0000001822
B1928594748055N12002221WA0000001834
B1929044748045N12002239WA0000001845
B1929094748057N12002271WA0000001860
B1929144748083N12002261WA0000001875
B1929194748091N12002237WA0000001892
B1929244748083N12002225WA0000001901
B1929294748067N12002237WA0000001918
B1929344748070N12002269WA0000001939
B1929394748095N12002287WA0000001957
B1929444748111N12002270WA0000001974
B1929494748111N12002249WA0000001985
B1929544748100N12002240WA0000001995
B1929594748095N12002273WA0000002012
B1930044748117N12002293WA0000002028
B1930094748139N12002278WA0000002044
B1930144748148N12002253WA0000002060
B1930194748144N12002232WA0000002075
B1930244748131N12002243WA0000002088
B1930294748138N12002274WA0000002107
B1930344748158N12002300WA0000002124
B1930394748185N12002313WA0000002138
B1930444748201N12002282WA0000002151
B1930494748203N12002258WA0000002162
B1930544748194N12002250WA0000002169
B1930594748180N12002252WA0000002179
B1931044748170N12002268WA0000002190
B1931094748179N12002305WA0000002203
B1931144748202N12002329WA0000002213
B1931194748233N12002334WA0000002222
B1931244748253N12002309WA0000002231
B1931294748257N12002277WA0000002239
B1931344748261N12002245WA0000002247
B1931394748261N12002213WA0000002255
B1931444748263N12002179WA0000002264
B1931494748264N12002146WA0000002274
B1931544748254N12002149WA0000002283
B1931594748276N12002166WA0000002292
B1932044748304N12002152WA0000002303
B1932094748310N12002116WA0000002313
B1932144748304N12002092WA0000002323
B1932194748295N12002102WA0000002328
B1932244748297N12002127WA0000002337
B1932294748309N12002157WA0000002346
B1932354748342N12002172WA0000002355
B1932404748367N12002145WA0000002362
B1932454748381N12002102WA0000002369
B1932504748379N12002062WA0000002375
B1932554748373N12002037WA0000002381
B1933004748357N12002025WA0000002384
B1933054748343N12002031WA0000002385
B1933104748331N12002049WA0000002385
B1933154748332N12002078WA0000002385
B1933204748351N12002097WA0000002384
B1933254748373N12002113WA0000002385
B1933304748400N12002121WA0000002386
B1933354748429N12002100WA0000002388
B1933404748437N12002063WA0000002391
B1933454748425N12002039WA0000002393
B1933504748416N12002057WA0000002395
B1933554748428N12002084WA0000002396
B1934004748453N12002104WA0000002397
B1934054748477N12002122WA0000002398
B1934104748499N12002142WA0000002400
B1934154748518N12002166WA0000002403
B1934204748534N12002191WA0000002407
B1934254748536N12002214WA0000002409
B1934304748522N12002236WA0000002409
B1934354748519N12002254WA0000002409
B1934404748542N12002275WA0000002408
B1934454748572N12002282WA0000002406
B1934504748592N12002250WA0000002402
B1934554748587N12002212WA0000002397
B1935004748574N12002189WA0000002391
B1935054748554N12002185WA0000002385
B1935104748549N12002211WA0000002381
B1935154748556N12002242WA0000002379
B1935204748581N12002256WA0000002377
B1935254748611N12002236WA0000002374
B1935304748642N12002202WA0000002373
B1935354748673N12002181WA0000002370
B1935404748705N12002165WA0000002365
B1935454748732N12002154WA0000002361
B1935504748756N12002131WA0000002359
B1935554748767N12002099WA0000002358
B1936004748761N12002063WA0000002359
B1936064748751N12002076WA0000002360
B1936114748773N12002086WA0000002362
B1936164748802N12002083WA0000002364
B1936214748817N12002051WA0000002367
B1936264748807N12002026WA0000002370
B1936314748793N12002031WA0000002371
B1936364748802N12002052WA0000002372
B1936414748827N12002063WA0000002373
B1936464748855N12002047WA0000002374
B1936514748875N12002012WA0000002376
B1936564748864N12001980WA0000002376
B1937014748847N12001979WA0000002375
B1937064748829N12001989WA0000002371
B1937114748808N12001987WA0000002367
B1937164748780N12001991WA0000002360
B1937214748755N12002009WA0000002354
B1937264748743N12002039WA0000002348
B1937314748738N12002061WA0000002344
B1937364748726N12002079WA0000002339
B1937414748716N12002090WA0000002336
B1937464748702N12002108WA0000002330
B1937514748681N12002123WA0000002323
B1937564748667N12002148WA0000002315
B1938014748654N12002167WA0000002308
B1938064748637N12002179WA0000002302
B1938114748621N12002187WA0000002296
B1938164748605N12002197WA0000002290
B1938214748588N12002204WA0000002282
B1938264748571N12002210WA0000002274
B1938314748553N12002219WA0000002266
B1938364748534N12002224WA0000002256
B1938414748516N12002228WA0000002247
B1938464748496N12002232WA0000002238
B1938514748477N12002231WA0000002228
B1938564748459N12002227WA0000002218
B1939014748440N12002225WA0000002208
B1939064748422N12002226WA0000002198
B1939114748403N12002231WA0000002189
B1939164748385N12002236WA0000002181
B1939214748365N12002246WA0000002173
B1939274748342N12002257WA0000002164
B1939324748324N12002268WA0000002157
B1939374748306N12002279WA0000002150
B1939424748288N12002288WA0000002143
B1939474748269N12002292WA0000002137
B1939524748250N12002295WA0000002130
B1939574748232N12002305WA0000002124
B1940024748222N12002333WA0000002118
B1940074748216N12002362WA0000002112
B1940124748204N12002389WA0000002106
B1940174748187N12002400WA0000002100
B1940224748168N12002404WA0000002094
B1940274748150N12002410WA0000002088
B1940324748131N12002418WA0000002083
B1940374748113N12002423WA0000002078
B1940424748093N12002427WA0000002072
B1940474748072N12002428WA0000002066
B1940524748052N12002427WA0000002061
B1940574748031N12002424WA0000002055
B1941024748011N12002422WA0000002050
B1941074747991N12002420WA0000002045
B1941124747971N12002422WA0000002039
B1941174747952N12002417WA0000002034
B1941224747934N12002403WA0000002030
B1941274747918N12002386WA0000002025
B1941324747923N12002353WA0000002020
B1941374747947N12002319WA0000002015
B1941424747975N12002288WA0000002010
B1941474748008N12002268WA0000002004
B1941524748042N12002251WA0000001998
B1941574748069N12002225WA0000001992
B1942024748089N12002194WA0000001987
B1942074748107N12002158WA0000001982
B1942124748123N12002122WA0000001978
B1942174748110N12002106WA0000001974
B1942224748095N12002105WA0000001972
B1942274748075N12002111WA0000001968
B1942324748051N12002118WA0000001964
B1942374748029N12002129WA0000001959
B1942424748009N12002144WA0000001953
B1942474747988N12002161WA0000001946
B1942524747975N12002184WA0000001940
B1942574747975N12002228WA0000001935
B1943034747969N12002254WA0000001932
B1943084747960N12002254WA0000001931
B1943134747954N12002279WA0000001932
B1943184747979N12002309WA0000001935
B1943234748012N12002295WA0000001936
B1943284748029N12002266WA0000001939
B1943334748048N12002236WA0000001942
B1943384748048N12002213WA0000001943
B1943434748037N12002200WA0000001944
B1943484748028N12002208WA0000001945
B1943534748021N12002234WA0000001949
B1943584748023N12002271WA0000001955
B1944034748052N12002288WA0000001960
B1944084748066N12002267WA0000001965
B1944134748059N12002261WA0000001968
B1944184748047N12002274WA0000001972
B1944234748033N12002285WA0000001978
B1944284748021N12002309WA0000001983
B1944334748021N12002348WA0000001988
B1944384748045N12002379WA0000001993
B1944434748076N12002375WA0000001999
B1944484748095N12002348WA0000002004
B1944534748110N12002325WA0000002010
B1944584748119N12002307WA0000002015
B1945034748126N12002273WA0000002019
B1945084748133N12002234WA0000002021
B1945134748148N12002201WA0000002024
B1945184748170N12002177WA0000002027
B1945234748179N12002145WA0000002031
B1945284748182N12002124WA0000002035
B1945334748177N12002113WA0000002039
B1945384748167N12002124WA0000002044
B1945434748156N12002127WA0000002048
B1945484748143N12002142WA0000002058
B1945534748162N12002176WA0000002069
B1945584748194N12002172WA0000002081
B1946034748203N12002143WA0000002090
B1946084748199N12002128WA0000002095
B1946134748191N12002148WA0000002106
B1946184748211N12002180WA0000002118
B1946234748239N12002166WA0000002130
B1946284748246N12002143WA0000002138
B1946334748236N12002144WA0000002144
B1946384748237N12002179WA0000002154
B1946434748266N12002204WA0000002163
B1946484748297N12002183WA0000002170
B1946534748302N12002155WA0000002176
B1946584748295N12002140WA0000002179
B1947044748282N12002149WA0000002184
B1947094748280N12002177WA0000002192
B1947144748302N12002210WA0000002198
B1947194748332N12002197WA0000002204
B1947244748351N12002169WA0000002209
B1947294748361N12002137WA0000002215
B1947344748369N12002113WA0000002221
B1947394748375N12002086WA0000002226
B1947444748375N12002067WA0000002230
B1947494748367N12002078WA0000002233
B1947544748366N12002115WA0000002236
B1947594748376N12002153WA0000002238
B1948044748407N12002172WA0000002240
B1948094748434N12002150WA0000002240
B1948144748448N12002117WA0000002240
B1948194748464N12002085WA0000002239
B1948244748484N12002049WA0000002238
B1948294748500N12002021WA0000002237
B1948344748514N12001993WA0000002236
B1948394748514N12001962WA0000002235
B1948444748510N12001934WA0000002234
B1948494748500N12001903WA0000002232
B1948544748486N12001877WA0000002229
B1948594748471N12001847WA0000002226
B1949044748454N12001820WA0000002223
B1949094748439N12001791WA0000002220
B1949144748427N12001757WA0000002217
B1949194748420N12001720WA0000002213
B1949244748413N12001681WA0000002209
B1949294748408N12001641WA0000002204
B1949344748407N12001600WA0000002200
B1949394748406N12001561WA0000002195
B1949444748405N12001519WA0000002190
B1949494748403N12001477WA0000002185
B1949544748402N12001438WA0000002180
B1949594748403N12001397WA0000002174
B1949594748403N12001397WA0000002174
B1950004748405N12001389WA0000002174
B1950054748418N12001346WA0000002169
B1950104748429N12001304WA0000002165
B1950154748437N12001261WA0000002160
B1950204748444N12001218WA0000002155
B1950254748454N12001172WA0000002149
B1950304748464N12001128WA0000002143
B1950364748477N12001071WA0000002135
B1950414748485N12001031WA0000002129
B1950464748492N12000990WA0000002123
B1950514748500N12000952WA0000002118
B1950564748506N12000915WA0000002113
B1951014748512N12000876WA0000002109
B1951064748518N12000840WA0000002105
B1951114748521N12000801WA0000002102
B1951164748524N12000771WA0000002099
B1951214748525N12000733WA0000002096
B1951264748525N12000697WA0000002093
B1951314748523N12000662WA0000002090
B1951364748522N12000627WA0000002087
B1951414748515N12000596WA0000002084
B1951464748504N12000570WA0000002081
B1951514748491N12000546WA0000002079
B1951564748486N12000512WA0000002076
B1952014748485N12000472WA0000002074
B1952064748483N12000432WA0000002072
B1952114748480N12000393WA0000002070
B1952164748477N12000350WA0000002067
B1952214748472N12000300WA0000002063
B1952264748468N12000253WA0000002059
B1952314748464N12000206WA0000002055
B1952364748460N12000162WA0000002051
B1952414748453N12000120WA0000002047
B1952464748447N12000079WA0000002043
B1952514748443N12000038WA0000002038
B1952564748437N11959997WA0000002034
B1953014748432N11959955WA0000002030
B1953064748427N11959915WA0000002026
B1953114748421N11959873WA0000002022
B1953164748416N11959830WA0000002018
B1953214748411N11959787WA0000002014
B1953264748406N11959745WA0000002010
B1953314748399N11959703WA0000002005
B1953364748390N11959664WA0000002001
B1953414748383N11959626WA0000001996
B1953464748377N11959586WA0000001992
B1953514748372N11959547WA0000001988
B1953564748366N11959508WA0000001983
B1954024748357N11959462WA0000001977
B1954074748350N11959419WA0000001971
B1954124748343N11959375WA0000001964
B1954174748336N11959331WA0000001958
B1954224748333N11959289WA0000001952
B1954274748331N11959252WA0000001947
B1954324748328N11959213WA0000001943
B1954374748325N11959174WA0000001938
B1954424748324N11959135WA0000001935
B1954474748326N11959099WA0000001932
B1954524748324N11959058WA0000001929
B1954574748321N11959020WA0000001927
B1955024748317N11958983WA0000001925
B1955074748310N11958944WA0000001923
B1955124748304N11958906WA0000001921
B1955174748299N11958868WA0000001918
B1955224748293N11958826WA0000001915
B1955274748288N11958783WA0000001911
B1955324748284N11958737WA0000001906
B1955374748281N11958687WA0000001900
B1955424748279N11958640WA0000001894
B1955474748281N11958597WA0000001889
B1955524748280N11958549WA0000001883
B1955574748279N11958502WA0000001877
B1956024748273N11958466WA0000001870
B1956074748263N11958430WA0000001863
B1956124748260N11958404WA0000001858
B1956174748259N11958370WA0000001852
B1956224748254N11958329WA0000001845
B1956274748253N11958303WA0000001840
B1956324748247N11958269WA0000001834
B1956374748244N11958228WA0000001827
B1956424748244N11958189WA0000001821
B1956474748243N11958148WA0000001814
B1956524748246N11958099WA0000001806
B1956574748251N11958051WA0000001797
B1957024748257N11958000WA0000001789
B1957074748264N11957948WA0000001781
B1957124748276N11957895WA0000001773
B1957174748289N11957841WA0000001765
B1957224748300N11957788WA0000001757
B1957274748303N11957740WA0000001750
B1957324748305N11957696WA0000001744
B1957384748304N11957644WA0000001736
B1957434748303N11957599WA0000001729
B1957484748304N11957555WA0000001722
B1957534748305N11957511WA0000001715
B1957584748306N11957467WA0000001708
B1958034748308N11957422WA0000001701
B1958084748311N11957376WA0000001695
B1958134748314N11957333WA0000001688
B1958184748316N11957293WA0000001681
B1958234748319N11957252WA0000001674
B1958284748328N11957208WA0000001667
B1958334748339N11957167WA0000001660
B1958384748347N11957128WA0000001652
B1958434748346N11957093WA0000001644
B1958484748346N11957052WA0000001635
B1958534748351N11957011WA0000001626
B1958584748362N11956969WA0000001616
B1959034748375N11956931WA0000001605
B1959084748383N11956895WA0000001595
B1959134748389N11956860WA0000001584
B1959184748396N11956822WA0000001573
B1959234748401N11956790WA0000001564
B1959284748407N11956747WA0000001554
B1959334748409N11956706WA0000001543
B1959384748414N11956668WA0000001532
B1959434748419N11956616WA0000001521
B1959484748420N11956561WA0000001509
B1959534748418N11956509WA0000001496
B1959584748423N11956452WA0000001485
B2000034748426N11956400WA0000001476
B2000084748429N11956362WA0000001470
B2000134748430N11956319WA0000001466
B2000184748434N11956279WA0000001464
B2000234748444N11956243WA0000001464
B2000284748450N11956201WA0000001464
B2000334748442N11956162WA0000001466
B2000384748428N11956132WA0000001468
B2000434748408N11956107WA0000001471
B2000484748384N11956104WA0000001474
B2000534748364N11956108WA0000001478
B2000584748353N11956126WA0000001483
B2001034748361N11956146WA0000001487
B2001094748384N11956123WA0000001492
B2001144748385N11956080WA0000001496
B2001194748377N11956049WA0000001502
B2001244748362N11956016WA0000001506
B2001294748345N11955977WA0000001508
B2001344748324N11955933WA0000001508
B2001394748307N11955889WA0000001509
B2001444748284N11955883WA0000001510
B2001494748281N11955904WA0000001512
B2001544748304N11955894WA0000001515
B2001594748321N11955870WA0000001519
B2002044748313N11955844WA0000001524
B2002094748289N11955855WA0000001530
B2002144748292N11955881WA0000001535
B2002194748308N11955865WA0000001538
B2002244748314N11955838WA0000001542
B2002294748308N11955814WA0000001547
B2002344748289N11955808WA0000001552
B2002394748279N11955846WA0000001557
B2002444748294N11955871WA0000001562
B2002494748308N11955854WA0000001567
B2002544748296N11955833WA0000001572
B2002594748277N11955856WA0000001577
B2003044748284N11955889WA0000001583
B2003094748303N11955884WA0000001586
B2003144748316N11955860WA0000001589
B2003194748317N11955832WA0000001592
B2003244748304N11955812WA0000001595
B2003294748283N11955820WA0000001599
B2003344748277N11955856WA0000001603
B2003394748297N11955866WA0000001607
B2003444748302N11955841WA0000001610
B2003494748293N11955821WA0000001614
B2003544748281N11955797WA0000001620
B2003594748261N11955814WA0000001625
B2004044748272N11955842WA0000001630
B2004094748292N11955829WA0000001636
B2004144748281N11955807WA0000001642
B2004194748260N11955806WA0000001647
B2004244748253N11955837WA0000001652
B2004294748270N11955854WA0000001655
B2004344748286N11955844WA0000001660
B2004394748302N11955836WA0000001663
B2004444748325N11955839WA0000001667
B2004504748356N11955844WA0000001670
B2004554748390N11955857WA0000001669
B2005004748425N11955866WA0000001666
B2005054748461N11955870WA0000001664
B2005104748485N11955869WA0000001663
B2005154748511N11955873WA0000001662
B2005204748543N11955881WA0000001660
B2005254748572N11955885WA0000001660
B2005304748584N11955866WA0000001663
B2005354748571N11955875WA0000001666
B2005404748584N11955897WA0000001672
B2005454748610N11955895WA0000001678
B2005504748625N11955881WA0000001686
B2005554748613N11955858WA0000001695
B2006004748598N11955878WA0000001703
B2006054748619N11955888WA0000001712
B2006104748625N11955861WA0000001723
B2006154748605N11955868WA0000001732
B2006204748623N11955890WA0000001741
B2006254748642N11955877WA0000001750
B2006304748627N11955869WA0000001759
B2006354748639N11955889WA0000001769
B2006404748653N11955879WA0000001778
B2006454748660N11955855WA0000001789
B2006504748645N11955858WA0000001798
B2006554748638N11955886WA0000001808
B2007004748658N11955897WA0000001818
B2007054748658N11955874WA0000001830
B2007104748650N11955899WA0000001840
B2007154748663N11955925WA0000001851
B2007204748687N11955940WA0000001862
B2007254748707N11955936WA0000001873
B2007304748705N11955914WA0000001883
B2007354748688N11955925WA0000001893
B2007404748695N11955961WA0000001903
B2007454748722N11955984WA0000001910
B2007504748750N11956002WA0000001918
B2007564748778N11956000WA0000001928
B2008014748791N11955984WA0000001933
B2008064748797N11955963WA0000001938
B2008114748809N11955942WA0000001949
B2008164748817N11955920WA0000001957
B2008214748828N11955900WA0000001968
B2008264748833N11955881WA0000001976
B2008314748823N11955870WA0000001988
B2008364748816N11955905WA0000002000
B2008414748831N11955943WA0000002012
B2008464748858N11955964WA0000002023
B2008514748885N11955952WA0000002033
B2008564748894N11955928WA0000002041
B2009014748886N11955917WA0000002048
B2009064748869N11955934WA0000002063
B2009114748858N11955967WA0000002078
B2009164748869N11956010WA0000002093
B2009214748894N11956011WA0000002105
B2009264748913N11955996WA0000002116
B2009314748914N11955979WA0000002122
B2009364748907N11955971WA0000002127
B2009414748895N11955973WA0000002132
B2009464748883N11955968WA0000002138
B2009514748871N11955963WA0000002146
B2009564748860N11955955WA0000002152
B2010014748850N11955936WA0000002160
B2010064748841N11955920WA0000002168
B2010114748829N11955910WA0000002173
B2010164748824N11955891WA0000002181
B2010214748824N11955871WA0000002187
B2010264748821N11955852WA0000002193
B2010314748820N11955829WA0000002200
B2010364748814N11955806WA0000002207
B2010414748810N11955781WA0000002213
B2010464748806N11955753WA0000002217
B2010514748802N11955731WA0000002219
B2010564748793N11955714WA0000002223
B2011014748775N11955724WA0000002229
B2011064748776N11955770WA0000002235
B2011114748798N11955779WA0000002239
B2011164748817N11955773WA0000002244
B2011214748829N11955758WA0000002248
B2011264748838N11955740WA0000002252
B2011314748845N11955719WA0000002257
B2011364748843N11955697WA0000002263
B2011414748831N11955683WA0000002270
B2011464748815N11955710WA0000002280
B2011514748831N11955747WA0000002290
B2011574748859N11955760WA0000002301
B2012024748871N11955738WA0000002310
B2012074748882N11955714WA0000002317
B2012124748887N11955683WA0000002323
B2012174748877N11955661WA0000002330
B2012224748866N11955689WA0000002336
B2012274748860N11955722WA0000002341
B2012324748865N11955766WA0000002345
B2012374748881N11955794WA0000002349
B2012424748904N11955797WA0000002352
B2012474748926N11955784WA0000002356
B2012524748943N11955759WA0000002359
B2012574748958N11955733WA0000002362
B2013024748963N11955705WA0000002365
B2013074748965N11955678WA0000002369
B2013124748961N11955644WA0000002372
B2013174748953N11955603WA0000002374
B2013224748947N11955561WA0000002374
B2013274748935N11955518WA0000002371
B2013324748924N11955475WA0000002367
B2013374748912N11955437WA0000002364
B2013424748903N11955392WA0000002360
B2013474748896N11955349WA0000002356
B2013524748886N11955306WA0000002351
B2013574748873N11955274WA0000002345
B2014024748863N11955238WA0000002339
B2014074748860N11955195WA0000002331
B2014124748857N11955147WA0000002322
B2014174748857N11955096WA0000002312
B2014224748859N11955046WA0000002301
B2014274748861N11954993WA0000002291
B2014324748860N11954941WA0000002280
B2014374748856N11954888WA0000002269
B2014424748853N11954838WA0000002259
B2014474748850N11954791WA0000002249
B2014524748847N11954737WA0000002237
B2014574748843N11954684WA0000002226
B2015024748844N11954634WA0000002214
B2015074748848N11954583WA0000002203
B2015124748851N11954536WA0000002192
B2015174748850N11954493WA0000002183
B2015224748850N11954457WA0000002175
B2015274748847N11954419WA0000002169
B2015324748839N11954385WA0000002163
B2015384748828N11954345WA0000002158
B2015434748819N11954312WA0000002154
B2015484748809N11954278WA0000002150
B2015534748800N11954241WA0000002147
B2015584748795N11954205WA0000002144
B2016034748787N11954161WA0000002140
B2016084748778N11954120WA0000002136
B2016134748772N11954074WA0000002131
B2016184748769N11954029WA0000002126
B2016234748767N11953985WA0000002121
B2016284748761N11953942WA0000002116
B2016334748754N11953898WA0000002111
B2016384748751N11953853WA0000002104
B2016434748751N11953800WA0000002095
B2016484748756N11953747WA0000002085
B2016534748756N11953690WA0000002075
B2016584748752N11953638WA0000002067
B2017034748747N11953586WA0000002059
B2017084748744N11953534WA0000002050
B2017134748741N11953483WA0000002041
B2017184748734N11953444WA0000002032
B2017234748736N11953422WA0000002026
B2017284748733N11953408WA0000002024
B2017334748730N11953395WA0000002022
B2017384748730N11953374WA0000002019
B2017434748729N11953338WA0000002016
B2017484748729N11953309WA0000002014
B2017534748726N11953277WA0000002013
B2017584748726N11953248WA0000002014
B2018034748724N11953207WA0000002014
B2018084748723N11953173WA0000002016
B2018134748726N11953142WA0000002019
B2018184748732N11953104WA0000002022
B2018234748740N11953059WA0000002024
B2018284748745N11953004WA0000002025
B2018334748746N11952956WA0000002026
B2018384748744N11952921WA0000002029
B2018434748730N11952903WA0000002031
B2018484748731N11952930WA0000002032
B2018534748742N11952964WA0000002032
B2018584748752N11952997WA0000002032
B2019034748761N11953027WA0000002032
B2019084748773N11953055WA0000002033
B2019144748783N11953085WA0000002037
B2019194748798N11953108WA0000002040
B2019244748827N11953112WA0000002044
B2019294748856N11953087WA0000002049
B2019344748864N11953046WA0000002053
B2019394748852N11953035WA0000002056
B2019444748854N11953056WA0000002060
B2019494748866N11953082WA0000002065
B2019544748882N11953108WA0000002069
B2019594748897N11953134WA0000002075
B2020044748893N11953154WA0000002080
B2020094748884N11953139WA0000002085
B2020144748903N11953105WA0000002094
B2020194748934N11953116WA0000002103
B2020244748937N11953140WA0000002111
B2020294748931N11953116WA0000002121
B2020344748960N11953091WA0000002133
B2020394748980N11953115WA0000002145
B2020444748972N11953122WA0000002151
B2020494748969N11953090WA0000002164
B2020544748997N11953061WA0000002174
B2020594749029N11953071WA0000002184
B2021044749029N11953091WA0000002192
B2021094749025N11953068WA0000002201
B2021144749041N11953030WA0000002211
B2021194749070N11953004WA0000002221
B2021244749093N11953026WA0000002230
B2021294749092N11953049WA0000002236
B2021344749080N11953038WA0000002244
B2021394749085N11953000WA0000002253
B2021444749097N11952961WA0000002261
B2021494749124N11952928WA0000002270
B2021544749140N11952883WA0000002278
B2021594749148N11952834WA0000002287
B2022044749153N11952786WA0000002295
B2022094749160N11952727WA0000002301
B2022144749167N11952662WA0000002305
B2022194749175N11952602WA0000002306
B2022244749184N11952545WA0000002306
B2022294749192N11952490WA0000002304
B2022344749196N11952439WA0000002301
B2022394749197N11952387WA0000002296
B2022444749199N11952330WA0000002289
B2022494749204N11952275WA0000002281
B2022544749214N11952222WA0000002274
B2022594749216N11952177WA0000002267
B2023054749198N11952136WA0000002258
B2023104749203N11952100WA0000002252
B2023154749221N11952058WA0000002246
B2023204749240N11952022WA0000002243
B2023254749247N11951994WA0000002242
B2023304749234N11952011WA0000002242
B2023354749252N11952038WA0000002243
B2023404749277N11952018WA0000002244
B2023454749276N11951995WA0000002247
B2023504749265N11952012WA0000002250
B2023554749287N11952034WA0000002255
B2024004749306N11952009WA0000002261
B2024054749300N11951989WA0000002266
B2024104749291N11952009WA0000002271
B2024154749314N11952032WA0000002276
B2024204749336N11952005WA0000002282
B2024254749343N11951973WA0000002288
B2024304749352N11951939WA0000002294
B2024354749357N11951902WA0000002300
B2024404749353N11951873WA0000002306
B2024454749334N11951884WA0000002312
B2024504749317N11951890WA0000002318
B2024554749297N11951884WA0000002324
B2025004749279N11951871WA0000002330
B2025054749263N11951854WA0000002335
B2025104749246N11951832WA0000002340
B2025154749219N11951817WA0000002345
B2025204749195N11951804WA0000002349
B2025254749172N11951786WA0000002352
B2025304749152N11951765WA0000002354
B2025354749134N11951740WA0000002355
B2025404749116N11951713WA0000002355
B2025454749098N11951689WA0000002353
B2025504749072N11951666WA0000002350
B2025554749045N11951645WA0000002345
B2026004749014N11951617WA0000002339
B2026054748985N11951585WA0000002330
B2026104748958N11951547WA0000002320
B2026154748937N11951505WA0000002309
B2026204748917N11951464WA0000002297
B2026254748897N11951430WA0000002284
B2026304748879N11951386WA0000002271
B2026354748867N11951342WA0000002257
B2026404748854N11951291WA0000002241
B2026464748838N11951224WA0000002222
B2026514748828N11951169WA0000002205
B2026564748823N11951113WA0000002188
B2027014748814N11951056WA0000002171
B2027064748800N11951002WA0000002155
B2027114748791N11950949WA0000002138
B2027164748781N11950894WA0000002121
B2027214748765N11950844WA0000002103
B2027264748740N11950798WA0000002083
B2027314748716N11950754WA0000002064
B2027364748691N11950715WA0000002044
B2027414748665N11950674WA0000002025
B2027464748641N11950634WA0000002006
B2027514748622N11950589WA0000001988
B2027564748609N11950536WA0000001970
B2028014748600N11950492WA0000001955
B2028064748595N11950448WA0000001942
B2028114748591N11950400WA0000001929
B2028164748588N11950349WA0000001918
B2028214748587N11950297WA0000001908
B2028264748584N11950245WA0000001899
B2028314748579N11950199WA0000001890
B2028364748575N11950152WA0000001882
B2028414748570N11950105WA0000001874
B2028464748564N11950051WA0000001866
B2028514748557N11949996WA0000001858
B2028564748547N11949942WA0000001849
B2029014748535N11949891WA0000001841
B2029064748522N11949838WA0000001831
B2029114748514N11949787WA0000001820
B2029164748507N11949742WA0000001809
B2029214748503N11949709WA0000001799
B2029264748510N11949680WA0000001791
B2029314748513N11949635WA0000001783
B2029364748509N11949584WA0000001775
B2029414748505N11949535WA0000001769
B2029464748502N11949498WA0000001766
B2029514748505N11949466WA0000001765
B2029564748504N11949432WA0000001765
B2030014748503N11949396WA0000001765
B2030064748503N11949358WA0000001767
B2030114748500N11949324WA0000001769
B2030164748491N11949295WA0000001772
B2030214748476N11949268WA0000001774
B2030274748472N11949233WA0000001778
B2030324748475N11949200WA0000001781
B2030374748476N11949160WA0000001784
B2030424748481N11949120WA0000001787
B2030474748477N11949088WA0000001791
B2030524748477N11949063WA0000001796
B2030574748469N11949048WA0000001802
B2031024748470N11949073WA0000001812
B2031074748499N11949099WA0000001821
B2031124748533N11949106WA0000001832
B2031174748567N11949094WA0000001843
B2031224748574N11949057WA0000001855
B2031274748562N11949056WA0000001863
B2031324748575N11949082WA0000001879
B2031374748604N11949073WA0000001895
B2031424748594N11949048WA0000001907
B2031474748588N11949062WA0000001918
B2031524748609N11949080WA0000001933
B2031574748609N11949050WA0000001947
B2032024748604N11949077WA0000001962
B2032074748624N11949070WA0000001977
B2032124748615N11949058WA0000001993
B2032174748626N11949086WA0000002007
B2032224748648N11949074WA0000002024
B2032274748649N11949039WA0000002040
B2032324748635N11949048WA0000002058
B2032374748655N11949071WA0000002076
B2032424748681N11949062WA0000002093
B2032474748685N11949030WA0000002109
B2032524748668N11949034WA0000002124
B2032574748676N11949071WA0000002138
B2033024748701N11949083WA0000002152
B2033074748727N11949095WA0000002166
B2033124748746N11949079WA0000002179
B2033174748738N11949044WA0000002191
B2033224748739N11949014WA0000002202
B2033274748737N11948982WA0000002212
B2033324748729N11948941WA0000002219
B2033374748720N11948898WA0000002224
B2033424748712N11948855WA0000002228
B2033474748705N11948809WA0000002228
B2033524748692N11948760WA0000002228
B2033574748684N11948716WA0000002227
B2034024748674N11948672WA0000002226
B2034074748666N11948617WA0000002222
B2034124748661N11948562WA0000002217
B2034184748659N11948493WA0000002210
B2034234748659N11948434WA0000002202
B2034284748659N11948377WA0000002193
B2034334748659N11948321WA0000002183
B2034384748658N11948267WA0000002173
B2034434748655N11948213WA0000002161
B2034484748653N11948158WA0000002148
B2034534748652N11948101WA0000002136
B2034584748652N11948046WA0000002124
B2035034748661N11947984WA0000002110
B2035084748679N11947922WA0000002096
B2035134748698N11947867WA0000002084
B2035184748715N11947826WA0000002075
B2035234748728N11947779WA0000002066
B2035284748740N11947731WA0000002058
B2035334748752N11947680WA0000002053
B2035384748765N11947632WA0000002049
B2035434748778N11947579WA0000002044
B2035484748789N11947524WA0000002037
B2035534748797N11947470WA0000002030
B2035584748801N11947413WA0000002024
B2036034748802N11947368WA0000002020
B2036084748802N11947327WA0000002018
B2036134748793N11947317WA0000002018
B2036184748782N11947328WA0000002019
B2036234748781N11947346WA0000002021
B2036284748807N11947351WA0000002025
B2036334748826N11947321WA0000002029
B2036384748834N11947288WA0000002033
B2036434748828N11947291WA0000002036
B2036484748846N11947311WA0000002042
B2036534748874N11947295WA0000002048
B2036584748882N11947263WA0000002054
B2037034748875N11947259WA0000002058
B2037084748884N11947278WA0000002064
B2037134748913N11947271WA0000002072
B2037184748934N11947235WA0000002079
B2037234748929N11947209WA0000002083
B2037284748915N11947196WA0000002086
B2037334748904N11947187WA0000002089
B2037384748886N11947174WA0000002091
B2037434748863N11947158WA0000002093
B2037484748840N11947148WA0000002093
B2037534748810N11947130WA0000002092
B2037594748784N11947099WA0000002091
B2038044748768N11947068WA0000002092
B2038094748763N11947032WA0000002096
B2038144748760N11946991WA0000002100
B2038194748760N11946957WA0000002107
B2038244748751N11946944WA0000002113
B2038294748773N11946960WA0000002121
B2038344748808N11946961WA0000002130
B2038394748838N11946937WA0000002139
B2038444748841N11946897WA0000002148
B2038494748832N11946890WA0000002154
B2038544748849N11946908WA0000002165
B2038594748870N11946875WA0000002177
B2039044748865N11946843WA0000002187
B2039094748858N11946812WA0000002197
B2039144748858N11946767WA0000002207
B2039194748864N11946726WA0000002218
B2039244748868N11946691WA0000002229
B2039294748870N11946649WA0000002239
B2039344748871N11946602WA0000002247
B2039394748868N11946544WA0000002253
B2039444748866N11946483WA0000002258
B2039494748863N11946415WA0000002261
B2039544748860N11946355WA0000002264
B2039594748864N11946305WA0000002267
B2040044748865N11946249WA0000002269
B2040094748859N11946196WA0000002270
B2040144748851N11946142WA0000002269
B2040194748840N11946089WA0000002267
B2040244748833N11946030WA0000002264
B2040294748825N11945972WA0000002260
B2040344748818N11945912WA0000002255
B2040394748813N11945856WA0000002250
B2040444748808N11945801WA0000002244
B2040494748804N11945745WA0000002238
B2040544748804N11945695WA0000002233
B2040594748799N11945643WA0000002227
B2041044748791N11945591WA0000002219
B2041094748781N11945540WA0000002210
B2041144748767N11945490WA0000002198
B2041194748756N11945441WA0000002187
B2041244748745N11945394WA0000002176
B2041294748743N11945344WA0000002165
B2041344748741N11945299WA0000002154
B2041394748737N11945254WA0000002142
B2041444748734N11945213WA0000002128
B2041504748729N11945158WA0000002110
B2041554748723N11945115WA0000002097
B2042004748713N11945078WA0000002084
B2042054748702N11945040WA0000002073
B2042104748690N11945005WA0000002063
B2042154748675N11944970WA0000002053
B2042204748662N11944927WA0000002043
B2042254748655N11944884WA0000002035
B2042304748650N11944855WA0000002030
B2042354748644N11944817WA0000002024
B2042404748641N11944787WA0000002020
B2042454748628N11944798WA0000002017
B2042504748626N11944831WA0000002015
B2042554748627N11944873WA0000002014
B2043004748627N11944911WA0000002015
B2043054748627N11944949WA0000002016
B2043104748635N11944983WA0000002019
B2043154748662N11944990WA0000002024
B2043204748679N11944966WA0000002029
B2043254748671N11944948WA0000002033
B2043304748659N11944958WA0000002038
B2043354748660N11944988WA0000002044
B2043404748687N11945009WA0000002049
B2043454748705N11944986WA0000002054
B2043504748707N11944960WA0000002059
B2043554748701N11944937WA0000002064
B2044004748693N11944916WA0000002069
B2044054748684N11944886WA0000002073
B2044104748673N11944854WA0000002077
B2044154748661N11944818WA0000002080
B2044204748653N11944782WA0000002083
B2044254748647N11944741WA0000002085
B2044304748642N11944704WA0000002085
B2044354748636N11944665WA0000002085
B2044404748630N11944630WA0000002085
B2044454748623N11944591WA0000002085
B2044504748615N11944552WA0000002085
B2044554748607N11944515WA0000002085
B2045004748598N11944475WA0000002083
B2045054748586N11944436WA0000002081
B2045104748576N11944396WA0000002079
B2045154748565N11944355WA0000002075
B2045214748551N11944313WA0000002070
B2045264748545N11944285WA0000002067
B2045314748538N11944253WA0000002063
B2045364748531N11944214WA0000002058
B2045414748524N11944169WA0000002051
B2045464748518N11944130WA0000002044
B2045514748501N11944115WA0000002036
B2045564748481N11944126WA0000002026
B2046014748458N11944148WA0000002015
B2046064748435N11944174WA0000002002
B2046114748415N11944204WA0000001989
B2046164748397N11944232WA0000001976
B2046214748378N11944260WA0000001963
B2046264748358N11944279WA0000001949
B2046314748341N11944288WA0000001936
B2046364748324N11944309WA0000001923
B2046414748310N11944340WA0000001911
B2046464748292N11944364WA0000001900
B2046514748273N11944367WA0000001890
B2046564748254N11944357WA0000001879
B2047014748231N11944350WA0000001870
B2047064748212N11944342WA0000001862
B2047114748195N11944333WA0000001856
B2047164748175N11944327WA0000001850
B2047214748168N11944288WA0000001844
B2047264748181N11944236WA0000001838
B2047314748196N11944183WA0000001830
B2047364748209N11944123WA0000001821
B2047414748221N11944066WA0000001811
B2047464748233N11944004WA0000001800
B2047514748245N11943945WA0000001789
B2047564748257N11943909WA0000001781
B2048014748275N11943866WA0000001773
B2048064748297N11943821WA0000001765
B2048114748321N11943781WA0000001760
B2048164748343N11943745WA0000001757
B2048214748362N11943707WA0000001755
B2048264748382N11943669WA0000001754
B2048314748401N11943633WA0000001754
B2048364748419N11943594WA0000001754
B2048414748436N11943558WA0000001755
B2048464748448N11943535WA0000001757
B2048514748458N11943493WA0000001760
B2048564748471N11943453WA0000001762
B2049024748483N11943417WA0000001764
B2049074748498N11943367WA0000001763
B2049124748512N11943323WA0000001762
B2049174748528N11943283WA0000001761
B2049224748551N11943252WA0000001760
B2049274748568N11943228WA0000001761
B2049324748578N11943202WA0000001763
B2049374748586N11943173WA0000001765
B2049424748569N11943167WA0000001768
B2049474748568N11943184WA0000001770
B2049524748598N11943199WA0000001772
B2049574748630N11943181WA0000001774
B2050024748647N11943157WA0000001777
B2050074748637N11943148WA0000001779
B2050124748630N11943170WA0000001782
B2050174748649N11943203WA0000001785
B2050224748662N11943243WA0000001786
B2050274748670N11943289WA0000001787
B2050324748666N11943329WA0000001787
B2050374748664N11943367WA0000001787
B2050424748660N11943413WA0000001785
B2050474748654N11943460WA0000001782
B2050524748647N11943506WA0000001777
B2050574748645N11943557WA0000001772
B2051024748647N11943605WA0000001767
B2051074748651N11943648WA0000001763
B2051124748653N11943670WA0000001761
B2051174748646N11943645WA0000001757
B2051224748661N11943602WA0000001754
B2051274748682N11943568WA0000001752
B2051324748700N11943527WA0000001749
B2051374748715N11943479WA0000001745
B2051424748725N11943432WA0000001740
B2051474748730N11943387WA0000001735
B2051524748740N11943350WA0000001729
B2051574748751N11943302WA0000001722
B2052024748763N11943262WA0000001716
B2052074748772N11943214WA0000001710
B2052124748776N11943172WA0000001704
B2052174748778N11943126WA0000001698
B2052224748781N11943079WA0000001692
B2052284748785N11943023WA0000001685
B2052334748790N11942980WA0000001681
B2052384748795N11942946WA0000001677
B2052434748796N11942914WA0000001674
B2052484748801N11942882WA0000001672
B2052534748806N11942847WA0000001670
B2052584748812N11942813WA0000001668
B2053034748816N11942780WA0000001668
B2053084748814N11942741WA0000001667
B2053134748811N11942705WA0000001666
B2053184748804N11942670WA0000001664
B2053234748791N11942646WA0000001661
B2053284748780N11942618WA0000001657
B2053334748772N11942582WA0000001652
B2053384748764N11942537WA0000001647
B2053434748756N11942491WA0000001641
B2053484748745N11942451WA0000001635
B2053534748733N11942411WA0000001629
B2053584748728N11942366WA0000001624
B2054034748729N11942323WA0000001619
B2054084748730N11942288WA0000001613
B2054134748725N11942250WA0000001606
B2054184748717N11942214WA0000001598
B2054234748703N11942207WA0000001592
B2054284748685N11942210WA0000001586
B2054334748664N11942214WA0000001580
B2054384748643N11942211WA0000001573
B2054434748621N11942205WA0000001564
B2054484748596N11942191WA0000001552
B2054534748575N11942178WA0000001541
B2054584748553N11942165WA0000001528
B2055034748536N11942152WA0000001517
B2055084748521N11942140WA0000001506
B2055134748506N11942138WA0000001500
B2055184748494N11942137WA0000001493
B2055234748478N11942132WA0000001483
B2055284748457N11942117WA0000001470
B2055334748435N11942103WA0000001458
B2055384748418N11942090WA0000001448
B2055434748413N11942081WA0000001444
B2055484748406N11942077WA0000001440
B2055534748399N11942072WA0000001436
B2055584748392N11942067WA0000001433
B2056034748387N11942060WA0000001430
B2056084748378N11942044WA0000001426
B2056144748366N11942038WA0000001423
B2056194748356N11942030WA0000001421
B2056244748348N11942020WA0000001419
B2056294748337N11942006WA0000001417
B2056344748327N11941983WA0000001413
B2056394748318N11941953WA0000001411
B2056444748310N11941930WA0000001410
B2056494748315N11941902WA0000001412
B2056544748346N11941897WA0000001415
B2056594748367N11941920WA0000001420
B2057044748360N11941938WA0000001424
B2057094748351N11941932WA0000001429
B2057144748366N11941906WA0000001438
B2057194748394N11941914WA0000001447
B2057244748399N11941943WA0000001456
B2057294748388N11941949WA0000001462
B2057344748387N11941924WA0000001473
B2057394748416N11941928WA0000001485
B2057444748424N11941964WA0000001496
B2057494748414N11941981WA0000001505
B2057544748419N11941960WA0000001516
B2057594748450N11941969WA0000001529
B2058044748459N11942010WA0000001542
B2058094748447N11942011WA0000001552
B2058144748463N11941989WA0000001565
B2058194748496N11942006WA0000001580
B2058244748492N11942042WA0000001594
B2058294748483N11942032WA0000001604
B2058344748501N11942009WA0000001620
B2058394748527N11941990WA0000001636
B2058444748556N11941975WA0000001650
B2058494748584N11941958WA0000001663
B2058544748615N11941933WA0000001675
B2058594748648N11941903WA0000001686
B2059044748681N11941909WA0000001698
B2059094748682N11941928WA0000001707
B2059144748673N11941931WA0000001716
B2059194748664N11941933WA0000001724
B2059244748655N11941954WA0000001738
B2059294748643N11941976WA0000001753
B2059344748632N11941992WA0000001764
B2059394748620N11941997WA0000001773
B2059444748611N11942000WA0000001783
B2059494748602N11942004WA0000001794
B2059544748593N11942013WA0000001806
B2059594748605N11942044WA0000001830
B2100054748636N11942024WA0000001854
B2100104748631N11942003WA0000001868
B2100154748620N11942010WA0000001880
B2100204748627N11942035WA0000001904
B2100254748663N11942045WA0000001925
B2100304748695N11942028WA0000001946
B2100354748714N11941995WA0000001965
B2100404748706N11941980WA0000001977
B2100454748700N11941999WA0000001992
B2100504748726N11942024WA0000002012
B2100554748756N11942012WA0000002032
B2101004748768N11941981WA0000002050
B2101054748759N11941971WA0000002061
B2101104748749N11941974WA0000002072
B2101154748746N11941984WA0000002086
B2101204748770N11942010WA0000002107
B2101254748806N11942007WA0000002125
B2101304748825N11941975WA0000002142
B2101354748819N11941955WA0000002153
B2101404748809N11941962WA0000002161
B2101454748800N11941968WA0000002169
B2101504748793N11941981WA0000002179
B2101554748793N11942006WA0000002195
B2102004748807N11942033WA0000002213
B2102054748839N11942042WA0000002228
B2102104748859N11942005WA0000002244
B2102154748855N11941976WA0000002257
B2102204748841N11941964WA0000002267
B2102254748830N11941955WA0000002274
B2102304748828N11941968WA0000002285
B2102354748850N11941989WA0000002299
B2102404748887N11941975WA0000002310
B2102454748901N11941936WA0000002321
B2102504748898N11941897WA0000002331
B2102554748895N11941856WA0000002340
B2103004748896N11941806WA0000002347
B2103054748895N11941765WA0000002354
B2103104748892N11941726WA0000002359
B2103154748888N11941678WA0000002363
B2103204748885N11941628WA0000002365
B2103254748884N11941581WA0000002364
B2103304748882N11941528WA0000002361
B2103354748880N11941472WA0000002355
B2103404748872N11941412WA0000002347
B2103454748860N11941352WA0000002336
B2103504748849N11941287WA0000002323
B2103564748838N11941210WA0000002307
B2104014748830N11941145WA0000002294
B2104064748822N11941083WA0000002282
B2104114748815N11941024WA0000002271
B2104164748810N11940973WA0000002261
B2104214748804N11940925WA0000002252
B2104264748801N11940885WA0000002246
B2104314748797N11940845WA0000002239
B2104364748793N11940801WA0000002233
B2104414748789N11940750WA0000002226
B2104464748784N11940700WA0000002220
B2104514748777N11940652WA0000002214
B2104564748770N11940609WA0000002208
B2105014748764N11940562WA0000002200
B2105064748758N11940510WA0000002191
B2105114748753N11940457WA0000002182
B2105164748748N11940405WA0000002172
B2105214748742N11940353WA0000002161
B2105264748736N11940303WA0000002151
B2105314748727N11940256WA0000002139
B2105364748714N11940205WA0000002127
B2105414748700N11940150WA0000002113
B2105464748679N11940104WA0000002099
B2105514748660N11940074WA0000002086
B2105564748647N11940033WA0000002073
B2106014748643N11939987WA0000002060
B2106064748637N11939934WA0000002045
B2106114748632N11939876WA0000002030
B2106164748627N11939817WA0000002016
B2106214748621N11939757WA0000002002
B2106264748616N11939697WA0000001988
B2106314748611N11939639WA0000001974
B2106364748606N11939584WA0000001962
B2106414748599N11939532WA0000001951
B2106464748595N11939481WA0000001941
B2106514748587N11939429WA0000001933
B2106564748580N11939381WA0000001923
B2107014748573N11939333WA0000001914
B2107064748567N11939283WA0000001904
B2107114748560N11939230WA0000001894
B2107164748550N11939176WA0000001884
B2107214748539N11939126WA0000001875
B2107274748529N11939090WA0000001867
B2107324748521N11939104WA0000001863
B2107374748539N11939132WA0000001856
B2107424748573N11939119WA0000001850
B2107474748602N11939089WA0000001845
B2107524748633N11939069WA0000001840
B2107574748659N11939038WA0000001835
B2108024748664N11938996WA0000001830
B2108074748656N11938955WA0000001825
B2108124748650N11938922WA0000001822
B2108174748647N11938891WA0000001819
B2108224748641N11938856WA0000001816
B2108274748633N11938823WA0000001813
B2108324748628N11938785WA0000001808
B2108374748627N11938738WA0000001802
B2108424748627N11938691WA0000001796
B2108474748629N11938649WA0000001788
B2108524748630N11938605WA0000001778
B2108574748632N11938563WA0000001768
B2109024748637N11938511WA0000001755
B2109074748647N11938457WA0000001743
B2109124748654N11938407WA0000001730
B2109174748658N11938361WA0000001717
B2109224748665N11938317WA0000001704
B2109274748671N11938277WA0000001692
B2109324748678N11938231WA0000001679
B2109374748684N11938189WA0000001667
B2109424748687N11938150WA0000001655
B2109474748691N11938109WA0000001642
B2109524748692N11938074WA0000001630
B2109574748677N11938062WA0000001618
B2110024748656N11938070WA0000001606
B2110074748632N11938088WA0000001596
B2110124748607N11938115WA0000001586
B2110174748584N11938146WA0000001578
B2110224748556N11938175WA0000001569
B2110284748528N11938207WA0000001558
B2110334748500N11938231WA0000001547
B2110384748472N11938245WA0000001535
B2110434748443N11938255WA0000001522
B2110484748419N11938271WA0000001510
B2110534748401N11938288WA0000001500
B2110584748382N11938303WA0000001492
B2111034748367N11938322WA0000001485
B2111084748358N11938333WA0000001482
B2111134748343N11938345WA0000001475
B2111184748331N11938360WA0000001469
B2111234748317N11938356WA0000001464
B2111284748304N11938335WA0000001458
B2111334748300N11938304WA0000001453
B2111384748301N11938266WA0000001446
B2111434748311N11938229WA0000001439
B2111484748343N11938193WA0000001431
B2111534748371N11938156WA0000001424
B2111584748393N11938124WA0000001418
B2112034748390N11938107WA0000001416
B2112084748408N11938131WA0000001413
B2112134748427N11938107WA0000001414
B2112184748420N11938106WA0000001415
B2112234748436N11938131WA0000001417
B2112284748465N11938120WA0000001419
B2112334748464N11938096WA0000001423
B2112384748471N11938125WA0000001427
B2112434748496N11938107WA0000001432
B2112484748492N11938085WA0000001436
B2112534748490N11938109WA0000001440
B2112584748518N11938109WA0000001445
B2113034748536N11938079WA0000001449
B2113084748547N11938040WA0000001452
B2113134748555N11938009WA0000001456
B2113184748566N11937977WA0000001462
B2113234748571N11937943WA0000001466
B2113284748562N11937925WA0000001471
B2113334748571N11937953WA0000001477
B2113384748601N11937954WA0000001485
B2113434748606N11937921WA0000001494
B2113484748597N11937924WA0000001500
B2113534748617N11937948WA0000001512
B2113584748638N11937918WA0000001525
B2114034748629N11937896WA0000001537
B2114094748624N11937919WA0000001548
B2114144748652N11937926WA0000001562
B2114194748667N11937891WA0000001576
B2114244748657N11937877WA0000001586
B2114294748663N11937905WA0000001596
B2114344748688N11937922WA0000001606
B2114394748713N11937936WA0000001615
B2114444748738N11937955WA0000001625
B2114494748765N11937970WA0000001637
B2114544748794N11937970WA0000001650
B2114594748808N11937941WA0000001665
B2115044748798N11937938WA0000001674
B2115094748805N11937968WA0000001691
B2115144748834N11937975WA0000001707
B2115194748853N11937942WA0000001722
B2115244748849N11937916WA0000001735
B2115294748843N11937935WA0000001747
B2115344748866N11937958WA0000001765
B2115394748886N11937931WA0000001781
B2115444748880N11937913WA0000001792
B2115494748874N11937932WA0000001804
B2115544748888N11937965WA0000001820
B2115594748920N11937965WA0000001834
B2116044748938N11937929WA0000001848
B2116094748938N11937897WA0000001861
B2116144748930N11937902WA0000001870
B2116194748947N11937929WA0000001885
B2116244748972N11937905WA0000001900
B2116294748968N11937885WA0000001910
B2116344748966N11937914WA0000001924
B2116394748994N11937919WA0000001938
B2116444749002N11937890WA0000001951
B2116494748994N11937905WA0000001964
B2116544749016N11937927WA0000001978
B2116594749046N11937905WA0000001993
B2117044749047N11937878WA0000002004
B2117094749036N11937892WA0000002015
B2117144749050N11937921WA0000002029
B2117194749078N11937909WA0000002040
B2117244749078N11937879WA0000002050
B2117294749063N11937874WA0000002058
B2117344749045N11937883WA0000002068
B2117394749023N11937886WA0000002078
B2117444749001N11937887WA0000002086
B2117494748979N11937872WA0000002090
B2117544748966N11937840WA0000002093
B2117594748959N11937803WA0000002095
B2118044748951N11937757WA0000002094
B2118094748941N11937713WA0000002090
B2118154748929N11937665WA0000002085
B2118204748920N11937622WA0000002078
B2118254748913N11937577WA0000002071
B2118304748907N11937534WA0000002063
B2118354748902N11937488WA0000002054
B2118404748898N11937442WA0000002043
B2118454748897N11937393WA0000002031
B2118504748898N11937341WA0000002018
B2118554748897N11937291WA0000002005
B2119004748897N11937239WA0000001992
B2119054748897N11937186WA0000001978
B2119104748897N11937131WA0000001964
B2119154748900N11937074WA0000001951
B2119204748902N11937018WA0000001937
B2119254748904N11936965WA0000001924
B2119304748904N11936917WA0000001912
B2119354748904N11936873WA0000001899
B2119404748905N11936826WA0000001887
B2119454748907N11936780WA0000001875
B2119504748908N11936732WA0000001864
B2119554748909N11936682WA0000001853
B2120004748909N11936631WA0000001842
B2120054748910N11936578WA0000001832
B2120104748911N11936524WA0000001822
B2120154748916N11936468WA0000001812
B2120204748918N11936408WA0000001802
B2120254748915N11936347WA0000001793
B2120304748907N11936292WA0000001783
B2120354748905N11936246WA0000001777
B2120404748905N11936211WA0000001774
B2120454748910N11936170WA0000001771
B2120504748914N11936129WA0000001768
B2120554748923N11936096WA0000001768
B2121004748939N11936068WA0000001771
B2121054748969N11936049WA0000001774
B2121104749005N11936041WA0000001779
B2121154749038N11936069WA0000001783
B2121204749044N11936092WA0000001788
B2121254749040N11936076WA0000001792
B2121304749044N11936057WA0000001796
B2121354749053N11936036WA0000001804
B2121404749058N11936014WA0000001810
B2121454749060N11935993WA0000001815
B2121504749061N11935976WA0000001822
B2121554749061N11935955WA0000001828
B2122004749057N11935944WA0000001836
B2122054749055N11935935WA0000001842
B2122104749047N11935927WA0000001849
B2122164749043N11935900WA0000001860
B2122214749046N11935870WA0000001870
B2122264749036N11935844WA0000001876
B2122314749031N11935824WA0000001880
B2122364749024N11935808WA0000001883
B2122414749013N11935796WA0000001886
B2122464749001N11935779WA0000001890
B2122514748995N11935764WA0000001892
B2122564748984N11935754WA0000001895
B2123014748968N11935746WA0000001898
B2123064748953N11935740WA0000001901
B2123114748935N11935735WA0000001902
B2123164748917N11935733WA0000001903
B2123214748899N11935731WA0000001903
B2123264748883N11935724WA0000001905
B2123314748872N11935710WA0000001906
B2123364748860N11935696WA0000001908
B2123414748854N11935671WA0000001912
B2123464748878N11935634WA0000001915
B2123514748912N11935640WA0000001919
B2123564748938N11935657WA0000001924
B2124014748966N11935675WA0000001929
B2124064748979N11935703WA0000001934
B2124114748967N11935701WA0000001935
B2124164748952N11935700WA0000001937
B2124214748941N11935699WA0000001940
B2124264748932N11935696WA0000001944
B2124314748924N11935686WA0000001948
B2124364748907N11935675WA0000001953
B2124414748889N11935666WA0000001957
B2124464748868N11935651WA0000001959
B2124514748851N11935641WA0000001961
B2124564748841N11935632WA0000001963
B2125014748833N11935630WA0000001966
B2125064748818N11935640WA0000001970
B2125114748804N11935652WA0000001972
B2125164748792N11935662WA0000001973
B2125214748777N11935678WA0000001974
B2125264748769N11935707WA0000001974
B2125314748759N11935730WA0000001973
B2125364748747N11935756WA0000001972
B2125424748727N11935787WA0000001969
B2125474748709N11935810WA0000001964
B2125524748691N11935825WA0000001959
B2125574748672N11935834WA0000001953
B2126024748655N11935848WA0000001947
B2126074748639N11935862WA0000001941
B2126124748618N11935878WA0000001936
B2126174748598N11935894WA0000001931
B2126224748575N11935910WA0000001925
B2126274748558N11935922WA0000001920
B2126324748548N11935934WA0000001920
B2126374748561N11935974WA0000001920
B2126424748592N11935970WA0000001923
B2126474748602N11935950WA0000001928
B2126524748592N11935959WA0000001933
B2126574748608N11935996WA0000001941
B2127024748637N11936002WA0000001948
B2127074748652N11935979WA0000001957
B2127124748645N11935961WA0000001962
B2127174748631N11935973WA0000001971
B2127224748645N11936012WA0000001979
B2127274748674N11935998WA0000001986
B2127324748684N11935961WA0000001992
B2127374748686N11935926WA0000001997
B2127424748693N11935885WA0000001999
B2127474748698N11935830WA0000001998
B2127524748698N11935783WA0000001996
B2127574748695N11935744WA0000001992
B2128024748694N11935702WA0000001987
B2128074748694N11935652WA0000001980
B2128124748693N11935601WA0000001971
B2128174748693N11935541WA0000001962
B2128224748696N11935495WA0000001955
B2128274748702N11935440WA0000001948
B2128324748708N11935387WA0000001942
B2128374748712N11935325WA0000001934
B2128424748714N11935264WA0000001926
B2128474748717N11935203WA0000001916
B2128524748718N11935142WA0000001905
B2128574748720N11935075WA0000001894
B2129024748721N11935008WA0000001882
B2129074748722N11934951WA0000001870
B2129124748719N11934890WA0000001859
B2129174748720N11934830WA0000001847
B2129234748723N11934767WA0000001831
B2129284748721N11934717WA0000001818
B2129334748722N11934666WA0000001804
B2129384748726N11934616WA0000001790
B2129434748731N11934562WA0000001776
B2129484748733N11934508WA0000001762
B2129534748730N11934454WA0000001746
B2129584748727N11934398WA0000001730
B2130034748721N11934341WA0000001713
B2130084748715N11934287WA0000001697
B2130134748711N11934235WA0000001681
B2130184748706N11934183WA0000001665
B2130234748699N11934133WA0000001649
B2130284748692N11934085WA0000001635
B2130334748685N11934037WA0000001621
B2130384748677N11933989WA0000001610
B2130434748671N11933939WA0000001599
B2130484748666N11933888WA0000001589
B2130534748664N11933838WA0000001580
B2130584748663N11933790WA0000001569
B2131034748663N11933739WA0000001558
B2131084748663N11933692WA0000001546
B2131134748662N11933646WA0000001533
B2131184748662N11933598WA0000001519
B2131234748657N11933554WA0000001504
B2131284748649N11933513WA0000001489
B2131334748643N11933468WA0000001473
B2131384748639N11933423WA0000001458
B2131434748637N11933374WA0000001441
B2131484748632N11933323WA0000001424
B2131534748630N11933270WA0000001407
B2131584748627N11933218WA0000001390
B2132034748621N11933165WA0000001372
B2132084748615N11933112WA0000001353
B2132134748611N11933062WA0000001335
B2132184748610N11933016WA0000001318
B2132234748612N11932965WA0000001301
B2132284748623N11932917WA0000001287
B2132334748638N11932881WA0000001276
B2132384748662N11932843WA0000001266
B2132434748691N11932804WA0000001257
B2132484748718N11932766WA0000001249
B2132534748738N11932727WA0000001244
B2132584748761N11932687WA0000001240
B2133044748791N11932642WA0000001237
B2133094748816N11932606WA0000001237
B2133144748842N11932569WA0000001237
B2133194748865N11932535WA0000001238
B2133244748889N11932503WA0000001240
B2133294748915N11932472WA0000001243
B2133344748943N11932440WA0000001248
B2133394748969N11932408WA0000001255
B2133444748995N11932374WA0000001262
B2133494749022N11932343WA0000001270
B2133544749054N11932314WA0000001277
B2133594749091N11932305WA0000001286
B2134044749120N11932281WA0000001296
B2134094749117N11932254WA0000001303
B2134144749119N11932267WA0000001310
B2134194749149N11932265WA0000001320
B2134244749161N11932228WA0000001331
B2134294749154N11932214WA0000001339
B2134344749156N11932233WA0000001348
B2134394749183N11932248WA0000001360
B2134444749213N11932222WA0000001373
B2134494749214N11932193WA0000001384
B2134544749213N11932202WA0000001391
B2134594749235N11932223WA0000001404
B2135044749269N11932204WA0000001418
B2135094749274N11932173WA0000001433
B2135144749274N11932186WA0000001443
B2135194749288N11932212WA0000001459
B2135244749317N11932211WA0000001473
B2135294749321N11932181WA0000001485
B2135344749333N11932200WA0000001498
B2135394749361N11932174WA0000001513
B2135444749362N11932147WA0000001527
B2135494749358N11932163WA0000001539
B2135544749383N11932181WA0000001558
B2135594749416N11932156WA0000001576
B2136044749419N11932124WA0000001592
B2136094749411N11932133WA0000001601
B2136144749429N11932153WA0000001619
B2136194749457N11932128WA0000001637
B2136244749452N11932107WA0000001649
B2136294749443N11932097WA0000001658
B2136344749430N11932084WA0000001667
B2136394749412N11932071WA0000001683
B2136444749393N11932064WA0000001695
B2136494749372N11932053WA0000001705
B2136544749357N11932050WA0000001712
B2136594749351N11932052WA0000001717
B2137044749338N11932055WA0000001723
B2137104749324N11932061WA0000001730
B2137154749316N11932063WA0000001736
B2137204749307N11932063WA0000001743
B2137254749296N11932062WA0000001750
B2137304749286N11932054WA0000001759
B2137354749278N11932043WA0000001768
B2137404749270N11932030WA0000001778
B2137454749266N11932015WA0000001790
B2137504749262N11932006WA0000001803
B2137554749257N11932003WA0000001816
B2138004749265N11932030WA0000001837
B2138054749299N11932051WA0000001859
B2138104749335N11932037WA0000001879
B2138154749356N11932004WA0000001898
B2138204749354N11931989WA0000001911
B2138254749368N11932018WA0000001930
B2138304749407N11932021WA0000001951
B2138354749431N11931989WA0000001973
B2138404749432N11931965WA0000001991
B2138454749426N11931970WA0000002003
B2138504749447N11931998WA0000002027
B2138554749484N11931997WA0000002048
B2139004749508N11931963WA0000002068
B2139054749509N11931937WA0000002084
B2139104749503N11931944WA0000002097
B2139154749527N11931970WA0000002118
B2139204749566N11931959WA0000002138
B2139254749584N11931921WA0000002156
B2139304749579N11931902WA0000002168
B2139354749580N11931921WA0000002181
B2139404749611N11931935WA0000002200
B2139454749642N11931908WA0000002217
B2139504749653N11931870WA0000002233
B2139554749647N11931855WA0000002243
B2140004749652N11931870WA0000002256
B2140054749687N11931881WA0000002272
B2140104749714N11931849WA0000002289
B2140154749708N11931834WA0000002300
B2140204749719N11931854WA0000002316
B2140254749752N11931861WA0000002332
B2140304749782N11931837WA0000002349
B2140354749778N11931817WA0000002363
B2140404749782N11931840WA0000002378
B2140454749815N11931844WA0000002395
B2140504749848N11931828WA0000002410
B2140554749849N11931797WA0000002422
B2141004749837N11931793WA0000002430
B2141054749824N11931787WA0000002439
B2141104749812N11931799WA0000002447
B2141154749800N11931815WA0000002460
B2141214749784N11931795WA0000002472
B2141264749783N11931750WA0000002478
B2141314749787N11931692WA0000002480
B2141364749792N11931639WA0000002483
B2141414749799N11931586WA0000002485
B2141464749803N11931527WA0000002485
B2141514749802N11931465WA0000002482
B2141564749800N11931393WA0000002476
B2142014749794N11931315WA0000002466
B2142064749785N11931243WA0000002454
B2142114749773N11931184WA0000002442
B2142164749761N11931122WA0000002430
B2142214749747N11931061WA0000002419
B2142264749726N11930999WA0000002408
B2142314749707N11930954WA0000002400
B2142364749691N11930908WA0000002392
B2142414749677N11930865WA0000002385
B2142464749664N11930825WA0000002380
B2142514749655N11930788WA0000002377
B2142564749640N11930740WA0000002372
B2143014749629N11930690WA0000002366
B2143064749615N11930647WA0000002361
B2143114749600N11930608WA0000002356
B2143164749582N11930559WA0000002349
B2143214749564N11930508WA0000002340
B2143264749545N11930456WA0000002330
B2143314749527N11930405WA0000002320
B2143364749510N11930358WA0000002308
B2143414749494N11930307WA0000002296
B2143464749479N11930251WA0000002283
B2143514749462N11930199WA0000002270
B2143564749443N11930146WA0000002255
B2144014749424N11930095WA0000002241
B2144064749406N11930043WA0000002227
B2144114749394N11929985WA0000002213
B2144164749387N11929926WA0000002201
B2144214749379N11929869WA0000002188
B2144264749369N11929812WA0000002175
B2144314749359N11929757WA0000002163
B2144374749345N11929696WA0000002148
B2144424749335N11929643WA0000002135
B2144474749322N11929585WA0000002121
B2144524749307N11929525WA0000002108
B2144574749291N11929471WA0000002095
B2145024749273N11929430WA0000002083
B2145074749255N11929384WA0000002071
B2145124749241N11929337WA0000002061
B2145174749235N11929303WA0000002052
B2145224749231N11929270WA0000002044
B2145274749226N11929237WA0000002038
B2145324749220N11929225WA0000002037
B2145374749220N11929258WA0000002036
B2145424749252N11929267WA0000002037
B2145474749279N11929256WA0000002039
B2145524749306N11929239WA0000002042
B2145574749310N11929214WA0000002045
B2146024749299N11929217WA0000002048
B2146074749287N11929211WA0000002051
B2146124749282N11929229WA0000002055
B2146174749311N11929256WA0000002060
B2146224749335N11929233WA0000002064
B2146274749342N11929200WA0000002069
B2146324749337N11929180WA0000002072
B2146374749329N11929164WA0000002076
B2146424749317N11929155WA0000002081
B2146474749315N11929188WA0000002091
B2146524749346N11929195WA0000002101
B2146574749363N11929167WA0000002111
B2147024749357N11929152WA0000002117
B2147074749348N11929170WA0000002124
B2147124749363N11929209WA0000002132
B2147174749392N11929208WA0000002139
B2147224749401N11929182WA0000002145
B2147274749411N11929149WA0000002151
B2147324749424N11929118WA0000002155
B2147374749433N11929080WA0000002157
B2147424749444N11929039WA0000002157
B2147474749452N11929000WA0000002155
B2147524749460N11928952WA0000002153
B2147574749469N11928917WA0000002153
B2148024749475N11928883WA0000002153
B2148074749480N11928850WA0000002153
B2148124749472N11928825WA0000002154
B2148174749466N11928803WA0000002156
B2148234749456N11928780WA0000002158
B2148284749448N11928759WA0000002160
B2148334749441N11928734WA0000002163
B2148384749435N11928714WA0000002166
B2148434749423N11928697WA0000002166
B2148484749398N11928667WA0000002164
B2148534749382N11928639WA0000002161
B2148584749365N11928615WA0000002157
B2149034749351N11928588WA0000002152
B2149084749336N11928555WA0000002148
B2149134749330N11928528WA0000002145
B2149184749323N11928506WA0000002142
B2149234749315N11928484WA0000002138
B2149284749306N11928458WA0000002135
B2149334749297N11928433WA0000002132
B2149384749293N11928409WA0000002130
B2149434749286N11928374WA0000002128
B2149484749283N11928333WA0000002127
B2149534749275N11928295WA0000002126
B2149584749265N11928262WA0000002125
B2150034749255N11928234WA0000002123
B2150084749243N11928206WA0000002120
B2150134749240N11928183WA0000002119
B2150184749236N11928154WA0000002117
B2150234749235N11928133WA0000002117
B2150284749226N11928118WA0000002116
B2150334749208N11928096WA0000002115
B2150384749200N11928071WA0000002114
B2150434749184N11928054WA0000002113
B2150484749173N11928044WA0000002113
B2150534749153N11928029WA0000002112
B2150584749133N11927998WA0000002110
B2151034749112N11927967WA0000002108
B2151084749092N11927935WA0000002106
B2151134749076N11927909WA0000002106
B2151184749063N11927879WA0000002105
B2151234749042N11927854WA0000002104
B2151284749025N11927830WA0000002103
B2151344749007N11927799WA0000002100
B2151394748992N11927762WA0000002096
B2151444748979N11927714WA0000002090
B2151494748967N11927666WA0000002082
B2151544748962N11927614WA0000002073
B2151594748952N11927551WA0000002062
B2152044748942N11927488WA0000002051
B2152094748936N11927423WA0000002040
B2152144748928N11927358WA0000002029
B2152194748920N11927296WA0000002017
B2152244748912N11927235WA0000002005
B2152294748902N11927179WA0000001994
B2152344748895N11927124WA0000001983
B2152394748891N11927064WA0000001971
B2152444748885N11927008WA0000001959
B2152494748877N11926957WA0000001947
B2152544748868N11926905WA0000001935
B2152594748856N11926853WA0000001921
B2153044748860N11926814WA0000001908
B2153094748879N11926772WA0000001895
B2153144748899N11926721WA0000001883
B2153194748929N11926673WA0000001872
B2153244748963N11926635WA0000001861
B2153294749000N11926594WA0000001850
B2153344749033N11926547WA0000001840
B2153394749062N11926499WA0000001831
B2153444749089N11926453WA0000001821
B2153494749115N11926405WA0000001811
B2153544749148N11926355WA0000001799
B2153594749183N11926316WA0000001787
B2154044749218N11926276WA0000001774
B2154094749255N11926238WA0000001761
B2154144749298N11926196WA0000001747
B2154194749338N11926150WA0000001735
B2154244749370N11926112WA0000001726
B2154294749395N11926078WA0000001719
B2154344749420N11926040WA0000001713
B2154394749453N11926008WA0000001707
B2154444749490N11925980WA0000001700
B2154494749532N11925955WA0000001693
B2154544749573N11925931WA0000001687
B2155004749629N11925906WA0000001679
B2155054749669N11925888WA0000001675
B2155104749702N11925873WA0000001674
B2155154749738N11925861WA0000001673
B2155204749776N11925855WA0000001674
B2155254749815N11925848WA0000001673
B2155304749857N11925838WA0000001672
B2155354749905N11925824WA0000001670
B2155404749952N11925806WA0000001666
B2155454749988N11925783WA0000001664
B2155504750026N11925771WA0000001663
B2155554750063N11925765WA0000001663
B2156004750084N11925745WA0000001664
B2156054750079N11925748WA0000001665
B2156104750101N11925776WA0000001669
B2156154750129N11925763WA0000001673
B2156204750130N11925754WA0000001676
B2156254750132N11925790WA0000001683
B2156304750167N11925806WA0000001692
B2156354750197N11925794WA0000001699
B2156404750198N11925779WA0000001705
B2156454750193N11925798WA0000001711
B2156504750212N11925834WA0000001720
B2156554750249N11925837WA0000001727
B2157004750271N11925814WA0000001734
B2157054750268N11925803WA0000001739
B2157104750261N11925814WA0000001746
B2157154750260N11925849WA0000001755
B2157204750289N11925878WA0000001763
B2157254750323N11925872WA0000001770
B2157304750337N11925851WA0000001776
B2157354750333N11925846WA0000001781
B2157404750325N11925839WA0000001785
B2157454750312N11925837WA0000001791
B2157504750303N11925834WA0000001795
B2157554750301N11925824WA0000001799
B2158004750298N11925814WA0000001805
B2158054750294N11925812WA0000001812
B2158104750288N11925799WA0000001820
B2158154750283N11925777WA0000001832
B2158204750276N11925757WA0000001842
B2158254750264N11925770WA0000001853
B2158304750288N11925802WA0000001864
B2158354750322N11925814WA0000001873
B2158404750354N11925833WA0000001881
B2158454750388N11925857WA0000001889
B2158514750427N11925852WA0000001899
B2158564750422N11925840WA0000001903
B2159014750410N11925849WA0000001908
B2159064750399N11925861WA0000001915
B2159114750386N11925868WA0000001922
B2159164750370N11925875WA0000001933
B2159214750349N11925885WA0000001941
B2159264750336N11925899WA0000001946
B2159314750322N11925890WA0000001951
B2159364750310N11925872WA0000001954
B2159414750297N11925851WA0000001954
B2159464750282N11925822WA0000001952
B2159514750270N11925792WA0000001948
B2159564750255N11925762WA0000001944
B2200014750235N11925737WA0000001939
B2200064750214N11925715WA0000001933
B2200114750196N11925694WA0000001926
B2200164750176N11925666WA0000001918
B2200214750158N11925639WA0000001910
B2200264750137N11925614WA0000001902
B2200314750117N11925581WA0000001893
B2200364750101N11925551WA0000001884
B2200414750085N11925515WA0000001875
B2200464750067N11925476WA0000001866
B2200514750050N11925436WA0000001857
B2200564750037N11925394WA0000001849
B2201014750025N11925358WA0000001840
B2201064750009N11925323WA0000001830
B2201114749991N11925290WA0000001819
B2201164749977N11925257WA0000001808
B2201214749962N11925224WA0000001796
B2201264749946N11925195WA0000001786
B2201314749929N11925162WA0000001774
B2201364749911N11925128WA0000001762
B2201414749893N11925096WA0000001750
B2201464749876N11925067WA0000001736
B2201514749862N11925030WA0000001721
B2201564749848N11924987WA0000001704
B2202014749833N11924943WA0000001685
B2202064749818N11924902WA0000001666
B2202114749802N11924861WA0000001646
B2202164749786N11924819WA0000001627
B2202214749771N11924773WA0000001608
B2202274749752N11924724WA0000001587
B2202324749738N11924683WA0000001570
B2202374749724N11924638WA0000001553
B2202424749706N11924593WA0000001536
B2202474749690N11924549WA0000001520
B2202524749673N11924508WA0000001504
B2202574749659N11924460WA0000001488
B2203024749644N11924415WA0000001471
B2203074749629N11924369WA0000001455
B2203124749615N11924325WA0000001440
B2203174749602N11924289WA0000001427
B2203224749588N11924256WA0000001415
B2203274749574N11924226WA0000001403
B2203324749563N11924197WA0000001392
B2203374749551N11924164WA0000001380
B2203424749539N11924128WA0000001369
B2203474749527N11924095WA0000001359
B2203524749516N11924059WA0000001349
B2203574749503N11924024WA0000001339
B2204024749492N11923987WA0000001330
B2204074749479N11923946WA0000001320
B2204124749465N11923909WA0000001312
B2204174749453N11923881WA0000001304
B2204224749449N11923853WA0000001297
B2204274749441N11923822WA0000001290
B2204324749435N11923791WA0000001284
B2204374749426N11923757WA0000001277
B2204424749413N11923722WA0000001269
B2204474749400N11923687WA0000001262
B2204524749388N11923650WA0000001255
B2204574749379N11923610WA0000001247
B2205024749369N11923574WA0000001239
B2205074749360N11923530WA0000001231
B2205124749354N11923485WA0000001223
B2205174749350N11923441WA0000001214
B2205224749340N11923404WA0000001204
B2205274749329N11923376WA0000001196
B2205324749322N11923351WA0000001191
B2205374749324N11923324WA0000001189
B2205434749327N11923286WA0000001187
B2205484749322N11923256WA0000001184
B2205534749320N11923233WA0000001179
B2205584749320N11923203WA0000001173
B2206034749319N11923174WA0000001167
B2206084749318N11923147WA0000001161
B2206134749315N11923133WA0000001159
B2206184749311N11923136WA0000001157
B2206234749313N11923157WA0000001156
B2206284749319N11923184WA0000001156
B2206334749329N11923219WA0000001156
B2206384749353N11923258WA0000001158
B2206434749389N11923265WA0000001161
B2206484749405N11923246WA0000001165
B2206534749402N11923261WA0000001170
B2206584749411N11923298WA0000001177
B2207034749440N11923318WA0000001184
B2207084749472N11923292WA0000001189
B2207134749484N11923267WA0000001195
B2207184749483N11923269WA0000001198
B2207234749486N11923297WA0000001203
B2207284749508N11923326WA0000001208
B2207334749543N11923315WA0000001211
B2207384749555N11923286WA0000001213
B2207434749558N11923272WA0000001214
B2207484749560N11923269WA0000001215
B2207534749558N11923264WA0000001216
B2207584749556N11923271WA0000001216
B2208034749548N11923287WA0000001215
B2208084749535N11923297WA0000001213
B2208134749522N11923279WA0000001211
B2208184749511N11923254WA0000001208
B2208234749505N11923232WA0000001207
B2208284749497N11923222WA0000001207
B2208334749487N11923232WA0000001208
B2208384749490N11923259WA0000001210
B2208434749519N11923269WA0000001211
B2208484749539N11923239WA0000001212
B2208534749530N11923218WA0000001212
B2208584749516N11923205WA0000001212
B2209044749507N11923191WA0000001212
B2209094749500N11923177WA0000001210
B2209144749490N11923160WA0000001204
B2209194749476N11923142WA0000001197
B2209244749462N11923118WA0000001189
B2209294749452N11923100WA0000001182
B2209344749430N11923096WA0000001169
B2209394749411N11923099WA0000001155
B2209444749395N11923095WA0000001138
B2209494749378N11923089WA0000001120
B2209544749367N11923089WA0000001108
B2209594749364N11923081WA0000001099
B2210044749360N11923068WA0000001091
B2210094749355N11923061WA0000001083
B2210144749342N11923049WA0000001069
B2210194749332N11923034WA0000001061
B2210244749324N11923011WA0000001047
B2210294749314N11922983WA0000001035
B2210344749304N11922964WA0000001024
B2210394749291N11922950WA0000001013
B2210444749278N11922933WA0000000999
B2210494749267N11922908WA0000000986
B2210544749257N11922880WA0000000974
B2210594749256N11922857WA0000000967
B2211044749260N11922844WA0000000963
B2211094749262N11922829WA0000000959
B2211144749255N11922813WA0000000955
B2211194749242N11922806WA0000000950
B2211244749238N11922795WA0000000947
B2211294749236N11922781WA0000000945
B2211344749233N11922772WA0000000944
B2211394749234N11922763WA0000000943
B2211444749231N11922757WA0000000941
B2211494749230N11922778WA0000000940
B2211544749260N11922809WA0000000939
B2211594749295N11922794WA0000000937
B2212044749310N11922765WA0000000936
B2212094749321N11922743WA0000000937
B2212144749318N11922744WA0000000937
B2212194749310N11922759WA0000000937
B2212254749300N11922776WA0000000937
B2212304749292N11922790WA0000000935
B2212354749283N11922801WA0000000933
B2212404749267N11922794WA0000000930
B2212454749257N11922791WA0000000928
B2212504749252N11922781WA0000000926
B2212554749244N11922764WA0000000922
B2213004749232N11922739WA0000000913
B2213054749223N11922712WA0000000903
B2213104749214N11922686WA0000000893
B2213154749206N11922677WA0000000886
B2213204749209N11922705WA0000000876
B2213254749243N11922739WA0000000866
B2213304749284N11922762WA0000000857
B2213354749326N11922786WA0000000848
B2213404749365N11922810WA0000000839
B2213454749403N11922834WA0000000829
B2213504749442N11922857WA0000000820
B2213554749474N11922884WA0000000811
B2214004749499N11922914WA0000000805
B2214054749528N11922935WA0000000800
B2214104749533N11922916WA0000000798
B2214154749530N11922936WA0000000798
B2214204749552N11922966WA0000000797
B2214254749573N11922950WA0000000799
B2214304749566N11922942WA0000000801
B2214354749571N11922979WA0000000805
B2214404749598N11922979WA0000000810
B2214454749595N11922970WA0000000813
B2214504749606N11923006WA0000000818
B2214554749635N11923007WA0000000823
B2215004749632N11922996WA0000000826
B2215054749643N11923031WA0000000832
B2215104749675N11923037WA0000000838
B2215154749675N11923025WA0000000841
B2215204749670N11923053WA0000000845
B2215254749696N11923086WA0000000851
B2215304749717N11923073WA0000000854
B2215354749711N11923064WA0000000857
B2215404749709N11923092WA0000000862
B2215464749745N11923091WA0000000870
B2215514749747N11923076WA0000000875
B2215564749744N11923101WA0000000881
B2216014749777N11923129WA0000000887
B2216064749814N11923139WA0000000891
B2216114749825N11923122WA0000000894
B2216164749821N11923119WA0000000895
B2216214749828N11923144WA0000000897
B2216264749862N11923168WA0000000900
B2216314749900N11923165WA0000000903
B2216364749908N11923141WA0000000904
B2216414749910N11923123WA0000000905
B2216464749904N11923129WA0000000905
B2216514749898N11923143WA0000000905
B2216564749900N11923176WA0000000904
B2217014749936N11923200WA0000000903
B2217064749967N11923182WA0000000902
B2217114749966N11923170WA0000000902
B2217164749971N11923144WA0000000901
B2217214749983N11923118WA0000000901
B2217264749996N11923089WA0000000903
B2217314750025N11923090WA0000000906
B2217364750024N11923113WA0000000908
B2217414750016N11923108WA0000000911
B2217464750031N11923078WA0000000916
B2217514750063N11923084WA0000000921
B2217564750074N11923115WA0000000926
B2218014750064N11923117WA0000000930
B2218064750074N11923088WA0000000937
B2218114750106N11923088WA0000000944
B2218164750116N11923118WA0000000950
B2218214750107N11923124WA0000000954
B2218264750116N11923097WA0000000961
B2218314750149N11923096WA0000000969
B2218364750166N11923130WA0000000977
B2218414750159N11923138WA0000000982
B2218464750170N11923119WA0000000992
B2218514750203N11923121WA0000001003
B2218564750216N11923157WA0000001011
B2219024750208N11923168WA0000001016
B2219074750213N11923155WA0000001021
B2219124750248N11923146WA0000001028
B2219174750281N11923177WA0000001034
B2219224750288N11923206WA0000001041
B2219274750293N11923193WA0000001048
B2219324750329N11923192WA0000001056
B2219374750352N11923228WA0000001062
B2219424750348N11923249WA0000001065
B2219474750349N11923242WA0000001066
B2219524750367N11923221WA0000001070
B2219574750404N11923236WA0000001074
B2220024750415N11923270WA0000001076
B2220074750414N11923275WA0000001077
B2220124750435N11923257WA0000001080
B2220174750474N11923265WA0000001083
B2220224750497N11923300WA0000001084
B2220274750495N11923317WA0000001084
B2220324750493N11923314WA0000001084
B2220374750493N11923302WA0000001084
B2220424750508N11923280WA0000001083
B2220474750533N11923258WA0000001082
B2220524750560N11923245WA0000001080
B2220574750583N11923223WA0000001080
B2221024750607N11923203WA0000001080
B2221074750635N11923180WA0000001082
B2221124750662N11923157WA0000001085
B2221174750673N11923135WA0000001088
B2221224750676N11923154WA0000001093
B2221274750708N11923177WA0000001101
B2221324750740N11923164WA0000001109
B2221374750750N11923146WA0000001116
B2221424750755N11923167WA0000001124
B2221474750787N11923195WA0000001136
B2221524750823N11923183WA0000001150
B2221574750837N11923159WA0000001161
B2222024750839N11923153WA0000001169
B2222074750867N11923180WA0000001184
B2222124750895N11923164WA0000001198
B2222174750895N11923169WA0000001207
B2222224750916N11923202WA0000001221
B2222274750950N11923206WA0000001234
B2222324750969N11923176WA0000001248
B2222374750969N11923183WA0000001258
B2222424750992N11923217WA0000001274
B2222474751025N11923200WA0000001289
B2222534751026N11923189WA0000001302
B2222584751048N11923222WA0000001320
B2223034751084N11923219WA0000001336
B2223084751095N11923191WA0000001351
B2223134751095N11923206WA0000001365
B2223184751124N11923233WA0000001384
B2223234751152N11923210WA0000001403
B2223284751156N11923193WA0000001416
B2223334751168N11923226WA0000001434
B2223384751204N11923225WA0000001452
B2223434751225N11923197WA0000001469
B2223484751225N11923199WA0000001477
B2223534751239N11923235WA0000001495
B2223584751273N11923248WA0000001511
B2224034751305N11923225WA0000001527
B2224084751318N11923196WA0000001542
B2224134751314N11923190WA0000001550
B2224184751320N11923217WA0000001565
B2224234751353N11923234WA0000001581
B2224284751387N11923213WA0000001597
B2224334751397N11923182WA0000001612
B2224384751397N11923195WA0000001623
B2224434751420N11923227WA0000001638
B2224484751456N11923238WA0000001652
B2224534751486N11923216WA0000001666
B2224584751491N11923188WA0000001679
B2225034751488N11923190WA0000001687
B2225084751509N11923223WA0000001704
B2225134751547N11923235WA0000001721
B2225184751580N11923217WA0000001737
B2225234751586N11923195WA0000001751
B2225284751582N11923203WA0000001763
B2225334751603N11923235WA0000001783
B2225384751638N11923222WA0000001803
B2225434751652N11923187WA0000001822
B2225484751647N11923180WA0000001833
B2225534751659N11923210WA0000001853
B2225584751689N11923223WA0000001872
B2226034751716N11923193WA0000001889
B2226084751718N11923166WA0000001903
B2226134751711N11923174WA0000001915
B2226184751723N11923203WA0000001934
B2226234751756N11923206WA0000001953
B2226284751777N11923169WA0000001971
B2226334751770N11923145WA0000001984
B2226384751761N11923155WA0000001994
B2226434751775N11923182WA0000002013
B2226484751807N11923178WA0000002029
B2226534751826N11923137WA0000002044
B2226584751823N11923103WA0000002058
B2227044751811N11923103WA0000002068
B2227094751818N11923128WA0000002080
B2227144751844N11923148WA0000002093
B2227194751875N11923140WA0000002104
B2227244751894N11923102WA0000002114
B2227294751885N11923074WA0000002123
B2227344751869N11923055WA0000002131
B2227394751854N11923051WA0000002135
B2227444751839N11923051WA0000002138
B2227494751823N11923052WA0000002142
B2227544751806N11923051WA0000002145
B2227594751792N11923050WA0000002147
B2228044751775N11923054WA0000002147
B2228094751758N11923039WA0000002147
B2228144751746N11923018WA0000002146
B2228194751725N11922999WA0000002140
B2228244751704N11922976WA0000002132
B2228294751696N11922949WA0000002125
B2228344751675N11922939WA0000002117
B2228394751658N11922936WA0000002111
B2228444751637N11922934WA0000002103
B2228494751618N11922922WA0000002095
B2228544751599N11922907WA0000002088
B2228594751585N11922893WA0000002083
B2229044751565N11922886WA0000002076
B2229094751546N11922878WA0000002068
B2229144751531N11922861WA0000002059
B2229194751513N11922842WA0000002049
B2229244751495N11922826WA0000002039
B2229294751479N11922812WA0000002029
B2229344751460N11922813WA0000002019
B2229394751439N11922808WA0000002008
B2229444751418N11922794WA0000001995
B2229494751396N11922775WA0000001982
B2229544751380N11922756WA0000001970
B2229594751370N11922738WA0000001962
B2230044751358N11922723WA0000001955
B2230094751345N11922706WA0000001947
B2230144751339N11922695WA0000001944
B2230194751332N11922685WA0000001942
B2230244751326N11922676WA0000001940
B2230294751320N11922658WA0000001937
B2230344751313N11922641WA0000001936
B2230404751305N11922629WA0000001936
B2230454751298N11922622WA0000001936
B2230504751285N11922614WA0000001934
B2230554751271N11922607WA0000001932
B2231004751257N11922591WA0000001930
B2231054751251N11922572WA0000001930
B2231104751247N11922558WA0000001932
B2231154751234N11922547WA0000001932
B2231204751220N11922537WA0000001931
B2231254751202N11922526WA0000001928
B2231304751183N11922518WA0000001922
B2231354751166N11922512WA0000001916
B2231404751148N11922507WA0000001908
B2231454751130N11922501WA0000001901
B2231504751111N11922495WA0000001894
B2231554751094N11922486WA0000001885
B2232004751079N11922480WA0000001876
B2232054751060N11922477WA0000001865
B2232104751042N11922475WA0000001853
B2232154751024N11922472WA0000001841
B2232204751006N11922466WA0000001829
B2232254750990N11922458WA0000001818
B2232304750975N11922452WA0000001808
B2232354750964N11922450WA0000001803
B2232404750954N11922451WA0000001799
B2232454750945N11922451WA0000001795
B2232504750940N11922448WA0000001793
B2232554750925N11922440WA0000001789
B2233004750919N11922430WA0000001789
B2233054750915N11922425WA0000001792
B2233104750912N11922421WA0000001795
B2233154750907N11922415WA0000001800
B2233204750903N11922409WA0000001805
B2233254750895N11922405WA0000001810
B2233304750890N11922404WA0000001816
B2233354750881N11922401WA0000001822
B2233404750868N11922395WA0000001828
B2233454750856N11922384WA0000001833
B2233504750841N11922372WA0000001837
B2233554750826N11922363WA0000001838
B2234004750814N11922351WA0000001838
B2234064750796N11922337WA0000001835
B2234114750777N11922327WA0000001830
B2234164750761N11922320WA0000001827
B2234214750743N11922313WA0000001822
B2234264750724N11922304WA0000001818
B2234314750710N11922300WA0000001816
B2234364750706N11922291WA0000001816
B2234414750700N11922280WA0000001816
B2234464750684N11922268WA0000001814
B2234514750673N11922258WA0000001813
B2234564750670N11922250WA0000001813
B2235014750652N11922241WA0000001811
B2235064750635N11922232WA0000001809
B2235114750610N11922221WA0000001803
B2235164750581N11922207WA0000001797
B2235214750564N11922194WA0000001794
B2235264750554N11922182WA0000001793
B2235314750547N11922175WA0000001792
B2235364750540N11922168WA0000001792
B2235414750524N11922162WA0000001789
B2235464750509N11922154WA0000001787
B2235514750493N11922145WA0000001784
B2235564750480N11922136WA0000001782
B2236014750464N11922128WA0000001776
B2236064750443N11922120WA0000001767
B2236114750420N11922113WA0000001758
B2236164750396N11922106WA0000001749
B2236214750372N11922097WA0000001740
B2236264750349N11922092WA0000001733
B2236314750330N11922096WA0000001727
B2236364750313N11922099WA0000001724
B2236414750308N11922098WA0000001724
B2236464750302N11922097WA0000001724
B2236514750288N11922096WA0000001724
B2236564750275N11922096WA0000001723
B2237014750257N11922095WA0000001719
B2237064750240N11922098WA0000001713
B2237114750221N11922107WA0000001706
B2237164750202N11922110WA0000001699
B2237214750186N11922112WA0000001690
B2237264750166N11922111WA0000001679
B2237314750147N11922104WA0000001667
B2237374750123N11922096WA0000001650
B2237424750105N11922089WA0000001636
B2237474750081N11922083WA0000001623
B2237524750061N11922078WA0000001612
B2237574750041N11922078WA0000001603
B2238024750019N11922070WA0000001593
B2238074749996N11922057WA0000001583
B2238124749976N11922045WA0000001573
B2238174749966N11922044WA0000001571
B2238224749962N11922046WA0000001569
B2238274749960N11922046WA0000001569
B2238324749958N11922040WA0000001570
B2238374749950N11922041WA0000001572
B2238424749940N11922039WA0000001574
B2238474749927N11922036WA0000001576
B2238524749913N11922030WA0000001579
B2238574749899N11922024WA0000001582
B2239024749880N11922015WA0000001584
B2239074749858N11922010WA0000001584
B2239124749841N11922006WA0000001584
B2239174749825N11921998WA0000001585
B2239224749820N11921995WA0000001587
B2239274749825N11922014WA0000001591
B2239324749858N11922010WA0000001597
B2239374749866N11921992WA0000001603
B2239424749868N11922009WA0000001609
B2239474749899N11922026WA0000001618
B2239524749925N11922015WA0000001627
B2239574749932N11921988WA0000001635
B2240024749929N11921969WA0000001640
B2240074749919N11921964WA0000001646
B2240124749907N11921968WA0000001653
B2240174749891N11921965WA0000001662
B2240224749883N11921957WA0000001670
B2240274749877N11921947WA0000001677
B2240324749868N11921939WA0000001685
B2240374749857N11921935WA0000001692
B2240424749841N11921937WA0000001704
B2240474749828N11921939WA0000001709
B2240524749816N11921934WA0000001715
B2240574749797N11921924WA0000001720
B2241024749771N11921912WA0000001724
B2241074749747N11921906WA0000001727
B2241124749734N11921903WA0000001730
B2241174749722N11921899WA0000001733
B2241224749708N11921896WA0000001738
B2241274749692N11921889WA0000001746
B2241334749675N11921890WA0000001752
B2241384749660N11921890WA0000001758
B2241434749646N11921889WA0000001762
B2241484749630N11921887WA0000001768
B2241534749608N11921885WA0000001774
B2241584749592N11921887WA0000001777
B2242034749573N11921888WA0000001779
B2242084749554N11921889WA0000001779
B2242134749539N11921889WA0000001777
B2242184749518N11921887WA0000001773
B2242234749502N11921890WA0000001769
B2242284749486N11921887WA0000001767
B2242334749477N11921881WA0000001766
B2242384749468N11921869WA0000001767
B2242434749457N11921869WA0000001767
B2242484749448N11921870WA0000001769
B2242534749445N11921864WA0000001773
B2242584749443N11921863WA0000001778
B2243034749440N11921862WA0000001783
B2243084749430N11921864WA0000001790
B2243134749423N11921858WA0000001797
B2243184749418N11921854WA0000001807
B2243234749413N11921853WA0000001817
B2243284749402N11921853WA0000001829
B2243334749389N11921849WA0000001843
B2243384749380N11921845WA0000001855
B2243434749370N11921845WA0000001867
B2243484749362N11921840WA0000001879
B2243534749352N11921837WA0000001892
B2243584749343N11921842WA0000001906
B2244034749332N11921845WA0000001919
B2244084749320N11921852WA0000001932
B2244134749307N11921851WA0000001945
B2244184749295N11921854WA0000001957
B2244234749273N11921846WA0000001979
B2244284749252N11921837WA0000001997
B2244334749228N11921825WA0000002013
B2244384749200N11921820WA0000002027
B2244434749172N11921809WA0000002039
B2244454749161N11921805WA0000002044
B2244464749156N11921803WA0000002046
B2244514749137N11921808WA0000002054
B2244564749169N11921838WA0000002062
B2245014749208N11921849WA0000002066
B2245064749255N11921851WA0000002069
B2245114749308N11921862WA0000002071
B2245164749360N11921873WA0000002073
B2245214749410N11921890WA0000002076
B2245274749468N11921916WA0000002079
B2245324749515N11921938WA0000002082
B2245374749566N11921963WA0000002084
B2245424749621N11921993WA0000002086
B2245474749676N11922028WA0000002087
B2245524749731N11922060WA0000002089
B2245574749786N11922083WA0000002090
B2246024749837N11922102WA0000002090
B2246074749893N11922122WA0000002089
B2246124749946N11922142WA0000002087
B2246174750001N11922155WA0000002083
B2246224750057N11922162WA0000002077
B2246274750114N11922172WA0000002072
B2246324750173N11922187WA0000002066
B2246374750233N11922207WA0000002059
B2246424750292N11922226WA0000002052
B2246474750349N11922245WA0000002043
B2246524750403N11922263WA0000002034
B2246574750457N11922276WA0000002024
B2247024750509N11922284WA0000002013
B2247074750557N11922290WA0000002003
B2247124750606N11922295WA0000001991
B2247174750656N11922310WA0000001979
B2247224750707N11922330WA0000001967
B2247274750754N11922349WA0000001955
B2247324750804N11922367WA0000001943
B2247374750857N11922386WA0000001930
B2247424750915N11922406WA0000001917
B2247474750969N11922424WA0000001907
B2247524751024N11922443WA0000001898
B2247574751074N11922467WA0000001891
B2248024751129N11922486WA0000001884
B2248074751179N11922495WA0000001880
B2248124751225N11922505WA0000001876
B2248174751272N11922522WA0000001871
B2248224751315N11922544WA0000001866
B2248274751362N11922563WA0000001861
B2248324751409N11922578WA0000001856
B2248374751456N11922591WA0000001850
B2248424751505N11922602WA0000001844
B2248474751555N11922606WA0000001838
B2248524751608N11922616WA0000001833
B2248574751661N11922629WA0000001832
B2249024751709N11922644WA0000001833
B2249074751760N11922657WA0000001835
B2249134751824N11922673WA0000001839
B2249184751875N11922689WA0000001845
B2249234751929N11922708WA0000001852
B2249284751983N11922735WA0000001858
B2249334752038N11922754WA0000001864
B2249384752090N11922774WA0000001872
B2249434752141N11922790WA0000001880
B2249484752194N11922809WA0000001886
B2249534752250N11922823WA0000001892
B2249584752306N11922841WA0000001896
B2250034752364N11922855WA0000001899
B2250084752424N11922872WA0000001901
B2250134752485N11922886WA0000001903
B2250184752542N11922900WA0000001905
B2250234752600N11922912WA0000001905
B2250284752659N11922926WA0000001904
B2250334752712N11922942WA0000001902
B2250384752767N11922960WA0000001898
B2250434752822N11922974WA0000001891
B2250484752879N11922986WA0000001883
B2250534752932N11922995WA0000001875
B2250584752985N11923004WA0000001867
B2251034753037N11923013WA0000001858
B2251084753094N11923027WA0000001849
B2251134753152N11923043WA0000001838
B2251184753205N11923058WA0000001826
B2251234753260N11923074WA0000001813
B2251284753315N11923092WA0000001797
B2251334753370N11923113WA0000001780
B2251384753424N11923132WA0000001762
B2251434753480N11923149WA0000001743
B2251484753534N11923165WA0000001724
B2251534753585N11923180WA0000001705
B2251584753634N11923191WA0000001686
B2252034753685N11923205WA0000001665
B2252084753734N11923219WA0000001643
B2252134753782N11923233WA0000001622
B2252184753830N11923248WA0000001601
B2252234753876N11923261WA0000001581
B2252284753921N11923284WA0000001560
B2252334753968N11923300WA0000001539
B2252384754017N11923311WA0000001517
B2252434754065N11923321WA0000001496
B2252484754116N11923323WA0000001473
B2252534754164N11923326WA0000001449
B2252584754217N11923329WA0000001425
B2253034754269N11923333WA0000001401
B2253094754331N11923349WA0000001372
B2253144754382N11923358WA0000001347
B2253194754437N11923367WA0000001322
B2253244754492N11923373WA0000001296
B2253294754549N11923380WA0000001271
B2253334754594N11923386WA0000001250
B2253344754606N11923387WA0000001245
B2253394754660N11923395WA0000001220
B2253444754705N11923398WA0000001197
B2253494754755N11923402WA0000001175
B2253544754806N11923411WA0000001155
B2253594754855N11923422WA0000001137
B2254044754906N11923432WA0000001120
B2254054754915N11923434WA0000001117
B2254064754925N11923436WA0000001114
B2254114754969N11923447WA0000001099
B2254164755008N11923478WA0000001084
B2254214755043N11923520WA0000001069
B2254264755080N11923562WA0000001055
B2254314755114N11923606WA0000001042
B2254364755145N11923649WA0000001029
B2254414755177N11923691WA0000001017
B2254464755201N11923739WA0000001005
B2254514755216N11923789WA0000000994
B2254564755227N11923845WA0000000984
B2255014755238N11923902WA0000000974
B2255064755249N11923957WA0000000965
B2255114755262N11924011WA0000000955
B2255164755270N11924062WA0000000945
B2255214755269N11924108WA0000000937
B2255264755271N11924155WA0000000929
B2255314755275N11924202WA0000000922
B2255364755281N11924254WA0000000916
B2255414755281N11924311WA0000000910
B2255464755283N11924363WA0000000907
B2255514755291N11924420WA0000000906
B2255564755312N11924471WA0000000906
B2256014755326N11924469WA0000000906
B2256064755332N11924517WA0000000907
B2256114755344N11924576WA0000000910
B2256164755354N11924625WA0000000913
B2256214755350N11924661WA0000000914
B2256264755342N11924692WA0000000914
B2256314755328N11924712WA0000000912
B2256364755314N11924717WA0000000912
B2256414755305N11924707WA0000000911
B2256464755294N11924697WA0000000912
B2256514755284N11924688WA0000000913
B2256564755275N11924679WA0000000915
B2257024755265N11924671WA0000000917
B2257074755277N11924645WA0000000920
B2257124755311N11924639WA0000000921
B2257174755305N11924648WA0000000922
B2257224755320N11924670WA0000000924
B2257274755317N11924692WA0000000925
B2257324755331N11924714WA0000000925
B2257374755357N11924706WA0000000926
B2257424755383N11924730WA0000000923
B2257474755374N11924743WA0000000918
B2257524755360N11924739WA0000000911
B2257574755346N11924736WA0000000908
B2258024755336N11924737WA0000000906
B2258074755326N11924756WA0000000905
B2258124755335N11924798WA0000000901
B2258174755360N11924840WA0000000897
B2258224755373N11924884WA0000000895
B2258274755378N11924923WA0000000893
B2258324755366N11924922WA0000000893
B2258374755349N11924917WA0000000892
B2258424755339N11924889WA0000000890
B2258474755339N11924849WA0000000885
B2258524755346N11924805WA0000000878
B2258574755344N11924762WA0000000871
B2259024755330N11924741WA0000000863
B2259074755312N11924742WA0000000858
B2259124755293N11924748WA0000000855
B2259174755280N11924723WA0000000851
B2259224755274N11924692WA0000000849
B2259274755273N11924657WA0000000846
B2259324755280N11924620WA0000000844
B2259374755274N11924604WA0000000844
B2259424755257N11924606WA0000000847
B2259474755233N11924613WA0000000851
B2259524755223N11924606WA0000000854
B2259574755210N11924593WA0000000857
B2300024755222N11924611WA0000000859
B2300074755247N11924583WA0000000860
B2300124755266N11924592WA0000000860
B2300174755303N11924577WA0000000860
B2300224755324N11924553WA0000000858
B2300274755314N11924562WA0000000855
B2300324755294N11924586WA0000000850
B2300374755275N11924611WA0000000844
B2300424755255N11924639WA0000000839
B2300474755240N11924662WA0000000835
B2300524755223N11924679WA0000000832
B2300574755211N11924676WA0000000829
B2301024755228N11924673WA0000000825
B2301074755227N11924671WA0000000000
B2301134755227N11924671WA0000000000
B2301184755248N11924635WA0000000824
B2301234755248N11924635WA0000000000
B2301284755260N11924598WA0000000812
B2301334755244N11924602WA0000000796
B2301384755237N11924636WA0000000778
B2301434755228N11924668WA0000000759
B2301484755235N11924702WA0000000741
B2301534755228N11924679WA0000000727
B2301584755254N11924684WA0000000714
B2302034755263N11924722WA0000000703
B2302084755265N11924755WA0000000693
B2302134755276N11924792WA0000000685
B2302184755291N11924827WA0000000678
B2302234755310N11924857WA0000000670
B2302284755333N11924884WA0000000661
B2302334755338N11924917WA0000000652
B2302384755327N11924936WA0000000644
B2302434755313N11924914WA0000000634
B2302484755299N11924891WA0000000625
B2302534755292N11924882WA0000000620
B2302584755292N11924883WA0000000614
B2303034755294N11924882WA0000000611
B2303084755295N11924883WA0000000609
B2303134755295N11924883WA0000000606
B2303184755296N11924883WA0000000604
B2303234755298N11924883WA0000000603
B2303284755300N11924885WA0000000601
B2303334755299N11924887WA0000000597
B2303384755299N11924887WA0000000593
B2303434755299N11924886WA0000000589
B2303484755300N11924886WA0000000586
B2303534755301N11924886WA0000000583
B2303584755305N11924884WA0000000580
B2304034755308N11924881WA0000000577
B2304084755310N11924878WA0000000575
B2304134755311N11924874WA0000000573
B2304184755310N11924872WA0000000572
B2304234755311N11924868WA0000000571
B2304284755312N11924865WA0000000570
LXGD GpsDump version 4.19
LXGD Downloaded 2008-08-08  23:27:51
