AXGD538 6030, SN06032, SW3.28
HFDTE260708
HOPLTPILOT: Josh Cohn
HOGTYGLIDERTYPE: 8
HOGTYGLIDERID: 89
HODTM100GPSDATUM: WGS-84
HOCCLCOMPETITION CLASS: Open
HOSITSite: Chelan
B1930134748253N12002332WA0000001130
B1930184748254N12002332WA0000001130
B1930234748254N12002332WA0000001130
B1930284748254N12002332WA0000001129
B1930334748254N12002333WA0000001129
B1930384748253N12002333WA0000001129
B1930434748253N12002333WA0000001128
B1930484748253N12002334WA0000001128
B1930534748253N12002334WA0000001128
B1930584748253N12002334WA0000001128
B1931034748253N12002333WA0000001129
B1931084748253N12002333WA0000001129
B1931134748253N12002333WA0000001129
B1931184748253N12002333WA0000001129
B1931234748253N12002333WA0000001129
B1931284748253N12002333WA0000001129
B1931334748253N12002333WA0000001130
B1931384748252N12002333WA0000001130
B1931434748254N12002332WA0000001130
B1931484748254N12002333WA0000001130
B1931534748253N12002338WA0000001130
B1931584748248N12002343WA0000001130
B1932034748244N12002352WA0000001129
B1932084748238N12002366WA0000001129
B1932134748230N12002385WA0000001128
B1932184748222N12002406WA0000001127
B1932234748217N12002423WA0000001125
B1932284748212N12002437WA0000001125
B1932334748207N12002451WA0000001125
B1932384748205N12002463WA0000001126
B1932434748202N12002471WA0000001127
B1932484748195N12002479WA0000001129
B1932534748189N12002491WA0000001132
B1932584748176N12002496WA0000001135
B1933034748159N12002491WA0000001140
B1933094748157N12002502WA0000001146
B1933144748172N12002471WA0000001154
B1933194748161N12002449WA0000001161
B1933244748167N12002459WA0000001168
B1933294748186N12002427WA0000001177
B1933344748177N12002391WA0000001187
B1933394748174N12002398WA0000001192
B1933444748196N12002382WA0000001205
B1933494748191N12002346WA0000001216
B1933544748184N12002354WA0000001222
B1933594748206N12002347WA0000001234
B1934044748199N12002307WA0000001246
B1934094748190N12002315WA0000001253
B1934144748204N12002326WA0000001265
B1934194748216N12002287WA0000001279
B1934244748197N12002273WA0000001291
B1934294748195N12002290WA0000001297
B1934344748197N12002309WA0000001305
B1934394748194N12002327WA0000001313
B1934444748193N12002348WA0000001321
B1934494748193N12002365WA0000001330
B1934544748192N12002374WA0000001339
B1934594748206N12002377WA0000001354
B1935044748218N12002330WA0000001370
B1935094748201N12002314WA0000001383
B1935144748202N12002325WA0000001390
B1935194748216N12002328WA0000001402
B1935244748236N12002325WA0000001418
B1935294748261N12002301WA0000001432
B1935344748275N12002253WA0000001447
B1935394748257N12002236WA0000001459
B1935444748274N12002236WA0000001471
B1935494748272N12002191WA0000001484
B1935544748262N12002193WA0000001493
B1935594748282N12002179WA0000001506
B1936044748274N12002134WA0000001519
B1936094748259N12002135WA0000001527
B1936144748262N12002150WA0000001535
B1936194748283N12002124WA0000001546
B1936244748266N12002092WA0000001555
B1936294748256N12002108WA0000001561
B1936344748256N12002128WA0000001567
B1936394748254N12002141WA0000001574
B1936444748247N12002156WA0000001582
B1936504748246N12002166WA0000001593
B1936554748261N12002132WA0000001609
B1937004748273N12002096WA0000001624
B1937054748267N12002050WA0000001636
B1937104748255N12002051WA0000001644
B1937154748265N12002052WA0000001653
B1937204748279N12002017WA0000001667
B1937254748265N12001983WA0000001680
B1937304748252N12001995WA0000001690
B1937354748265N12002002WA0000001701
B1937404748264N12001958WA0000001711
B1937454748244N12001953WA0000001721
B1937504748244N12001971WA0000001726
B1937554748264N12001964WA0000001735
B1938004748287N12001940WA0000001743
B1938054748307N12001932WA0000001749
B1938104748323N12001937WA0000001754
B1938154748325N12001951WA0000001758
B1938204748308N12001955WA0000001763
B1938254748284N12001935WA0000001768
B1938304748263N12001897WA0000001771
B1938354748262N12001841WA0000001772
B1938404748275N12001795WA0000001773
B1938454748295N12001775WA0000001775
B1938504748310N12001771WA0000001776
B1938554748325N12001778WA0000001777
B1939004748342N12001781WA0000001777
B1939054748358N12001773WA0000001778
B1939104748373N12001773WA0000001781
B1939154748386N12001741WA0000001786
B1939204748366N12001725WA0000001791
B1939254748370N12001733WA0000001795
B1939304748387N12001698WA0000001804
B1939354748373N12001663WA0000001813
B1939404748364N12001681WA0000001820
B1939454748374N12001684WA0000001826
B1939504748395N12001674WA0000001835
B1939554748398N12001685WA0000001841
B1940004748373N12001682WA0000001849
B1940054748381N12001683WA0000001854
B1940104748400N12001646WA0000001862
B1940164748396N12001592WA0000001870
B1940214748374N12001573WA0000001875
B1940264748363N12001583WA0000001878
B1940314748376N12001582WA0000001882
B1940364748394N12001582WA0000001887
B1940414748409N12001591WA0000001891
B1940464748399N12001615WA0000001892
B1940514748385N12001629WA0000001894
B1940564748373N12001641WA0000001896
B1941014748388N12001634WA0000001899
B1941064748399N12001595WA0000001901
B1941114748408N12001552WA0000001903
B1941164748411N12001507WA0000001903
B1941214748388N12001480WA0000001902
B1941264748378N12001491WA0000001901
B1941314748367N12001514WA0000001900
B1941364748358N12001530WA0000001899
B1941414748354N12001541WA0000001900
B1941464748372N12001521WA0000001900
B1941514748367N12001476WA0000001899
B1941564748339N12001460WA0000001897
B1942014748324N12001470WA0000001896
B1942064748317N12001479WA0000001896
B1942114748325N12001481WA0000001897
B1942164748338N12001445WA0000001899
B1942214748339N12001395WA0000001901
B1942264748324N12001352WA0000001901
B1942314748302N12001356WA0000001900
B1942364748302N12001369WA0000001899
B1942414748305N12001381WA0000001898
B1942464748302N12001391WA0000001898
B1942514748316N12001381WA0000001898
B1942564748321N12001343WA0000001899
B1943014748294N12001317WA0000001898
B1943064748279N12001324WA0000001896
B1943114748283N12001331WA0000001895
B1943164748294N12001341WA0000001894
B1943214748312N12001343WA0000001892
B1943264748337N12001330WA0000001889
B1943314748356N12001325WA0000001888
B1943364748377N12001316WA0000001886
B1943414748397N12001293WA0000001884
B1943464748414N12001270WA0000001885
B1943514748431N12001270WA0000001885
B1943574748453N12001263WA0000001887
B1944024748464N12001273WA0000001889
B1944074748446N12001266WA0000001892
B1944124748450N12001222WA0000001896
B1944174748471N12001216WA0000001901
B1944224748479N12001229WA0000001904
B1944274748461N12001227WA0000001909
B1944324748448N12001184WA0000001917
B1944374748467N12001158WA0000001924
B1944424748474N12001171WA0000001930
B1944474748452N12001168WA0000001938
B1944524748443N12001129WA0000001946
B1944574748459N12001091WA0000001953
B1945024748475N12001103WA0000001958
B1945074748462N12001116WA0000001963
B1945124748446N12001081WA0000001967
B1945174748443N12001030WA0000001971
B1945224748453N12000985WA0000001976
B1945274748476N12000976WA0000001980
B1945324748478N12000995WA0000001983
B1945374748458N12000985WA0000001988
B1945424748454N12000935WA0000001993
B1945474748472N12000902WA0000001997
B1945524748489N12000906WA0000002000
B1945574748491N12000929WA0000002001
B1946024748489N12000949WA0000002003
B1946074748485N12000982WA0000002004
B1946124748473N12001016WA0000002003
B1946174748464N12001050WA0000002001
B1946224748452N12001085WA0000001996
B1946274748443N12001122WA0000001989
B1946324748436N12001163WA0000001980
B1946374748428N12001203WA0000001972
B1946424748422N12001228WA0000001966
B1946474748417N12001254WA0000001961
B1946524748412N12001286WA0000001956
B1946574748406N12001323WA0000001951
B1947024748398N12001358WA0000001946
B1947074748390N12001396WA0000001939
B1947134748382N12001443WA0000001932
B1947184748374N12001478WA0000001925
B1947234748365N12001513WA0000001919
B1947284748356N12001551WA0000001911
B1947334748347N12001591WA0000001904
B1947384748338N12001629WA0000001897
B1947434748326N12001665WA0000001891
B1947484748310N12001696WA0000001885
B1947534748290N12001722WA0000001881
B1947584748272N12001737WA0000001880
B1948034748273N12001762WA0000001877
B1948084748276N12001792WA0000001873
B1948134748277N12001824WA0000001869
B1948184748276N12001855WA0000001865
B1948234748278N12001889WA0000001860
B1948284748279N12001926WA0000001855
B1948334748279N12001966WA0000001850
B1948384748274N12002003WA0000001844
B1948434748266N12002043WA0000001838
B1948484748256N12002079WA0000001832
B1948534748244N12002114WA0000001826
B1948584748236N12002151WA0000001820
B1949034748247N12002188WA0000001813
B1949084748261N12002223WA0000001806
B1949134748274N12002257WA0000001798
B1949184748285N12002293WA0000001791
B1949234748297N12002329WA0000001783
B1949284748310N12002365WA0000001776
B1949334748321N12002403WA0000001768
B1949384748331N12002439WA0000001762
B1949434748341N12002473WA0000001756
B1949484748355N12002507WA0000001749
B1949534748369N12002540WA0000001741
B1949584748380N12002577WA0000001735
B1950034748383N12002604WA0000001731
B1950084748382N12002625WA0000001729
B1950134748377N12002658WA0000001725
B1950184748374N12002685WA0000001721
B1950234748367N12002721WA0000001716
B1950284748361N12002752WA0000001711
B1950334748353N12002785WA0000001704
B1950384748348N12002818WA0000001697
B1950434748341N12002849WA0000001690
B1950484748330N12002876WA0000001683
B1950544748306N12002892WA0000001674
B1950594748277N12002869WA0000001667
B1951044748254N12002824WA0000001659
B1951094748244N12002768WA0000001652
B1951144748242N12002706WA0000001645
B1951194748243N12002645WA0000001640
B1951244748245N12002585WA0000001634
B1951294748248N12002526WA0000001629
B1951344748249N12002470WA0000001622
B1951394748246N12002415WA0000001614
B1951444748228N12002373WA0000001605
B1951494748197N12002366WA0000001597
B1951544748173N12002366WA0000001591
B1951594748152N12002374WA0000001586
B1952044748136N12002392WA0000001580
B1952094748130N12002417WA0000001574
B1952144748141N12002438WA0000001568
B1952194748165N12002459WA0000001561
B1952244748188N12002480WA0000001555
B1952294748210N12002501WA0000001549
B1952344748234N12002516WA0000001544
B1952394748253N12002518WA0000001542
B1952444748255N12002534WA0000001539
B1952494748232N12002528WA0000001536
B1952544748210N12002500WA0000001533
B1952594748220N12002459WA0000001529
B1953044748241N12002447WA0000001528
B1953094748260N12002447WA0000001528
B1953144748262N12002464WA0000001527
B1953194748241N12002454WA0000001526
B1953244748221N12002423WA0000001525
B1953294748230N12002376WA0000001525
B1953344748250N12002356WA0000001527
B1953394748271N12002352WA0000001529
B1953444748287N12002363WA0000001530
B1953494748288N12002382WA0000001531
B1953544748270N12002393WA0000001530
B1953594748254N12002404WA0000001529
B1954044748258N12002422WA0000001527
B1954094748278N12002400WA0000001525
B1954154748286N12002349WA0000001521
B1954204748294N12002313WA0000001520
B1954254748311N12002325WA0000001517
B1954304748302N12002346WA0000001515
B1954354748292N12002373WA0000001512
B1954404748281N12002397WA0000001509
B1954454748269N12002429WA0000001504
B1954504748260N12002460WA0000001499
B1954554748252N12002492WA0000001493
B1955004748249N12002514WA0000001490
B1955054748252N12002538WA0000001485
B1955104748254N12002566WA0000001479
B1955154748248N12002586WA0000001474
B1955204748221N12002572WA0000001468
B1955254748203N12002528WA0000001462
B1955304748197N12002475WA0000001456
B1955354748200N12002417WA0000001450
B1955404748214N12002364WA0000001445
B1955454748233N12002322WA0000001441
B1955504748255N12002300WA0000001438
B1955554748273N12002308WA0000001434
B1956004748267N12002325WA0000001431
B1956054748257N12002346WA0000001426
B1956104748250N12002374WA0000001420
B1956154748246N12002402WA0000001414
B1956204748243N12002428WA0000001409
B1956254748239N12002455WA0000001404
B1956304748237N12002481WA0000001398
B1956354748238N12002507WA0000001393
B1956404748245N12002533WA0000001388
B1956454748254N12002557WA0000001383
B1956504748261N12002579WA0000001377
B1956554748269N12002611WA0000001369
B1957004748276N12002645WA0000001362
B1957054748278N12002667WA0000001357
B1957104748273N12002676WA0000001355
B1957154748261N12002647WA0000001351
B1957204748279N12002609WA0000001347
B1957254748300N12002619WA0000001344
B1957304748295N12002635WA0000001343
B1957354748299N12002657WA0000001344
B1957414748313N12002629WA0000001347
B1957464748312N12002646WA0000001350
B1957514748334N12002636WA0000001355
B1957564748336N12002596WA0000001360
B1958014748321N12002597WA0000001367
B1958064748331N12002614WA0000001376
B1958114748351N12002590WA0000001386
B1958164748340N12002562WA0000001397
B1958214748338N12002582WA0000001408
B1958264748358N12002573WA0000001419
B1958314748354N12002535WA0000001430
B1958364748343N12002550WA0000001441
B1958414748360N12002550WA0000001452
B1958464748361N12002514WA0000001463
B1958514748342N12002506WA0000001474
B1958564748347N12002531WA0000001485
B1959014748367N12002521WA0000001496
B1959064748387N12002503WA0000001507
B1959114748410N12002491WA0000001517
B1959164748428N12002456WA0000001524
B1959214748420N12002419WA0000001530
B1959264748397N12002408WA0000001535
B1959314748387N12002429WA0000001541
B1959364748408N12002428WA0000001546
B1959414748411N12002390WA0000001552
B1959464748392N12002391WA0000001558
B1959514748404N12002409WA0000001563
B1959564748428N12002384WA0000001567
B2000014748444N12002353WA0000001573
B2000064748448N12002314WA0000001579
B2000114748424N12002302WA0000001585
B2000164748420N12002320WA0000001591
B2000214748440N12002318WA0000001599
B2000264748452N12002279WA0000001607
B2000314748437N12002251WA0000001614
B2000364748436N12002273WA0000001622
B2000414748458N12002251WA0000001629
B2000464748451N12002208WA0000001636
B2000514748438N12002216WA0000001642
B2000564748455N12002224WA0000001649
B2001014748475N12002186WA0000001656
B2001064748469N12002145WA0000001663
B2001114748455N12002147WA0000001669
B2001164748458N12002164WA0000001673
B2001214748486N12002154WA0000001679
B2001264748501N12002113WA0000001685
B2001314748488N12002073WA0000001688
B2001374748470N12002074WA0000001691
B2001424748473N12002094WA0000001693
B2001474748496N12002094WA0000001696
B2001524748515N12002057WA0000001698
B2001574748503N12002024WA0000001700
B2002024748496N12002035WA0000001702
B2002074748518N12002022WA0000001704
B2002124748514N12001979WA0000001706
B2002174748493N12001974WA0000001709
B2002224748474N12001984WA0000001711
B2002274748454N12001992WA0000001713
B2002324748430N12002002WA0000001714
B2002374748414N12002018WA0000001715
B2002424748395N12002036WA0000001714
B2002474748375N12002048WA0000001712
B2002524748354N12002057WA0000001710
B2002574748330N12002076WA0000001707
B2003024748309N12002096WA0000001703
B2003074748287N12002116WA0000001698
B2003124748266N12002135WA0000001694
B2003174748245N12002150WA0000001688
B2003224748226N12002166WA0000001683
B2003274748206N12002185WA0000001676
B2003324748188N12002204WA0000001669
B2003374748169N12002222WA0000001662
B2003424748150N12002237WA0000001656
B2003474748132N12002253WA0000001650
B2003524748116N12002270WA0000001643
B2003574748099N12002286WA0000001637
B2004024748085N12002307WA0000001630
B2004074748082N12002332WA0000001623
B2004124748089N12002360WA0000001616
B2004174748101N12002383WA0000001609
B2004224748095N12002396WA0000001605
B2004274748075N12002393WA0000001598
B2004324748050N12002367WA0000001592
B2004374748033N12002318WA0000001586
B2004424748039N12002258WA0000001580
B2004474748064N12002217WA0000001575
B2004524748090N12002208WA0000001570
B2004574748103N12002218WA0000001565
B2005024748088N12002221WA0000001560
B2005074748066N12002212WA0000001552
B2005124748054N12002219WA0000001548
B2005174748062N12002232WA0000001543
B2005234748091N12002228WA0000001534
B2005284748118N12002197WA0000001527
B2005334748123N12002141WA0000001520
B2005384748104N12002110WA0000001514
B2005434748084N12002106WA0000001507
B2005484748072N12002115WA0000001504
B2005534748073N12002133WA0000001500
B2005584748091N12002145WA0000001493
B2006034748114N12002150WA0000001486
B2006084748140N12002148WA0000001480
B2006134748170N12002140WA0000001473
B2006184748193N12002153WA0000001466
B2006234748207N12002173WA0000001460
B2006284748219N12002193WA0000001457
B2006334748239N12002203WA0000001455
B2006384748263N12002181WA0000001455
B2006434748270N12002137WA0000001456
B2006484748254N12002127WA0000001457
B2006534748248N12002145WA0000001458
B2006584748263N12002156WA0000001462
B2007034748281N12002123WA0000001468
B2007084748268N12002088WA0000001475
B2007134748256N12002092WA0000001480
B2007184748270N12002108WA0000001487
B2007234748292N12002110WA0000001495
B2007284748301N12002073WA0000001502
B2007334748287N12002070WA0000001509
B2007384748303N12002076WA0000001517
B2007434748304N12002034WA0000001524
B2007484748288N12002033WA0000001532
B2007534748307N12002033WA0000001540
B2007584748307N12001994WA0000001548
B2008034748292N12001994WA0000001556
B2008084748314N12001989WA0000001565
B2008134748309N12001956WA0000001576
B2008184748305N12001969WA0000001583
B2008234748328N12001955WA0000001592
B2008284748327N12001905WA0000001602
B2008334748312N12001901WA0000001612
B2008384748332N12001905WA0000001619
B2008434748348N12001869WA0000001626
B2008484748344N12001832WA0000001632
B2008534748327N12001833WA0000001638
B2008584748347N12001835WA0000001644
B2009034748342N12001801WA0000001650
B2009084748329N12001808WA0000001654
B2009134748349N12001812WA0000001660
B2009194748359N12001756WA0000001664
B2009244748366N12001715WA0000001668
B2009294748351N12001690WA0000001672
B2009344748351N12001708WA0000001675
B2009394748377N12001691WA0000001678
B2009444748385N12001647WA0000001681
B2009494748394N12001602WA0000001683
B2009544748399N12001557WA0000001686
B2009594748383N12001547WA0000001689
B2010044748383N12001569WA0000001691
B2010094748389N12001587WA0000001694
B2010144748392N12001610WA0000001698
B2010194748390N12001643WA0000001700
B2010244748386N12001674WA0000001700
B2010294748382N12001713WA0000001697
B2010344748379N12001751WA0000001693
B2010394748376N12001789WA0000001688
B2010444748371N12001827WA0000001681
B2010494748366N12001866WA0000001674
B2010544748364N12001903WA0000001667
B2010594748365N12001941WA0000001659
B2011044748365N12001979WA0000001650
B2011094748366N12002014WA0000001641
B2011144748362N12002047WA0000001632
B2011194748352N12002077WA0000001623
B2011244748345N12002107WA0000001612
B2011294748342N12002136WA0000001602
B2011344748342N12002168WA0000001592
B2011394748341N12002199WA0000001581
B2011444748338N12002231WA0000001571
B2011494748335N12002262WA0000001560
B2011544748332N12002294WA0000001548
B2011594748328N12002327WA0000001536
B2012044748323N12002360WA0000001524
B2012094748317N12002394WA0000001512
B2012144748307N12002425WA0000001499
B2012194748297N12002458WA0000001487
B2012244748293N12002494WA0000001475
B2012294748291N12002530WA0000001463
B2012354748288N12002576WA0000001450
B2012404748287N12002616WA0000001439
B2012454748289N12002656WA0000001429
B2012504748293N12002697WA0000001420
B2012554748300N12002737WA0000001412
B2013004748308N12002777WA0000001403
B2013054748317N12002814WA0000001395
B2013104748327N12002852WA0000001386
B2013154748335N12002884WA0000001378
B2013204748316N12002889WA0000001370
B2013254748294N12002880WA0000001362
B2013304748269N12002867WA0000001354
B2013354748250N12002864WA0000001347
B2013404748236N12002877WA0000001341
B2013454748227N12002895WA0000001338
B2013504748219N12002914WA0000001334
B2013554748219N12002940WA0000001329
B2014004748241N12002955WA0000001325
B2014054748266N12002947WA0000001323
B2014104748291N12002932WA0000001322
B2014154748315N12002932WA0000001322
B2014204748310N12002949WA0000001320
B2014254748289N12002934WA0000001317
B2014304748273N12002902WA0000001315
B2014354748293N12002884WA0000001314
B2014404748296N12002903WA0000001314
B2014454748277N12002906WA0000001316
B2014504748276N12002869WA0000001318
B2014554748297N12002848WA0000001321
B2015004748319N12002847WA0000001325
B2015054748314N12002864WA0000001329
B2015104748292N12002856WA0000001333
B2015154748283N12002817WA0000001336
B2015204748307N12002795WA0000001339
B2015254748325N12002816WA0000001341
B2015304748317N12002835WA0000001344
B2015354748301N12002839WA0000001346
B2015404748281N12002845WA0000001347
B2015454748267N12002854WA0000001348
B2015504748252N12002861WA0000001349
B2015554748238N12002855WA0000001349
B2016014748232N12002811WA0000001349
B2016064748257N12002782WA0000001347
B2016114748287N12002784WA0000001344
B2016164748316N12002787WA0000001341
B2016214748338N12002797WA0000001338
B2016264748343N12002824WA0000001336
B2016314748330N12002824WA0000001335
B2016364748324N12002791WA0000001333
B2016414748330N12002746WA0000001331
B2016464748328N12002704WA0000001328
B2016514748326N12002660WA0000001324
B2016564748313N12002629WA0000001320
B2017014748305N12002639WA0000001317
B2017064748304N12002660WA0000001316
B2017114748303N12002685WA0000001315
B2017164748319N12002710WA0000001315
B2017214748344N12002684WA0000001315
B2017264748361N12002650WA0000001316
B2017314748383N12002614WA0000001314
B2017364748368N12002590WA0000001311
B2017414748371N12002554WA0000001310
B2017464748400N12002538WA0000001310
B2017514748399N12002552WA0000001309
B2017564748389N12002553WA0000001310
B2018014748382N12002551WA0000001311
B2018064748372N12002549WA0000001313
B2018114748359N12002543WA0000001315
B2018164748345N12002543WA0000001317
B2018214748327N12002533WA0000001320
B2018264748313N12002522WA0000001322
B2018314748302N12002499WA0000001323
B2018364748300N12002456WA0000001324
B2018414748308N12002410WA0000001325
B2018464748312N12002371WA0000001326
B2018514748302N12002354WA0000001328
B2018564748313N12002377WA0000001331
B2019014748338N12002383WA0000001334
B2019064748360N12002396WA0000001337
B2019114748385N12002402WA0000001341
B2019164748416N12002389WA0000001344
B2019214748428N12002343WA0000001349
B2019274748416N12002338WA0000001354
B2019324748427N12002354WA0000001359
B2019374748420N12002361WA0000001362
B2019424748404N12002360WA0000001368
B2019474748382N12002367WA0000001373
B2019524748360N12002374WA0000001376
B2019574748336N12002381WA0000001375
B2020024748312N12002388WA0000001372
B2020074748288N12002387WA0000001367
B2020124748263N12002382WA0000001362
B2020174748248N12002376WA0000001358
B2020224748230N12002375WA0000001353
B2020274748216N12002372WA0000001350
B2020324748194N12002380WA0000001346
B2020374748187N12002397WA0000001343
B2020424748209N12002411WA0000001339
B2020474748233N12002379WA0000001335
B2020524748237N12002331WA0000001331
B2020574748240N12002282WA0000001328
B2021024748265N12002248WA0000001325
B2021074748294N12002236WA0000001323
B2021124748323N12002221WA0000001324
B2021174748343N12002231WA0000001327
B2021224748335N12002234WA0000001331
B2021274748320N12002205WA0000001335
B2021324748308N12002177WA0000001339
B2021374748301N12002191WA0000001341
B2021424748298N12002202WA0000001342
B2021474748279N12002216WA0000001339
B2021524748257N12002233WA0000001335
B2021574748238N12002255WA0000001330
B2022024748222N12002277WA0000001323
B2022074748207N12002301WA0000001316
B2022124748194N12002326WA0000001307
B2022174748179N12002350WA0000001298
B2022224748161N12002375WA0000001288
B2022274748143N12002405WA0000001277
B2022324748132N12002419WA0000001270
B2022374748116N12002427WA0000001264
B2022424748102N12002428WA0000001262
B2022474748093N12002430WA0000001261
B2022524748096N12002445WA0000001261
B2022574748101N12002460WA0000001262
B2023024748109N12002478WA0000001264
B2023084748122N12002494WA0000001270
B2023134748136N12002511WA0000001277
B2023184748151N12002524WA0000001285
B2023234748158N12002542WA0000001289
B2023284748153N12002556WA0000001295
B2023334748139N12002559WA0000001303
B2023384748133N12002575WA0000001309
B2023434748160N12002572WA0000001313
B2023484748183N12002567WA0000001317
B2023534748207N12002564WA0000001321
B2023584748226N12002577WA0000001324
B2024034748240N12002593WA0000001327
B2024084748244N12002602WA0000001330
B2024134748235N12002602WA0000001335
B2024184748228N12002607WA0000001340
B2024234748215N12002582WA0000001348
B2024284748232N12002533WA0000001356
B2024334748259N12002519WA0000001362
B2024384748264N12002532WA0000001366
B2024434748262N12002537WA0000001370
B2024484748260N12002556WA0000001374
B2024534748275N12002569WA0000001380
B2024584748274N12002584WA0000001383
B2025034748260N12002563WA0000001387
B2025084748261N12002514WA0000001389
B2025134748277N12002471WA0000001392
B2025184748295N12002432WA0000001394
B2025234748322N12002431WA0000001397
B2025284748317N12002434WA0000001399
B2025334748309N12002398WA0000001402
B2025384748315N12002355WA0000001406
B2025434748337N12002321WA0000001410
B2025484748362N12002281WA0000001413
B2025534748381N12002230WA0000001415
B2025584748397N12002178WA0000001418
B2026034748418N12002133WA0000001422
B2026084748423N12002085WA0000001427
B2026134748413N12002082WA0000001431
B2026184748418N12002097WA0000001435
B2026234748446N12002087WA0000001442
B2026284748462N12002040WA0000001448
B2026334748450N12002022WA0000001455
B2026384748465N12002028WA0000001462
B2026434748483N12001986WA0000001470
B2026484748472N12001963WA0000001478
B2026534748472N12001974WA0000001483
B2026584748494N12001973WA0000001491
B2027044748520N12001921WA0000001502
B2027094748524N12001873WA0000001510
B2027144748521N12001834WA0000001517
B2027194748510N12001817WA0000001522
B2027244748506N12001826WA0000001526
B2027294748504N12001835WA0000001530
B2027344748502N12001844WA0000001535
B2027394748502N12001850WA0000001539
B2027444748519N12001854WA0000001546
B2027494748549N12001819WA0000001551
B2027544748547N12001774WA0000001556
B2027594748538N12001770WA0000001559
B2028044748541N12001774WA0000001562
B2028094748530N12001789WA0000001564
B2028144748524N12001800WA0000001565
B2028194748516N12001803WA0000001567
B2028244748522N12001811WA0000001568
B2028294748548N12001790WA0000001570
B2028344748544N12001739WA0000001571
B2028394748533N12001738WA0000001572
B2028444748520N12001746WA0000001573
B2028494748504N12001764WA0000001570
B2028544748488N12001784WA0000001566
B2028594748475N12001806WA0000001560
B2029044748464N12001832WA0000001554
B2029094748455N12001859WA0000001547
B2029144748444N12001884WA0000001541
B2029194748434N12001908WA0000001533
B2029244748422N12001932WA0000001525
B2029294748409N12001961WA0000001516
B2029344748397N12001993WA0000001506
B2029394748385N12002026WA0000001496
B2029444748373N12002056WA0000001487
B2029494748368N12002072WA0000001483
B2029544748377N12002096WA0000001476
B2029594748386N12002108WA0000001473
B2030044748379N12002111WA0000001472
B2030094748381N12002070WA0000001473
B2030144748407N12002063WA0000001476
B2030194748409N12002076WA0000001478
B2030244748401N12002047WA0000001485
B2030294748426N12002017WA0000001495
B2030344748438N12002026WA0000001504
B2030404748426N12002008WA0000001516
B2030454748451N12001987WA0000001528
B2030504748450N12002001WA0000001534
B2030554748437N12001979WA0000001548
B2031004748446N12001939WA0000001564
B2031054748474N12001921WA0000001578
B2031104748473N12001931WA0000001586
B2031154748463N12001902WA0000001602
B2031204748486N12001876WA0000001616
B2031254748491N12001888WA0000001624
B2031304748480N12001888WA0000001632
B2031354748474N12001848WA0000001647
B2031404748494N12001814WA0000001659
B2031454748507N12001823WA0000001670
B2031504748492N12001820WA0000001680
B2031554748482N12001783WA0000001689
B2032004748501N12001742WA0000001697
B2032054748516N12001744WA0000001702
B2032104748501N12001737WA0000001709
B2032154748500N12001689WA0000001716
B2032204748526N12001659WA0000001721
B2032254748547N12001667WA0000001726
B2032304748549N12001681WA0000001730
B2032354748533N12001683WA0000001739
B2032404748536N12001636WA0000001748
B2032454748559N12001619WA0000001757
B2032504748568N12001629WA0000001763
B2032554748549N12001608WA0000001772
B2033004748566N12001572WA0000001781
B2033054748581N12001577WA0000001789
B2033104748565N12001575WA0000001795
B2033154748561N12001533WA0000001803
B2033204748580N12001515WA0000001810
B2033254748578N12001526WA0000001815
B2033304748560N12001499WA0000001823
B2033354748574N12001454WA0000001829
B2033404748595N12001428WA0000001835
B2033454748610N12001429WA0000001840
B2033504748616N12001441WA0000001843
B2033554748617N12001460WA0000001846
B2034004748605N12001477WA0000001848
B2034054748592N12001485WA0000001849
B2034104748576N12001497WA0000001848
B2034164748554N12001521WA0000001846
B2034214748532N12001545WA0000001841
B2034264748510N12001568WA0000001835
B2034314748492N12001592WA0000001829
B2034364748473N12001617WA0000001822
B2034414748454N12001642WA0000001814
B2034464748433N12001666WA0000001806
B2034514748412N12001691WA0000001798
B2034564748392N12001713WA0000001789
B2035014748374N12001737WA0000001781
B2035064748360N12001766WA0000001772
B2035114748350N12001796WA0000001764
B2035164748343N12001815WA0000001758
B2035214748336N12001826WA0000001755
B2035264748328N12001837WA0000001753
B2035314748321N12001842WA0000001752
B2035364748313N12001853WA0000001751
B2035414748306N12001858WA0000001753
B2035464748296N12001858WA0000001755
B2035514748286N12001858WA0000001758
B2035564748274N12001886WA0000001763
B2036014748273N12001905WA0000001768
B2036064748277N12001918WA0000001774
B2036114748281N12001932WA0000001779
B2036164748291N12001945WA0000001788
B2036214748287N12001952WA0000001794
B2036264748270N12001935WA0000001805
B2036314748262N12001883WA0000001814
B2036364748267N12001831WA0000001822
B2036414748279N12001784WA0000001830
B2036464748295N12001740WA0000001838
B2036514748291N12001697WA0000001845
B2036564748281N12001710WA0000001852
B2037014748301N12001714WA0000001860
B2037064748323N12001679WA0000001868
B2037114748350N12001672WA0000001876
B2037164748353N12001691WA0000001881
B2037214748339N12001697WA0000001891
B2037264748330N12001658WA0000001900
B2037314748353N12001626WA0000001908
B2037364748380N12001618WA0000001916
B2037414748385N12001632WA0000001922
B2037464748375N12001596WA0000001932
B2037524748405N12001567WA0000001941
B2037574748422N12001574WA0000001948
B2038024748445N12001579WA0000001956
B2038074748463N12001586WA0000001964
B2038124748466N12001598WA0000001969
B2038174748448N12001575WA0000001979
B2038224748439N12001530WA0000001988
B2038274748463N12001500WA0000001996
B2038324748481N12001504WA0000002003
B2038374748500N12001520WA0000002012
B2038424748517N12001532WA0000002021
B2038474748531N12001540WA0000002028
B2038524748544N12001560WA0000002037
B2038574748538N12001574WA0000002045
B2039024748526N12001545WA0000002058
B2039074748530N12001500WA0000002068
B2039124748555N12001501WA0000002077
B2039174748546N12001515WA0000002083
B2039224748526N12001499WA0000002091
B2039274748518N12001459WA0000002099
B2039324748523N12001412WA0000002107
B2039374748550N12001386WA0000002115
B2039424748574N12001385WA0000002122
B2039474748576N12001403WA0000002126
B2039524748564N12001412WA0000002131
B2039574748547N12001393WA0000002138
B2040024748534N12001369WA0000002143
B2040074748525N12001347WA0000002149
B2040124748524N12001305WA0000002155
B2040174748528N12001256WA0000002161
B2040224748539N12001212WA0000002167
B2040274748562N12001176WA0000002172
B2040324748586N12001176WA0000002178
B2040374748590N12001192WA0000002181
B2040424748579N12001212WA0000002187
B2040474748565N12001215WA0000002192
B2040524748549N12001199WA0000002198
B2040574748553N12001150WA0000002203
B2041024748563N12001099WA0000002207
B2041074748552N12001057WA0000002211
B2041124748538N12001004WA0000002213
B2041174748519N12000951WA0000002213
B2041224748503N12000897WA0000002213
B2041274748491N12000859WA0000002213
B2041324748477N12000797WA0000002211
B2041384748466N12000733WA0000002207
B2041434748459N12000682WA0000002203
B2041484748450N12000629WA0000002199
B2041534748443N12000578WA0000002194
B2041584748435N12000527WA0000002190
B2042034748426N12000477WA0000002186
B2042084748417N12000429WA0000002181
B2042134748409N12000380WA0000002175
B2042184748403N12000330WA0000002170
B2042234748396N12000280WA0000002163
B2042284748389N12000229WA0000002157
B2042334748382N12000178WA0000002151
B2042384748375N12000126WA0000002145
B2042434748368N12000072WA0000002138
B2042484748359N12000020WA0000002131
B2042534748345N11959977WA0000002125
B2042584748329N11959939WA0000002118
B2043034748313N11959902WA0000002112
B2043084748296N11959863WA0000002105
B2043134748281N11959822WA0000002098
B2043184748265N11959779WA0000002092
B2043234748250N11959735WA0000002085
B2043284748236N11959692WA0000002079
B2043334748225N11959648WA0000002073
B2043384748212N11959602WA0000002067
B2043434748199N11959558WA0000002061
B2043484748186N11959511WA0000002055
B2043534748172N11959461WA0000002049
B2043584748158N11959413WA0000002043
B2044034748144N11959368WA0000002037
B2044084748129N11959322WA0000002032
B2044134748116N11959277WA0000002027
B2044184748102N11959231WA0000002022
B2044234748087N11959184WA0000002018
B2044284748078N11959136WA0000002014
B2044334748067N11959095WA0000002010
B2044384748057N11959052WA0000002006
B2044434748045N11959008WA0000002001
B2044484748032N11958966WA0000001996
B2044534748014N11958920WA0000001990
B2044584747997N11958873WA0000001985
B2045034747980N11958828WA0000001980
B2045084747961N11958784WA0000001975
B2045134747943N11958737WA0000001971
B2045184747925N11958692WA0000001966
B2045244747903N11958634WA0000001961
B2045294747885N11958589WA0000001956
B2045344747864N11958546WA0000001951
B2045394747844N11958505WA0000001945
B2045444747824N11958465WA0000001939
B2045494747805N11958425WA0000001933
B2045544747787N11958382WA0000001928
B2045594747772N11958345WA0000001922
B2046044747755N11958307WA0000001915
B2046094747740N11958269WA0000001909
B2046144747725N11958232WA0000001904
B2046194747710N11958197WA0000001898
B2046244747695N11958161WA0000001893
B2046294747679N11958127WA0000001888
B2046344747665N11958091WA0000001883
B2046394747651N11958053WA0000001879
B2046444747636N11958012WA0000001874
B2046494747621N11957970WA0000001869
B2046544747605N11957929WA0000001864
B2046594747589N11957887WA0000001859
B2047044747575N11957845WA0000001855
B2047094747563N11957801WA0000001850
B2047144747549N11957755WA0000001845
B2047194747536N11957709WA0000001840
B2047244747521N11957665WA0000001835
B2047294747507N11957619WA0000001830
B2047344747495N11957572WA0000001825
B2047394747485N11957524WA0000001820
B2047444747471N11957482WA0000001815
B2047494747458N11957441WA0000001810
B2047544747448N11957395WA0000001805
B2047594747434N11957353WA0000001800
B2048044747417N11957319WA0000001794
B2048094747401N11957286WA0000001789
B2048144747383N11957261WA0000001783
B2048194747363N11957240WA0000001778
B2048244747340N11957220WA0000001771
B2048294747318N11957198WA0000001764
B2048344747295N11957175WA0000001756
B2048394747272N11957152WA0000001750
B2048444747249N11957133WA0000001743
B2048494747224N11957113WA0000001735
B2048544747200N11957090WA0000001727
B2049004747172N11957057WA0000001719
B2049054747151N11957029WA0000001712
B2049104747125N11957000WA0000001704
B2049154747101N11956966WA0000001696
B2049204747076N11956933WA0000001687
B2049254747051N11956901WA0000001679
B2049304747026N11956866WA0000001670
B2049354747002N11956830WA0000001662
B2049404746975N11956795WA0000001653
B2049454746948N11956764WA0000001644
B2049504746921N11956734WA0000001636
B2049554746896N11956702WA0000001628
B2050004746871N11956670WA0000001620
B2050054746845N11956642WA0000001613
B2050104746819N11956614WA0000001607
B2050154746793N11956590WA0000001600
B2050204746764N11956569WA0000001593
B2050254746736N11956552WA0000001586
B2050304746704N11956535WA0000001578
B2050354746674N11956517WA0000001570
B2050404746646N11956496WA0000001562
B2050454746618N11956473WA0000001553
B2050504746588N11956454WA0000001544
B2050554746557N11956443WA0000001533
B2051004746525N11956437WA0000001521
B2051054746495N11956433WA0000001511
B2051104746463N11956425WA0000001500
B2051154746432N11956410WA0000001489
B2051204746400N11956390WA0000001478
B2051254746374N11956354WA0000001469
B2051304746353N11956311WA0000001460
B2051354746342N11956267WA0000001453
B2051404746331N11956214WA0000001445
B2051454746322N11956154WA0000001436
B2051504746319N11956087WA0000001425
B2051554746318N11956021WA0000001413
B2052004746316N11955957WA0000001402
B2052054746311N11955894WA0000001391
B2052104746302N11955833WA0000001380
B2052154746284N11955788WA0000001371
B2052204746274N11955735WA0000001363
B2052254746280N11955682WA0000001354
B2052304746287N11955624WA0000001345
B2052364746296N11955557WA0000001335
B2052414746305N11955500WA0000001325
B2052464746319N11955434WA0000001314
B2052514746330N11955380WA0000001305
B2052564746338N11955331WA0000001298
B2053014746345N11955285WA0000001292
B2053064746348N11955236WA0000001288
B2053114746336N11955188WA0000001285
B2053164746312N11955183WA0000001283
B2053214746316N11955191WA0000001282
B2053264746330N11955160WA0000001281
B2053314746321N11955112WA0000001281
B2053364746293N11955098WA0000001281
B2053414746272N11955103WA0000001282
B2053464746255N11955117WA0000001283
B2053514746253N11955134WA0000001284
B2053564746274N11955121WA0000001286
B2054014746270N11955078WA0000001290
B2054064746251N11955074WA0000001292
B2054114746259N11955087WA0000001295
B2054164746271N11955056WA0000001298
B2054214746254N11955018WA0000001303
B2054264746232N11955017WA0000001308
B2054314746231N11955031WA0000001311
B2054364746248N11955013WA0000001316
B2054414746239N11954968WA0000001321
B2054464746216N11954960WA0000001326
B2054514746213N11954977WA0000001329
B2054564746225N11954983WA0000001332
B2055014746229N11954940WA0000001334
B2055064746207N11954913WA0000001336
B2055114746186N11954891WA0000001337
B2055164746163N11954869WA0000001338
B2055214746142N11954841WA0000001339
B2055264746121N11954816WA0000001341
B2055314746104N11954825WA0000001342
B2055364746118N11954827WA0000001344
B2055414746126N11954789WA0000001346
B2055464746108N11954758WA0000001347
B2055514746084N11954742WA0000001348
B2055564746059N11954724WA0000001350
B2056024746037N11954729WA0000001353
B2056074746050N11954730WA0000001356
B2056124746047N11954686WA0000001359
B2056174746024N11954678WA0000001362
B2056224746028N11954694WA0000001364
B2056274746046N11954673WA0000001369
B2056324746038N11954626WA0000001374
B2056374746014N11954611WA0000001379
B2056424745989N11954612WA0000001386
B2056474745982N11954627WA0000001390
B2056524745998N11954609WA0000001396
B2056574745991N11954566WA0000001402
B2057024745973N11954563WA0000001407
B2057074745981N11954577WA0000001409
B2057124746000N11954564WA0000001414
B2057174745990N11954525WA0000001418
B2057224745974N11954529WA0000001420
B2057274745983N11954540WA0000001423
B2057324745996N11954507WA0000001426
B2057374745978N11954476WA0000001430
B2057424745965N11954484WA0000001432
B2057474745972N11954500WA0000001434
B2057524745967N11954522WA0000001437
B2057574745949N11954532WA0000001441
B2058024745932N11954545WA0000001445
B2058074745909N11954565WA0000001447
B2058124745893N11954589WA0000001449
B2058174745879N11954608WA0000001452
B2058224745871N11954619WA0000001454
B2058274745863N11954630WA0000001457
B2058324745872N11954647WA0000001464
B2058374745888N11954616WA0000001473
B2058424745877N11954603WA0000001480
B2058474745873N11954621WA0000001488
B2058524745896N11954629WA0000001502
B2058574745906N11954593WA0000001515
B2059024745892N11954587WA0000001523
B2059074745885N11954602WA0000001531
B2059124745913N11954603WA0000001546
B2059174745918N11954567WA0000001560
B2059224745905N11954566WA0000001569
B2059274745908N11954588WA0000001582
B2059334745936N11954570WA0000001601
B2059384745925N11954554WA0000001613
B2059434745925N11954575WA0000001626
B2059484745951N11954567WA0000001642
B2059534745948N11954539WA0000001659
B2059584745941N11954553WA0000001673
B2100034745968N11954553WA0000001692
B2100084745981N11954524WA0000001710
B2100134745971N11954530WA0000001725
B2100184745993N11954544WA0000001744
B2100234746008N11954513WA0000001762
B2100284745998N11954507WA0000001775
B2100334746002N11954529WA0000001791
B2100384746029N11954527WA0000001809
B2100434746035N11954491WA0000001828
B2100484746024N11954494WA0000001839
B2100534746042N11954514WA0000001860
B2100584746069N11954495WA0000001879
B2101034746071N11954463WA0000001898
B2101084746064N11954471WA0000001911
B2101134746087N11954489WA0000001932
B2101184746109N11954460WA0000001953
B2101234746105N11954429WA0000001974
B2101284746097N11954442WA0000001990
B2101334746121N11954456WA0000002013
B2101384746139N11954421WA0000002034
B2101434746130N11954407WA0000002050
B2101484746137N11954430WA0000002072
B2101534746168N11954430WA0000002094
B2101584746180N11954395WA0000002114
B2102034746169N11954387WA0000002128
B2102084746176N11954414WA0000002148
B2102134746208N11954413WA0000002167
B2102184746222N11954376WA0000002185
B2102234746214N11954360WA0000002198
B2102284746220N11954384WA0000002215
B2102334746252N11954395WA0000002234
B2102384746275N11954362WA0000002253
B2102434746269N11954342WA0000002267
B2102484746270N11954360WA0000002281
B2102534746300N11954377WA0000002299
B2102584746330N11954351WA0000002317
B2103034746332N11954317WA0000002333
B2103084746323N11954314WA0000002341
B2103134746331N11954343WA0000002357
B2103184746366N11954353WA0000002373
B2103234746391N11954323WA0000002388
B2103284746389N11954297WA0000002400
B2103344746389N11954321WA0000002413
B2103394746415N11954344WA0000002428
B2103444746453N11954332WA0000002442
B2103494746485N11954309WA0000002455
B2103544746514N11954279WA0000002467
B2103594746531N11954243WA0000002479
B2104044746526N11954233WA0000002486
B2104094746521N11954242WA0000002494
B2104144746523N11954264WA0000002508
B2104194746542N11954297WA0000002523
B2104244746580N11954310WA0000002536
B2104294746611N11954281WA0000002549
B2104344746616N11954251WA0000002559
B2104394746613N11954232WA0000002566
B2104444746611N11954218WA0000002573
B2104494746608N11954224WA0000002582
B2104544746634N11954250WA0000002599
B2104594746671N11954229WA0000002613
B2105044746680N11954197WA0000002626
B2105094746678N11954201WA0000002633
B2105144746701N11954235WA0000002649
B2105194746741N11954228WA0000002663
B2105244746763N11954193WA0000002676
B2105294746763N11954175WA0000002686
B2105344746768N11954194WA0000002696
B2105394746802N11954227WA0000002710
B2105444746842N11954216WA0000002723
B2105494746853N11954184WA0000002733
B2105544746850N11954180WA0000002739
B2105594746849N11954180WA0000002746
B2106044746843N11954172WA0000002752
B2106094746835N11954166WA0000002758
B2106144746827N11954154WA0000002763
B2106194746819N11954144WA0000002768
B2106244746809N11954137WA0000002771
B2106294746794N11954140WA0000002774
B2106344746788N11954147WA0000002776
B2106394746780N11954128WA0000002778
B2106444746772N11954111WA0000002780
B2106494746764N11954102WA0000002782
B2106544746759N11954102WA0000002784
B2106594746752N11954098WA0000002785
B2107044746753N11954064WA0000002786
B2107094746777N11954030WA0000002788
B2107144746814N11954027WA0000002790
B2107194746827N11954056WA0000002791
B2107254746821N11954069WA0000002792
B2107304746813N11954044WA0000002794
B2107354746804N11954021WA0000002796
B2107404746799N11953998WA0000002798
B2107454746809N11953961WA0000002801
B2107504746843N11953940WA0000002805
B2107554746876N11953958WA0000002810
B2108004746878N11953985WA0000002813
B2108054746870N11953984WA0000002815
B2108104746868N11953963WA0000002818
B2108154746879N11953926WA0000002823
B2108204746897N11953890WA0000002827
B2108254746918N11953856WA0000002832
B2108304746941N11953823WA0000002836
B2108354746968N11953790WA0000002839
B2108404746993N11953744WA0000002840
B2108454747017N11953701WA0000002842
B2108504747034N11953657WA0000002843
B2108554747046N11953602WA0000002843
B2109004747059N11953550WA0000002843
B2109054747071N11953503WA0000002843
B2109104747084N11953465WA0000002844
B2109154747094N11953420WA0000002843
B2109204747102N11953383WA0000002843
B2109254747117N11953347WA0000002844
B2109304747137N11953307WA0000002845
B2109354747176N11953278WA0000002844
B2109404747216N11953257WA0000002844
B2109454747246N11953223WA0000002844
B2109504747261N11953180WA0000002844
B2109554747270N11953131WA0000002843
B2110004747275N11953083WA0000002842
B2110054747284N11953034WA0000002840
B2110104747293N11952987WA0000002838
B2110154747301N11952945WA0000002836
B2110204747321N11952907WA0000002836
B2110254747351N11952876WA0000002836
B2110304747386N11952837WA0000002836
B2110364747416N11952783WA0000002835
B2110414747434N11952731WA0000002835
B2110464747452N11952680WA0000002836
B2110514747472N11952629WA0000002838
B2110564747493N11952582WA0000002840
B2111014747514N11952537WA0000002843
B2111064747531N11952492WA0000002846
B2111114747547N11952447WA0000002847
B2111164747561N11952399WA0000002848
B2111214747577N11952349WA0000002849
B2111264747593N11952281WA0000002848
B2111314747607N11952212WA0000002846
B2111364747619N11952145WA0000002843
B2111414747630N11952080WA0000002838
B2111464747640N11952017WA0000002832
B2111514747646N11951951WA0000002824
B2111564747650N11951891WA0000002816
B2112014747655N11951826WA0000002806
B2112064747662N11951763WA0000002796
B2112114747668N11951699WA0000002786
B2112164747676N11951631WA0000002775
B2112214747681N11951566WA0000002765
B2112264747688N11951518WA0000002758
B2112314747694N11951461WA0000002752
B2112364747701N11951404WA0000002746
B2112414747708N11951348WA0000002742
B2112464747717N11951292WA0000002739
B2112514747719N11951219WA0000002735
B2112564747723N11951152WA0000002731
B2113014747722N11951084WA0000002727
B2113064747724N11951017WA0000002722
B2113114747730N11950950WA0000002718
B2113164747735N11950882WA0000002713
B2113214747740N11950797WA0000002705
B2113264747751N11950720WA0000002696
B2113314747759N11950643WA0000002688
B2113364747766N11950564WA0000002679
B2113414747770N11950484WA0000002668
B2113464747771N11950404WA0000002656
B2113524747771N11950311WA0000002642
B2113574747764N11950242WA0000002630
B2114024747758N11950170WA0000002617
B2114074747754N11950095WA0000002602
B2114124747753N11950017WA0000002588
B2114174747756N11949940WA0000002574
B2114224747761N11949864WA0000002559
B2114274747766N11949787WA0000002544
B2114324747770N11949708WA0000002529
B2114374747775N11949627WA0000002512
B2114424747780N11949545WA0000002494
B2114474747786N11949461WA0000002474
B2114524747793N11949378WA0000002454
B2114574747795N11949298WA0000002433
B2115024747796N11949219WA0000002413
B2115074747798N11949140WA0000002393
B2115124747803N11949062WA0000002373
B2115174747807N11948990WA0000002353
B2115224747806N11948914WA0000002333
B2115274747807N11948837WA0000002313
B2115324747804N11948759WA0000002294
B2115374747804N11948686WA0000002275
B2115424747806N11948613WA0000002257
B2115474747803N11948545WA0000002240
B2115524747797N11948479WA0000002222
B2115574747792N11948417WA0000002205
B2116024747788N11948356WA0000002188
B2116074747784N11948294WA0000002172
B2116124747783N11948230WA0000002155
B2116174747788N11948161WA0000002139
B2116224747803N11948090WA0000002122
B2116274747820N11948021WA0000002106
B2116324747833N11947949WA0000002090
B2116374747847N11947881WA0000002074
B2116424747860N11947814WA0000002058
B2116474747876N11947745WA0000002042
B2116524747889N11947681WA0000002026
B2116574747909N11947611WA0000002010
B2117024747940N11947552WA0000001994
B2117074747979N11947495WA0000001978
B2117124748019N11947444WA0000001961
B2117174748058N11947389WA0000001944
B2117224748093N11947331WA0000001928
B2117274748126N11947276WA0000001912
B2117334748165N11947209WA0000001895
B2117384748198N11947158WA0000001882
B2117434748231N11947109WA0000001870
B2117484748267N11947059WA0000001859
B2117534748301N11947010WA0000001849
B2117584748332N11946966WA0000001840
B2118034748365N11946926WA0000001832
B2118084748397N11946884WA0000001825
B2118134748426N11946844WA0000001818
B2118184748458N11946802WA0000001811
B2118234748487N11946757WA0000001804
B2118284748515N11946716WA0000001796
B2118334748549N11946666WA0000001787
B2118384748581N11946613WA0000001776
B2118434748611N11946559WA0000001765
B2118484748641N11946503WA0000001752
B2118534748667N11946446WA0000001740
B2118584748693N11946391WA0000001727
B2119034748724N11946338WA0000001714
B2119084748752N11946284WA0000001701
B2119134748784N11946228WA0000001688
B2119184748816N11946175WA0000001675
B2119234748848N11946121WA0000001663
B2119284748880N11946067WA0000001652
B2119334748912N11946013WA0000001641
B2119384748943N11945957WA0000001631
B2119434748975N11945903WA0000001621
B2119484749006N11945855WA0000001612
B2119534749035N11945809WA0000001604
B2119584749065N11945759WA0000001596
B2120034749090N11945708WA0000001589
B2120084749112N11945657WA0000001583
B2120134749132N11945606WA0000001576
B2120184749152N11945549WA0000001567
B2120234749176N11945494WA0000001558
B2120284749201N11945440WA0000001548
B2120334749227N11945386WA0000001539
B2120384749254N11945335WA0000001531
B2120434749281N11945283WA0000001522
B2120484749308N11945230WA0000001513
B2120534749334N11945176WA0000001504
B2120584749356N11945124WA0000001495
B2121034749380N11945075WA0000001486
B2121084749406N11945028WA0000001478
B2121134749427N11944995WA0000001473
B2121184749447N11944960WA0000001470
B2121244749452N11944914WA0000001467
B2121294749445N11944909WA0000001467
B2121344749463N11944926WA0000001469
B2121394749480N11944891WA0000001472
B2121444749474N11944891WA0000001475
B2121494749496N11944910WA0000001481
B2121544749525N11944881WA0000001486
B2121594749523N11944853WA0000001490
B2122044749524N11944872WA0000001494
B2122094749557N11944876WA0000001500
B2122144749578N11944836WA0000001506
B2122194749571N11944809WA0000001512
B2122244749574N11944823WA0000001516
B2122294749610N11944809WA0000001522
B2122344749632N11944773WA0000001529
B2122394749653N11944736WA0000001536
B2122444749679N11944696WA0000001543
B2122494749695N11944654WA0000001548
B2122544749685N11944645WA0000001549
B2122594749680N11944659WA0000001551
B2123044749677N11944674WA0000001552
B2123094749697N11944693WA0000001556
B2123144749730N11944672WA0000001561
B2123194749743N11944630WA0000001565
B2123244749736N11944619WA0000001568
B2123294749750N11944640WA0000001573
B2123344749786N11944624WA0000001578
B2123394749803N11944584WA0000001583
B2123444749798N11944564WA0000001587
B2123494749803N11944584WA0000001592
B2123544749837N11944579WA0000001598
B2123594749867N11944543WA0000001603
B2124044749872N11944510WA0000001608
B2124094749874N11944529WA0000001613
B2124144749910N11944527WA0000001619
B2124194749935N11944491WA0000001624
B2124244749949N11944445WA0000001628
B2124294749960N11944394WA0000001630
B2124344749971N11944343WA0000001630
B2124394749982N11944281WA0000001628
B2124444749994N11944225WA0000001624
B2124494750005N11944164WA0000001620
B2124544750017N11944104WA0000001613
B2124594750031N11944043WA0000001607
B2125044750045N11943987WA0000001601
B2125094750056N11943927WA0000001595
B2125144750070N11943874WA0000001590
B2125204750077N11943808WA0000001584
B2125254750083N11943745WA0000001578
B2125304750091N11943683WA0000001570
B2125354750098N11943610WA0000001562
B2125404750111N11943550WA0000001557
B2125454750125N11943502WA0000001555
B2125504750144N11943456WA0000001556
B2125554750179N11943448WA0000001559
B2126004750186N11943461WA0000001561
B2126054750176N11943443WA0000001566
B2126104750180N11943399WA0000001573
B2126154750213N11943370WA0000001580
B2126204750230N11943384WA0000001587
B2126254750222N11943363WA0000001595
B2126304750232N11943319WA0000001606
B2126354750264N11943310WA0000001616
B2126404750270N11943322WA0000001624
B2126454750257N11943311WA0000001633
B2126504750267N11943265WA0000001643
B2126554750295N11943261WA0000001652
B2127004750294N11943273WA0000001657
B2127054750280N11943255WA0000001664
B2127104750289N11943205WA0000001668
B2127154750307N11943163WA0000001670
B2127204750319N11943125WA0000001670
B2127254750343N11943082WA0000001669
B2127304750355N11943039WA0000001670
B2127354750346N11943036WA0000001671
B2127404750359N11943057WA0000001672
B2127454750389N11943081WA0000001673
B2127504750419N11943105WA0000001675
B2127554750451N11943119WA0000001678
B2128004750485N11943083WA0000001680
B2128054750489N11943046WA0000001682
B2128104750486N11943034WA0000001684
B2128154750500N11943053WA0000001687
B2128204750533N11943068WA0000001690
B2128254750563N11943087WA0000001692
B2128304750593N11943103WA0000001692
B2128354750629N11943132WA0000001688
B2128404750664N11943158WA0000001681
B2128454750703N11943180WA0000001671
B2128504750744N11943191WA0000001660
B2128554750788N11943192WA0000001649
B2129014750832N11943189WA0000001639
B2129064750873N11943192WA0000001633
B2129114750917N11943178WA0000001628
B2129164750950N11943133WA0000001624
B2129214750956N11943086WA0000001621
B2129264750956N11943044WA0000001619
B2129314750959N11942995WA0000001618
B2129364750964N11942949WA0000001618
B2129414750971N11942895WA0000001619
B2129464750975N11942843WA0000001620
B2129514750971N11942787WA0000001619
B2129564750967N11942733WA0000001617
B2130014750959N11942679WA0000001612
B2130064750942N11942620WA0000001607
B2130114750927N11942561WA0000001600
B2130164750916N11942503WA0000001593
B2130214750907N11942445WA0000001588
B2130264750900N11942390WA0000001583
B2130314750894N11942333WA0000001578
B2130364750891N11942278WA0000001574
B2130414750896N11942230WA0000001571
B2130464750899N11942182WA0000001571
B2130514750901N11942137WA0000001570
B2130564750896N11942092WA0000001569
B2131014750889N11942051WA0000001568
B2131064750883N11942005WA0000001568
B2131114750878N11941961WA0000001569
B2131164750866N11941925WA0000001569
B2131214750850N11941897WA0000001569
B2131264750838N11941864WA0000001569
B2131314750826N11941817WA0000001567
B2131364750817N11941766WA0000001565
B2131414750811N11941708WA0000001562
B2131464750809N11941669WA0000001561
B2131514750802N11941631WA0000001560
B2131564750793N11941588WA0000001560
B2132014750788N11941544WA0000001560
B2132064750784N11941512WA0000001562
B2132114750780N11941474WA0000001564
B2132164750779N11941431WA0000001568
B2132214750780N11941379WA0000001571
B2132264750772N11941357WA0000001575
B2132314750785N11941363WA0000001580
B2132374750816N11941319WA0000001588
B2132424750824N11941278WA0000001595
B2132474750816N11941238WA0000001600
B2132524750808N11941193WA0000001605
B2132574750803N11941147WA0000001612
B2133024750796N11941104WA0000001618
B2133074750785N11941060WA0000001623
B2133124750772N11941018WA0000001626
B2133174750760N11940978WA0000001627
B2133224750749N11940943WA0000001627
B2133274750740N11940906WA0000001628
B2133324750732N11940868WA0000001630
B2133374750723N11940830WA0000001633
B2133424750711N11940791WA0000001635
B2133474750701N11940751WA0000001639
B2133524750697N11940711WA0000001645
B2133574750694N11940665WA0000001652
B2134024750690N11940623WA0000001659
B2134074750678N11940586WA0000001665
B2134124750667N11940541WA0000001669
B2134174750649N11940503WA0000001671
B2134224750640N11940470WA0000001673
B2134274750625N11940436WA0000001675
B2134324750616N11940402WA0000001677
B2134374750614N11940362WA0000001680
B2134424750611N11940326WA0000001683
B2134474750609N11940291WA0000001686
B2134524750605N11940259WA0000001691
B2134574750600N11940224WA0000001697
B2135024750594N11940186WA0000001703
B2135074750584N11940151WA0000001710
B2135124750571N11940112WA0000001718
B2135174750557N11940077WA0000001726
B2135224750541N11940046WA0000001733
B2135274750522N11940016WA0000001741
B2135324750512N11940001WA0000001747
B2135374750507N11940003WA0000001753
B2135424750495N11939973WA0000001763
B2135474750490N11939938WA0000001773
B2135524750505N11939904WA0000001782
B2135574750524N11939902WA0000001794
B2136024750520N11939935WA0000001804
B2136074750512N11939930WA0000001812
B2136134750538N11939921WA0000001825
B2136184750535N11939937WA0000001832
B2136234750540N11939906WA0000001840
B2136284750570N11939878WA0000001848
B2136334750603N11939865WA0000001854
B2136384750625N11939830WA0000001859
B2136434750653N11939819WA0000001864
B2136484750671N11939821WA0000001869
B2136534750669N11939828WA0000001871
B2136584750653N11939807WA0000001875
B2137034750645N11939765WA0000001879
B2137084750660N11939733WA0000001885
B2137134750686N11939721WA0000001891
B2137184750696N11939736WA0000001896
B2137234750691N11939754WA0000001900
B2137284750676N11939764WA0000001905
B2137334750664N11939774WA0000001907
B2137384750664N11939800WA0000001912
B2137434750698N11939801WA0000001917
B2137484750700N11939784WA0000001920
B2137534750706N11939806WA0000001928
B2137584750746N11939821WA0000001937
B2138034750771N11939793WA0000001947
B2138084750770N11939775WA0000001952
B2138134750771N11939785WA0000001957
B2138184750779N11939798WA0000001963
B2138234750810N11939818WA0000001977
B2138284750827N11939785WA0000001989
B2138334750838N11939794WA0000001999
B2138384750875N11939799WA0000002014
B2138434750885N11939768WA0000002027
B2138484750889N11939783WA0000002039
B2138534750925N11939797WA0000002057
B2138584750939N11939770WA0000002071
B2139034750966N11939794WA0000002090
B2139084750996N11939765WA0000002109
B2139134750999N11939759WA0000002121
B2139184751016N11939790WA0000002140
B2139234751055N11939794WA0000002158
B2139284751085N11939755WA0000002176
B2139334751086N11939752WA0000002187
B2139384751112N11939771WA0000002207
B2139434751145N11939737WA0000002226
B2139484751148N11939715WA0000002242
B2139544751164N11939740WA0000002257
B2139594751204N11939729WA0000002273
B2140044751219N11939680WA0000002289
B2140094751217N11939664WA0000002301
B2140144751232N11939684WA0000002316
B2140194751266N11939689WA0000002331
B2140244751301N11939650WA0000002345
B2140294751311N11939595WA0000002357
B2140344751303N11939569WA0000002368
B2140394751308N11939578WA0000002377
B2140444751338N11939590WA0000002394
B2140494751370N11939550WA0000002409
B2140544751374N11939503WA0000002424
B2140594751367N11939486WA0000002435
B2141044751383N11939509WA0000002447
B2141094751425N11939502WA0000002460
B2141144751455N11939458WA0000002472
B2141194751454N11939423WA0000002481
B2141244751459N11939429WA0000002487
B2141294751499N11939426WA0000002497
B2141344751527N11939381WA0000002507
B2141394751532N11939336WA0000002518
B2141444751526N11939324WA0000002524
B2141494751541N11939340WA0000002533
B2141544751579N11939315WA0000002544
B2141594751599N11939266WA0000002554
B2142044751597N11939226WA0000002564
B2142094751594N11939218WA0000002570
B2142144751616N11939231WA0000002580
B2142194751655N11939210WA0000002590
B2142244751681N11939164WA0000002600
B2142294751683N11939118WA0000002609
B2142344751671N11939103WA0000002616
B2142394751670N11939115WA0000002622
B2142444751699N11939129WA0000002633
B2142494751741N11939111WA0000002643
B2142544751776N11939065WA0000002652
B2142594751790N11939014WA0000002661
B2143044751782N11938980WA0000002670
B2143094751782N11938984WA0000002674
B2143144751804N11938996WA0000002684
B2143194751841N11938978WA0000002694
B2143244751870N11938932WA0000002702
B2143294751884N11938879WA0000002710
B2143344751883N11938832WA0000002718
B2143394751871N11938806WA0000002724
B2143444751866N11938795WA0000002728
B2143504751856N11938770WA0000002738
B2143554751846N11938742WA0000002747
B2144004751835N11938714WA0000002754
B2144054751829N11938694WA0000002759
B2144104751823N11938672WA0000002769
B2144154751816N11938650WA0000002779
B2144204751824N11938605WA0000002790
B2144254751862N11938572WA0000002801
B2144304751898N11938574WA0000002812
B2144354751913N11938590WA0000002821
B2144404751913N11938587WA0000002828
B2144454751913N11938564WA0000002839
B2144504751941N11938516WA0000002854
B2144554751978N11938510WA0000002867
B2145004751989N11938527WA0000002875
B2145054751989N11938517WA0000002883
B2145104751999N11938469WA0000002895
B2145154752036N11938439WA0000002906
B2145204752071N11938445WA0000002914
B2145254752075N11938455WA0000002918
B2145304752069N11938429WA0000002924
B2145354752076N11938384WA0000002931
B2145404752106N11938351WA0000002938
B2145454752137N11938349WA0000002944
B2145504752144N11938364WA0000002947
B2145554752136N11938338WA0000002951
B2146004752145N11938288WA0000002956
B2146054752172N11938245WA0000002960
B2146104752207N11938234WA0000002963
B2146154752226N11938257WA0000002966
B2146204752220N11938273WA0000002969
B2146254752211N11938249WA0000002973
B2146304752215N11938196WA0000002977
B2146354752240N11938149WA0000002982
B2146404752275N11938144WA0000002986
B2146454752291N11938170WA0000002988
B2146504752285N11938189WA0000002989
B2146554752272N11938189WA0000002990
B2147004752258N11938171WA0000002992
B2147054752251N11938129WA0000002994
B2147104752265N11938080WA0000002997
B2147154752296N11938048WA0000003000
B2147204752331N11938049WA0000003004
B2147254752347N11938077WA0000003008
B2147304752343N11938093WA0000003010
B2147364752327N11938101WA0000003013
B2147414752311N11938093WA0000003018
B2147464752300N11938060WA0000003022
B2147514752290N11938021WA0000003026
B2147564752283N11937978WA0000003029
B2148014752276N11937936WA0000003032
B2148064752281N11937889WA0000003035
B2148114752290N11937838WA0000003037
B2148164752304N11937788WA0000003041
B2148214752314N11937735WA0000003046
B2148264752327N11937684WA0000003052
B2148314752334N11937632WA0000003056
B2148364752328N11937579WA0000003058
B2148414752320N11937527WA0000003059
B2148464752314N11937469WA0000003057
B2148514752310N11937409WA0000003054
B2148564752300N11937344WA0000003048
B2149014752295N11937280WA0000003042
B2149064752290N11937214WA0000003035
B2149114752282N11937152WA0000003027
B2149164752271N11937091WA0000003018
B2149214752260N11937027WA0000003008
B2149264752248N11936961WA0000002998
B2149314752238N11936897WA0000002988
B2149364752228N11936833WA0000002978
B2149414752220N11936767WA0000002967
B2149464752213N11936700WA0000002956
B2149514752208N11936635WA0000002942
B2149564752204N11936567WA0000002928
B2150014752200N11936503WA0000002913
B2150064752197N11936439WA0000002898
B2150114752195N11936378WA0000002884
B2150164752194N11936314WA0000002870
B2150214752193N11936250WA0000002856
B2150264752192N11936186WA0000002842
B2150314752192N11936122WA0000002828
B2150364752194N11936056WA0000002813
B2150414752197N11935989WA0000002798
B2150464752199N11935921WA0000002784
B2150514752202N11935853WA0000002768
B2150564752204N11935785WA0000002754
B2151014752207N11935717WA0000002739
B2151064752212N11935648WA0000002723
B2151114752218N11935579WA0000002708
B2151164752221N11935513WA0000002692
B2151214752218N11935447WA0000002677
B2151274752215N11935372WA0000002658
B2151324752211N11935309WA0000002642
B2151374752205N11935249WA0000002627
B2151424752198N11935195WA0000002611
B2151474752185N11935146WA0000002596
B2151524752159N11935117WA0000002581
B2151574752134N11935091WA0000002565
B2152024752109N11935060WA0000002549
B2152074752085N11935027WA0000002532
B2152124752061N11934995WA0000002514
B2152174752038N11934962WA0000002497
B2152224752015N11934927WA0000002481
B2152274751991N11934892WA0000002464
B2152324751966N11934858WA0000002448
B2152374751941N11934823WA0000002433
B2152424751915N11934787WA0000002417
B2152474751889N11934753WA0000002402
B2152524751866N11934721WA0000002388
B2152574751845N11934692WA0000002376
B2153024751822N11934661WA0000002365
B2153074751797N11934632WA0000002355
B2153124751779N11934607WA0000002346
B2153174751757N11934576WA0000002337
B2153224751736N11934550WA0000002328
B2153274751712N11934524WA0000002320
B2153324751699N11934504WA0000002315
B2153374751690N11934474WA0000002310
B2153424751681N11934435WA0000002307
B2153474751672N11934410WA0000002304
B2153524751653N11934379WA0000002300
B2153574751633N11934343WA0000002297
B2154024751611N11934299WA0000002295
B2154074751590N11934256WA0000002294
B2154124751576N11934225WA0000002296
B2154174751564N11934192WA0000002298
B2154224751552N11934160WA0000002301
B2154274751541N11934129WA0000002305
B2154324751524N11934094WA0000002307
B2154374751507N11934064WA0000002309
B2154424751485N11934029WA0000002307
B2154474751466N11933997WA0000002303
B2154524751446N11933961WA0000002297
B2154574751429N11933920WA0000002291
B2155024751416N11933875WA0000002287
B2155074751405N11933831WA0000002284
B2155124751393N11933797WA0000002282
B2155174751373N11933760WA0000002280
B2155234751356N11933722WA0000002281
B2155284751343N11933695WA0000002283
B2155334751329N11933666WA0000002286
B2155384751308N11933632WA0000002289
B2155434751292N11933603WA0000002292
B2155484751275N11933568WA0000002293
B2155534751258N11933536WA0000002294
B2155584751239N11933501WA0000002295
B2156034751220N11933474WA0000002295
B2156084751202N11933445WA0000002295
B2156134751185N11933410WA0000002294
B2156184751172N11933376WA0000002295
B2156234751161N11933341WA0000002296
B2156284751152N11933305WA0000002297
B2156334751140N11933273WA0000002298
B2156384751127N11933237WA0000002298
B2156434751110N11933204WA0000002299
B2156484751104N11933175WA0000002301
B2156534751117N11933195WA0000002305
B2156584751148N11933166WA0000002310
B2157034751146N11933126WA0000002315
B2157084751128N11933110WA0000002320
B2157134751123N11933083WA0000002327
B2157184751120N11933045WA0000002333
B2157234751114N11933010WA0000002340
B2157284751109N11932972WA0000002346
B2157334751102N11932938WA0000002352
B2157384751097N11932903WA0000002357
B2157434751087N11932866WA0000002361
B2157484751075N11932823WA0000002363
B2157534751063N11932777WA0000002364
B2157584751050N11932741WA0000002365
B2158034751034N11932702WA0000002365
B2158084751020N11932670WA0000002365
B2158134751011N11932633WA0000002364
B2158184751003N11932596WA0000002364
B2158234750992N11932569WA0000002364
B2158284750982N11932545WA0000002364
B2158334750976N11932516WA0000002365
B2158384750971N11932490WA0000002368
B2158434750962N11932464WA0000002373
B2158484750952N11932435WA0000002378
B2158534750944N11932415WA0000002385
B2158584750944N11932388WA0000002394
B2159034750940N11932363WA0000002405
B2159084750935N11932338WA0000002416
B2159144750931N11932333WA0000002426
B2159194750948N11932359WA0000002443
B2159244750987N11932354WA0000002461
B2159294751014N11932315WA0000002478
B2159344751015N11932280WA0000002494
B2159394751015N11932293WA0000002506
B2159444751045N11932313WA0000002521
B2159494751074N11932283WA0000002536
B2159544751076N11932246WA0000002551
B2159594751068N11932245WA0000002559
B2200044751082N11932271WA0000002574
B2200094751116N11932274WA0000002590
B2200144751141N11932239WA0000002606
B2200194751141N11932200WA0000002621
B2200244751129N11932184WA0000002634
B2200294751124N11932198WA0000002644
B2200344751145N11932221WA0000002662
B2200394751178N11932206WA0000002677
B2200444751188N11932163WA0000002692
B2200494751176N11932149WA0000002703
B2200544751182N11932171WA0000002715
B2200594751214N11932167WA0000002729
B2201044751233N11932127WA0000002743
B2201094751229N11932085WA0000002755
B2201144751215N11932067WA0000002767
B2201194751215N11932088WA0000002778
B2201244751245N11932095WA0000002792
B2201294751266N11932063WA0000002805
B2201344751257N11932030WA0000002817
B2201394751246N11932033WA0000002825
B2201444751259N11932058WA0000002836
B2201494751288N11932067WA0000002848
B2201544751312N11932041WA0000002860
B2201594751307N11932007WA0000002870
B2202044751290N11932000WA0000002880
B2202094751284N11932019WA0000002889
B2202144751305N11932037WA0000002898
B2202194751334N11932015WA0000002906
B2202244751340N11931971WA0000002915
B2202294751325N11931943WA0000002924
B2202344751307N11931942WA0000002932
B2202394751301N11931962WA0000002939
B2202444751317N11931984WA0000002948
B2202494751351N11931981WA0000002957
B2202544751376N11931944WA0000002965
B2202594751371N11931895WA0000002972
B2203054751349N11931868WA0000002981
B2203104751338N11931882WA0000002986
B2203154751354N11931900WA0000002993
B2203204751385N11931886WA0000002999
B2203254751402N11931842WA0000003005
B2203304751393N11931799WA0000003010
B2203354751375N11931771WA0000003015
B2203404751359N11931774WA0000003019
B2203454751358N11931795WA0000003022
B2203504751377N11931814WA0000003028
B2203554751409N11931793WA0000003033
B2204004751423N11931741WA0000003037
B2204054751410N11931698WA0000003042
B2204104751392N11931689WA0000003046
B2204154751390N11931705WA0000003049
B2204204751419N11931696WA0000003056
B2204254751433N11931647WA0000003063
B2204304751420N11931604WA0000003068
B2204354751403N11931585WA0000003073
B2204404751409N11931604WA0000003077
B2204454751437N11931575WA0000003082
B2204504751445N11931521WA0000003086
B2204554751435N11931478WA0000003089
B2205004751416N11931452WA0000003093
B2205054751402N11931444WA0000003096
B2205104751403N11931458WA0000003099
B2205154751427N11931457WA0000003105
B2205204751446N11931412WA0000003110
B2205254751439N11931364WA0000003116
B2205304751426N11931330WA0000003123
B2205354751412N11931297WA0000003129
B2205404751394N11931268WA0000003134
B2205454751371N11931239WA0000003140
B2205504751350N11931213WA0000003145
B2205554751333N11931179WA0000003149
B2206004751311N11931151WA0000003152
B2206054751288N11931128WA0000003153
B2206104751266N11931103WA0000003152
B2206154751246N11931077WA0000003151
B2206204751221N11931043WA0000003149
B2206254751197N11931011WA0000003147
B2206314751166N11930967WA0000003143
B2206364751142N11930933WA0000003140
B2206414751116N11930909WA0000003135
B2206464751094N11930890WA0000003129
B2206514751072N11930858WA0000003122
B2206564751052N11930810WA0000003115
B2207014751031N11930764WA0000003107
B2207064751010N11930721WA0000003097
B2207114750986N11930676WA0000003088
B2207164750965N11930628WA0000003078
B2207214750948N11930578WA0000003068
B2207264750932N11930523WA0000003056
B2207314750920N11930462WA0000003045
B2207364750915N11930399WA0000003036
B2207414750910N11930331WA0000003027
B2207464750902N11930258WA0000003019
B2207514750893N11930186WA0000003012
B2207564750884N11930114WA0000003005
B2208014750876N11930043WA0000002997
B2208064750872N11929969WA0000002989
B2208114750883N11929896WA0000002980
B2208164750894N11929822WA0000002972
B2208214750905N11929755WA0000002964
B2208264750913N11929687WA0000002956
B2208314750926N11929619WA0000002948
B2208364750945N11929558WA0000002942
B2208414750960N11929503WA0000002940
B2208464750978N11929447WA0000002938
B2208514750997N11929381WA0000002938
B2208564751014N11929318WA0000002939
B2209014751032N11929249WA0000002940
B2209064751044N11929175WA0000002940
B2209114751054N11929100WA0000002940
B2209164751067N11929025WA0000002939
B2209214751078N11928946WA0000002937
B2209264751090N11928865WA0000002934
B2209314751103N11928788WA0000002930
B2209364751117N11928711WA0000002925
B2209414751130N11928638WA0000002919
B2209464751146N11928564WA0000002912
B2209514751162N11928491WA0000002904
B2209574751180N11928408WA0000002895
B2210024751192N11928337WA0000002886
B2210074751199N11928266WA0000002878
B2210124751208N11928193WA0000002868
B2210174751218N11928120WA0000002859
B2210224751224N11928046WA0000002849
B2210274751222N11927974WA0000002839
B2210324751222N11927904WA0000002829
B2210374751230N11927833WA0000002818
B2210424751239N11927766WA0000002807
B2210474751248N11927694WA0000002795
B2210524751258N11927620WA0000002783
B2210574751269N11927545WA0000002772
B2211024751281N11927474WA0000002761
B2211074751291N11927407WA0000002751
B2211124751296N11927333WA0000002741
B2211174751296N11927257WA0000002730
B2211224751296N11927183WA0000002721
B2211274751298N11927111WA0000002713
B2211324751300N11927040WA0000002706
B2211374751304N11926969WA0000002698
B2211424751308N11926900WA0000002692
B2211474751311N11926843WA0000002687
B2211524751314N11926781WA0000002683
B2211574751317N11926722WA0000002678
B2212024751317N11926665WA0000002674
B2212074751315N11926606WA0000002669
B2212124751313N11926546WA0000002664
B2212174751316N11926489WA0000002660
B2212224751319N11926428WA0000002656
B2212274751322N11926368WA0000002651
B2212324751326N11926310WA0000002645
B2212374751332N11926251WA0000002639
B2212424751338N11926191WA0000002633
B2212474751341N11926131WA0000002627
B2212524751347N11926071WA0000002619
B2212574751353N11926013WA0000002611
B2213024751361N11925958WA0000002601
B2213074751368N11925903WA0000002590
B2213124751372N11925839WA0000002577
B2213174751376N11925771WA0000002565
B2213224751376N11925704WA0000002551
B2213284751375N11925622WA0000002534
B2213334751378N11925568WA0000002520
B2213384751378N11925505WA0000002506
B2213434751382N11925439WA0000002493
B2213484751383N11925383WA0000002483
B2213534751368N11925359WA0000002476
B2213584751362N11925381WA0000002471
B2214034751381N11925383WA0000002466
B2214084751402N11925354WA0000002462
B2214134751422N11925331WA0000002460
B2214184751446N11925315WA0000002459
B2214234751470N11925298WA0000002459
B2214284751489N11925267WA0000002458
B2214334751479N11925241WA0000002456
B2214384751462N11925247WA0000002455
B2214434751450N11925259WA0000002455
B2214484751432N11925273WA0000002453
B2214534751412N11925268WA0000002453
B2214584751394N11925234WA0000002451
B2215034751397N11925178WA0000002447
B2215084751415N11925129WA0000002443
B2215134751444N11925084WA0000002438
B2215184751463N11925034WA0000002432
B2215234751477N11924974WA0000002426
B2215284751489N11924916WA0000002420
B2215334751502N11924865WA0000002416
B2215384751516N11924814WA0000002412
B2215434751530N11924758WA0000002408
B2215484751546N11924707WA0000002405
B2215534751561N11924663WA0000002401
B2215584751574N11924614WA0000002396
B2216034751572N11924559WA0000002389
B2216084751574N11924493WA0000002381
B2216134751584N11924427WA0000002372
B2216184751586N11924385WA0000002365
B2216234751588N11924345WA0000002358
B2216284751600N11924293WA0000002351
B2216334751612N11924247WA0000002345
B2216384751626N11924196WA0000002338
B2216434751654N11924160WA0000002329
B2216484751688N11924141WA0000002318
B2216534751721N11924115WA0000002307
B2216594751764N11924081WA0000002293
B2217044751791N11924055WA0000002283
B2217094751823N11924029WA0000002273
B2217144751858N11924007WA0000002262
B2217194751895N11923985WA0000002251
B2217244751933N11923958WA0000002239
B2217294751974N11923925WA0000002226
B2217344752014N11923889WA0000002214
B2217394752049N11923871WA0000002207
B2217444752069N11923829WA0000002200
B2217494752059N11923822WA0000002197
B2217544752069N11923844WA0000002194
B2217594752099N11923829WA0000002193
B2218044752100N11923792WA0000002195
B2218094752090N11923799WA0000002197
B2218144752107N11923814WA0000002202
B2218194752131N11923779WA0000002207
B2218244752124N11923764WA0000002211
B2218294752142N11923774WA0000002217
B2218344752165N11923741WA0000002223
B2218394752159N11923734WA0000002227
B2218444752186N11923724WA0000002234
B2218494752183N11923700WA0000002240
B2218544752190N11923716WA0000002247
B2218594752213N11923689WA0000002256
B2219044752208N11923657WA0000002265
B2219094752193N11923661WA0000002273
B2219144752213N11923672WA0000002280
B2219194752237N11923644WA0000002289
B2219244752234N11923603WA0000002298
B2219294752218N11923602WA0000002305
B2219344752235N11923613WA0000002313
B2219394752256N11923582WA0000002321
B2219444752254N11923539WA0000002329
B2219494752237N11923539WA0000002335
B2219544752254N11923549WA0000002340
B2219594752276N11923513WA0000002344
B2220044752297N11923477WA0000002347
B2220094752323N11923453WA0000002350
B2220144752340N11923470WA0000002353
B2220194752326N11923477WA0000002356
B2220244752311N11923442WA0000002358
B2220294752320N11923392WA0000002358
B2220344752340N11923353WA0000002359
B2220404752374N11923312WA0000002359
B2220454752403N11923281WA0000002360
B2220504752424N11923241WA0000002361
B2220554752412N11923207WA0000002363
B2221004752416N11923224WA0000002365
B2221054752446N11923212WA0000002368
B2221104752461N11923166WA0000002371
B2221154752454N11923130WA0000002374
B2221204752443N11923136WA0000002375
B2221254752458N11923153WA0000002377
B2221304752487N11923130WA0000002380
B2221354752510N11923083WA0000002382
B2221404752511N11923039WA0000002383
B2221454752499N11923048WA0000002383
B2221504752519N11923061WA0000002381
B2221554752547N11923056WA0000002380
B2222004752578N11923042WA0000002381
B2222054752607N11923022WA0000002382
B2222104752639N11923006WA0000002383
B2222154752674N11922963WA0000002382
B2222204752705N11922935WA0000002384
B2222254752738N11922907WA0000002386
B2222304752768N11922878WA0000002388
B2222354752804N11922841WA0000002387
B2222404752839N11922797WA0000002385
B2222454752874N11922750WA0000002381
B2222504752908N11922707WA0000002377
B2222554752938N11922659WA0000002372
B2223004752963N11922614WA0000002367
B2223054752991N11922567WA0000002359
B2223104753021N11922518WA0000002351
B2223154753049N11922471WA0000002342
B2223204753077N11922424WA0000002333
B2223254753099N11922367WA0000002323
B2223304753110N11922303WA0000002313
B2223354753120N11922238WA0000002303
B2223404753131N11922170WA0000002294
B2223454753145N11922104WA0000002285
B2223504753161N11922047WA0000002277
B2223554753179N11921991WA0000002270
B2224004753198N11921935WA0000002263
B2224054753217N11921877WA0000002255
B2224104753236N11921821WA0000002247
B2224154753253N11921763WA0000002239
B2224204753268N11921704WA0000002230
B2224254753290N11921650WA0000002222
B2224314753323N11921589WA0000002211
B2224364753350N11921535WA0000002203
B2224414753375N11921483WA0000002195
B2224464753403N11921425WA0000002188
B2224514753430N11921373WA0000002180
B2224564753458N11921324WA0000002173
B2225014753489N11921273WA0000002164
B2225064753521N11921220WA0000002154
B2225114753557N11921159WA0000002145
B2225164753583N11921106WA0000002138
B2225214753585N11921055WA0000002132
B2225264753574N11921025WA0000002126
B2225314753565N11920984WA0000002120
B2225364753554N11920937WA0000002115
B2225414753544N11920884WA0000002110
B2225464753560N11920819WA0000002104
B2225514753595N11920763WA0000002098
B2225564753626N11920706WA0000002093
B2226014753659N11920645WA0000002087
B2226064753696N11920582WA0000002079
B2226114753735N11920518WA0000002071
B2226164753770N11920461WA0000002063
B2226214753801N11920409WA0000002055
B2226264753832N11920358WA0000002045
B2226314753874N11920308WA0000002033
B2226364753922N11920270WA0000002020
B2226414753974N11920233WA0000002006
B2226464754022N11920198WA0000001994
B2226514754069N11920167WA0000001981
B2226564754118N11920139WA0000001968
B2227014754166N11920112WA0000001954
B2227064754213N11920089WA0000001939
B2227114754264N11920062WA0000001925
B2227164754311N11920023WA0000001910
B2227214754357N11919988WA0000001897
B2227264754405N11919949WA0000001885
B2227314754449N11919908WA0000001873
B2227364754492N11919868WA0000001861
B2227414754533N11919826WA0000001850
B2227464754566N11919796WA0000001838
B2227514754616N11919743WA0000001827
B2227574754664N11919684WA0000001814
B2228024754704N11919642WA0000001804
B2228074754736N11919608WA0000001797
B2228124754772N11919567WA0000001789
B2228174754804N11919528WA0000001783
B2228224754829N11919503WA0000001778
B2228274754853N11919510WA0000001773
B2228324754864N11919526WA0000001769
B2228374754861N11919533WA0000001767
B2228424754853N11919504WA0000001762
B2228474754854N11919464WA0000001758
B2228524754863N11919421WA0000001754
B2228574754883N11919379WA0000001748
B2229024754914N11919340WA0000001742
B2229074754945N11919304WA0000001736
B2229124754976N11919269WA0000001732
B2229174755005N11919237WA0000001728
B2229224755034N11919204WA0000001724
B2229274755063N11919172WA0000001722
B2229324755094N11919137WA0000001719
B2229374755127N11919091WA0000001715
B2229424755154N11919050WA0000001713
B2229474755178N11919015WA0000001710
B2229524755199N11918977WA0000001707
B2229574755205N11918933WA0000001704
B2230024755200N11918892WA0000001700
B2230074755193N11918852WA0000001697
B2230124755194N11918804WA0000001692
B2230174755214N11918756WA0000001688
B2230224755238N11918713WA0000001683
B2230274755263N11918662WA0000001677
B2230324755289N11918609WA0000001670
B2230374755315N11918558WA0000001662
B2230424755334N11918504WA0000001653
B2230474755352N11918452WA0000001642
B2230524755372N11918389WA0000001630
B2230574755392N11918328WA0000001618
B2231024755409N11918267WA0000001608
B2231074755422N11918209WA0000001598
B2231124755436N11918157WA0000001589
B2231174755448N11918099WA0000001578
B2231234755457N11918037WA0000001565
B2231284755462N11917989WA0000001556
B2231334755473N11917950WA0000001549
B2231384755502N11917923WA0000001543
B2231434755534N11917949WA0000001538
B2231484755541N11917979WA0000001536
B2231534755537N11917972WA0000001534
B2231584755555N11917930WA0000001529
B2232034755582N11917900WA0000001525
B2232084755609N11917875WA0000001522
B2232134755635N11917841WA0000001518
B2232184755662N11917809WA0000001514
B2232234755690N11917773WA0000001509
B2232284755716N11917735WA0000001502
B2232334755750N11917691WA0000001494
B2232384755784N11917648WA0000001483
B2232434755820N11917610WA0000001472
B2232484755857N11917569WA0000001460
B2232534755892N11917531WA0000001451
B2232584755909N11917501WA0000001445
B2233034755906N11917510WA0000001441
B2233084755934N11917541WA0000001436
B2233134755968N11917558WA0000001432
B2233184755998N11917529WA0000001428
B2233234756002N11917504WA0000001426
B2233284755997N11917514WA0000001424
B2233334756027N11917539WA0000001421
B2233384756063N11917526WA0000001419
B2233434756088N11917495WA0000001417
B2233484756087N11917478WA0000001415
B2233534756090N11917499WA0000001413
B2233584756123N11917519WA0000001409
B2234034756160N11917509WA0000001405
B2234084756183N11917478WA0000001401
B2234134756185N11917456WA0000001398
B2234184756179N11917470WA0000001396
B2234234756183N11917493WA0000001393
B2234284756224N11917508WA0000001388
B2234334756263N11917485WA0000001384
B2234384756301N11917456WA0000001380
B2234434756339N11917437WA0000001377
B2234484756356N11917401WA0000001374
B2234534756352N11917395WA0000001372
B2234594756361N11917433WA0000001366
B2235044756400N11917446WA0000001362
B2235094756426N11917420WA0000001359
B2235144756427N11917400WA0000001356
B2235194756426N11917414WA0000001354
B2235244756456N11917444WA0000001349
B2235294756499N11917426WA0000001343
B2235344756523N11917394WA0000001338
B2235394756545N11917353WA0000001331
B2235444756565N11917310WA0000001324
B2235494756584N11917267WA0000001317
B2235544756599N11917216WA0000001309
B2235594756615N11917166WA0000001301
B2236044756630N11917115WA0000001292
B2236094756647N11917065WA0000001283
B2236144756666N11917015WA0000001273
B2236194756681N11916964WA0000001262
B2236244756687N11916912WA0000001250
B2236294756698N11916864WA0000001239
B2236344756706N11916815WA0000001228
B2236394756713N11916768WA0000001215
B2236444756720N11916719WA0000001201
B2236494756731N11916667WA0000001187
B2236544756741N11916615WA0000001171
B2236594756753N11916560WA0000001155
B2237044756764N11916503WA0000001139
B2237094756776N11916455WA0000001123
B2237144756790N11916407WA0000001107
B2237194756806N11916368WA0000001094
B2237244756832N11916336WA0000001085
B2237294756861N11916359WA0000001080
B2237344756863N11916359WA0000001079
B2237394756887N11916330WA0000001078
B2237444756918N11916346WA0000001078
B2237494756917N11916360WA0000001079
B2237544756927N11916329WA0000001080
B2237594756964N11916327WA0000001082
B2238044756975N11916353WA0000001084
B2238094756979N11916333WA0000001086
B2238144757012N11916312WA0000001088
B2238194757038N11916334WA0000001091
B2238244757036N11916335WA0000001092
B2238294757061N11916308WA0000001096
B2238354757091N11916335WA0000001101
B2238404757090N11916336WA0000001104
B2238454757117N11916318WA0000001108
B2238504757144N11916347WA0000001112
B2238554757141N11916358WA0000001114
B2239004757154N11916324WA0000001116
B2239054757180N11916307WA0000001120
B2239104757208N11916335WA0000001122
B2239154757205N11916346WA0000001123
B2239204757210N11916310WA0000001123
B2239254757245N11916289WA0000001123
B2239304757284N11916307WA0000001125
B2239354757289N11916328WA0000001126
B2239404757306N11916297WA0000001128
B2239454757337N11916286WA0000001131
B2239504757343N11916287WA0000001133
B2239554757379N11916303WA0000001136
B2240004757393N11916280WA0000001139
B2240054757400N11916306WA0000001141
B2240104757434N11916315WA0000001145
B2240154757455N11916292WA0000001148
B2240204757453N11916283WA0000001149
B2240254757461N11916312WA0000001152
B2240304757495N11916318WA0000001155
B2240354757514N11916297WA0000001158
B2240404757509N11916286WA0000001159
B2240454757503N11916277WA0000001160
B2240504757519N11916295WA0000001160
B2240554757552N11916272WA0000001160
B2241004757567N11916232WA0000001160
B2241054757563N11916215WA0000001160
B2241104757569N11916233WA0000001158
B2241154757604N11916241WA0000001155
B2241204757636N11916213WA0000001152
B2241254757650N11916177WA0000001149
B2241304757654N11916166WA0000001147
B2241354757667N11916186WA0000001143
B2241404757709N11916173WA0000001137
B2241454757743N11916143WA0000001132
B2241504757766N11916100WA0000001126
B2241554757781N11916071WA0000001122
B2242004757795N11916035WA0000001118
B2242054757806N11915996WA0000001114
B2242114757814N11915952WA0000001111
B2242164757824N11915918WA0000001110
B2242214757832N11915879WA0000001110
B2242264757832N11915855WA0000001111
B2242314757853N11915871WA0000001111
B2242364757896N11915855WA0000001111
B2242414757915N11915817WA0000001112
B2242464757919N11915819WA0000001114
B2242514757961N11915816WA0000001117
B2242564757973N11915778WA0000001121
B2243014757981N11915787WA0000001124
B2243064758024N11915781WA0000001127
B2243114758057N11915745WA0000001131
B2243164758058N11915718WA0000001134
B2243214758067N11915735WA0000001137
B2243264758108N11915736WA0000001140
B2243314758140N11915697WA0000001143
B2243364758145N11915669WA0000001146
B2243414758152N11915683WA0000001148
B2243464758191N11915689WA0000001152
B2243514758220N11915650WA0000001156
B2243564758224N11915636WA0000001158
B2244014758238N11915662WA0000001160
B2244064758280N11915671WA0000001162
B2244114758314N11915639WA0000001164
B2244164758322N11915612WA0000001166
B2244214758324N11915621WA0000001166
B2244264758343N11915653WA0000001166
B2244314758386N11915664WA0000001167
B2244364758417N11915632WA0000001169
B2244414758424N11915619WA0000001170
B2244464758440N11915649WA0000001172
B2244514758477N11915668WA0000001174
B2244564758518N11915640WA0000001178
B2245014758531N11915609WA0000001182
B2245064758540N11915628WA0000001184
B2245114758573N11915664WA0000001187
B2245164758613N11915682WA0000001192
B2245214758657N11915658WA0000001198
B2245264758668N11915642WA0000001202
B2245314758690N11915660WA0000001210
B2245364758733N11915655WA0000001219
B2245424758758N11915618WA0000001228
B2245474758775N11915628WA0000001235
B2245524758820N11915631WA0000001244
B2245574758851N11915601WA0000001252
B2246024758855N11915581WA0000001257
B2246074758868N11915594WA0000001263
B2246124758913N11915615WA0000001270
B2246174758953N11915597WA0000001279
B2246224758970N11915560WA0000001286
B2246274758972N11915548WA0000001291
B2246324758988N11915571WA0000001297
B2246374759036N11915571WA0000001304
B2246424759061N11915532WA0000001309
B2246474759066N11915510WA0000001313
B2246524759077N11915535WA0000001317
B2246574759119N11915549WA0000001323
B2247024759155N11915515WA0000001327
B2247074759168N11915478WA0000001331
B2247124759174N11915478WA0000001334
B2247174759205N11915500WA0000001340
B2247224759250N11915487WA0000001345
B2247274759276N11915445WA0000001349
B2247324759277N11915418WA0000001352
B2247374759282N11915427WA0000001355
B2247424759319N11915443WA0000001359
B2247474759355N11915412WA0000001363
B2247524759359N11915377WA0000001365
B2247574759356N11915371WA0000001366
B2248024759350N11915365WA0000001367
B2248074759345N11915339WA0000001366
B2248124759340N11915311WA0000001364
B2248174759333N11915276WA0000001360
B2248224759338N11915246WA0000001356
B2248274759348N11915202WA0000001351
B2248324759357N11915162WA0000001345
B2248374759366N11915119WA0000001339
B2248424759370N11915077WA0000001333
B2248474759372N11915040WA0000001326
B2248524759373N11914997WA0000001319
B2248574759377N11914966WA0000001313
B2249024759387N11914941WA0000001309
B2249074759393N11914900WA0000001305
B2249124759398N11914863WA0000001301
B2249174759400N11914833WA0000001296
B2249234759396N11914783WA0000001287
B2249284759399N11914731WA0000001276
B2249334759411N11914673WA0000001263
B2249384759424N11914613WA0000001249
B2249434759441N11914555WA0000001235
B2249484759462N11914498WA0000001220
B2249534759485N11914442WA0000001205
B2249584759507N11914389WA0000001190
B2250034759532N11914344WA0000001177
B2250084759543N11914317WA0000001168
B2250134759549N11914333WA0000001161
B2250184759578N11914356WA0000001154
B2250234759613N11914342WA0000001147
B2250284759625N11914306WA0000001141
B2250334759634N11914276WA0000001137
B2250384759641N11914247WA0000001133
B2250434759651N11914217WA0000001130
B2250484759675N11914193WA0000001128
B2250534759705N11914162WA0000001125
B2250584759727N11914124WA0000001122
B2251034759751N11914084WA0000001119
B2251084759776N11914040WA0000001114
B2251134759804N11913995WA0000001108
B2251184759829N11913951WA0000001101
B2251234759847N11913910WA0000001093
B2251284759853N11913864WA0000001084
B2251334759865N11913819WA0000001075
B2251384759873N11913800WA0000001071
B2251434759872N11913818WA0000001068
B2251484759907N11913829WA0000001064
B2251534759910N11913813WA0000001063
B2251584759901N11913820WA0000001063
B2252034759920N11913860WA0000001063
B2252084759946N11913853WA0000001065
B2252134759944N11913876WA0000001068
B2252184759977N11913913WA0000001070
B2252234800004N11913905WA0000001072
B2252284759998N11913911WA0000001072
B2252334800020N11913949WA0000001074
B2252384800062N11913941WA0000001074
B2252434800080N11913916WA0000001075
B2252484800077N11913931WA0000001075
B2252534800112N11913947WA0000001076
B2252594800122N11913923WA0000001077
B2253044800123N11913953WA0000001079
B2253094800159N11913971WA0000001082
B2253144800182N11913946WA0000001085
B2253194800176N11913944WA0000001086
B2253244800173N11913967WA0000001088
B2253294800208N11913998WA0000001092
B2253344800233N11913979WA0000001097
B2253394800231N11913971WA0000001100
B2253444800234N11914004WA0000001106
B2253494800271N11914028WA0000001113
B2253544800306N11914013WA0000001119
B2253594800308N11914010WA0000001124
B2254044800332N11914049WA0000001131
B2254094800373N11914047WA0000001138
B2254144800380N11914037WA0000001142
B2254194800391N11914068WA0000001149
B2254244800432N11914093WA0000001156
B2254294800463N11914075WA0000001161
B2254344800467N11914064WA0000001164
B2254394800467N11914058WA0000001166
B2254444800473N11914044WA0000001169
B2254494800480N11914023WA0000001174
B2254544800486N11914039WA0000001177
B2254594800524N11914032WA0000001181
B2255044800532N11914011WA0000001184
B2255094800530N11914024WA0000001187
B2255144800557N11914052WA0000001191
B2255194800591N11914034WA0000001196
B2255244800596N11914014WA0000001199
B2255294800590N11914026WA0000001202
B2255344800611N11914059WA0000001206
B2255394800648N11914043WA0000001210
B2255444800653N11914024WA0000001214
B2255494800656N11914049WA0000001217
B2255544800690N11914073WA0000001221
B2255594800728N11914057WA0000001226
B2256044800734N11914036WA0000001229
B2256094800739N11914063WA0000001233
B2256144800769N11914088WA0000001237
B2256194800806N11914069WA0000001242
B2256254800810N11914054WA0000001246
B2256304800817N11914080WA0000001249
B2256354800854N11914100WA0000001253
B2256404800891N11914080WA0000001256
B2256454800899N11914054WA0000001259
B2256504800900N11914065WA0000001262
B2256554800924N11914097WA0000001266
B2257004800967N11914101WA0000001270
B2257054800993N11914066WA0000001274
B2257104800989N11914051WA0000001276
B2257154800984N11914049WA0000001277
B2257204800989N11914074WA0000001279
B2257254801024N11914090WA0000001281
B2257304801055N11914063WA0000001282
B2257354801056N11914037WA0000001283
B2257404801049N11914043WA0000001283
B2257454801054N11914067WA0000001284
B2257504801087N11914090WA0000001286
B2257554801121N11914067WA0000001288
B2258004801129N11914032WA0000001288
B2258054801122N11914030WA0000001288
B2258104801127N11914055WA0000001288
B2258154801153N11914084WA0000001290
B2258204801191N11914087WA0000001291
B2258254801215N11914055WA0000001293
B2258304801213N11914028WA0000001293
B2258354801205N11914021WA0000001294
B2258404801212N11914050WA0000001295
B2258454801245N11914067WA0000001297
B2258504801281N11914047WA0000001298
B2258554801292N11914016WA0000001301
B2259004801296N11914031WA0000001304
B2259054801333N11914043WA0000001307
B2259104801358N11914012WA0000001312
B2259154801358N11913997WA0000001314
B2259204801362N11914024WA0000001318
B2259254801395N11914045WA0000001321
B2259304801432N11914023WA0000001325
B2259364801443N11913988WA0000001329
B2259414801441N11913992WA0000001332
B2259464801457N11914017WA0000001337
B2259514801495N11914026WA0000001341
B2259564801533N11913997WA0000001345
B2300014801549N11913962WA0000001350
B2300064801550N11913949WA0000001353
B2300114801550N11913959WA0000001356
B2300164801575N11913981WA0000001362
B2300214801618N11913975WA0000001367
B2300264801651N11913943WA0000001372
B2300314801657N11913913WA0000001376
B2300364801654N11913918WA0000001378
B2300414801655N11913931WA0000001380
B2300464801683N11913950WA0000001384
B2300514801717N11913923WA0000001386
B2300564801722N11913897WA0000001388
B2301014801716N11913900WA0000001389
B2301064801725N11913927WA0000001393
B2301114801756N11913939WA0000001395
B2301164801790N11913912WA0000001396
B2301214801799N11913879WA0000001397
B2301264801794N11913870WA0000001398
B2301314801792N11913887WA0000001398
B2301364801818N11913918WA0000001399
B2301414801854N11913901WA0000001400
B2301464801867N11913864WA0000001401
B2301514801862N11913849WA0000001402
B2301564801865N11913872WA0000001403
B2302014801901N11913895WA0000001405
B2302064801939N11913881WA0000001407
B2302114801954N11913849WA0000001409
B2302164801950N11913837WA0000001410
B2302214801949N11913854WA0000001410
B2302264801981N11913879WA0000001411
B2302314802020N11913868WA0000001412
B2302374802036N11913832WA0000001413
B2302424802029N11913825WA0000001412
B2302474802021N11913823WA0000001412
B2302524802017N11913818WA0000001411
B2302574802014N11913814WA0000001411
B2303024802011N11913807WA0000001411
B2303074802007N11913796WA0000001411
B2303124802004N11913802WA0000001410
B2303174802029N11913836WA0000001407
B2303224802069N11913829WA0000001404
B2303274802089N11913795WA0000001400
B2303324802097N11913764WA0000001397
B2303374802105N11913726WA0000001394
B2303424802117N11913689WA0000001390
B2303474802126N11913651WA0000001385
B2303524802134N11913613WA0000001380
B2303574802142N11913575WA0000001374
B2304024802152N11913529WA0000001367
B2304074802166N11913481WA0000001358
B2304124802179N11913430WA0000001348
B2304174802189N11913385WA0000001338
B2304224802197N11913335WA0000001325
B2304274802204N11913288WA0000001312
B2304324802208N11913243WA0000001300
B2304374802207N11913203WA0000001288
B2304424802202N11913169WA0000001277
B2304474802195N11913136WA0000001267
B2304524802186N11913103WA0000001256
B2304574802178N11913071WA0000001246
B2305024802168N11913045WA0000001237
B2305074802158N11913019WA0000001227
B2305124802146N11912994WA0000001218
B2305174802132N11912976WA0000001210
B2305224802122N11912963WA0000001204
B2305274802111N11912953WA0000001200
B2305324802101N11912947WA0000001195
B2305374802096N11912936WA0000001189
B2305424802088N11912930WA0000001182
B2305474802085N11912921WA0000001178
B2305524802078N11912912WA0000001175
B2305584802078N11912902WA0000001171
B2306034802080N11912896WA0000001168
B2306084802080N11912889WA0000001167
B2306134802082N11912878WA0000001166
B2306184802072N11912865WA0000001162
B2306234802064N11912854WA0000001159
B2306284802051N11912847WA0000001153
B2306334802043N11912855WA0000001148
B2306384802038N11912856WA0000001144
B2306434802023N11912850WA0000001136
B2306484802010N11912845WA0000001131
B2306534801994N11912842WA0000001119
B2306584801980N11912842WA0000001110
B2307034801965N11912843WA0000001100
B2307084801954N11912844WA0000001092
B2307134801938N11912847WA0000001079
B2307184801926N11912854WA0000001072
B2307234801917N11912855WA0000001067
B2307284801907N11912853WA0000001060
B2307344801900N11912851WA0000001055
B2307394801892N11912853WA0000001048
B2307444801886N11912856WA0000001042
B2307494801879N11912852WA0000001035
B2307544801872N11912843WA0000001029
B2307594801863N11912840WA0000001023
B2308044801854N11912840WA0000001016
B2308094801845N11912837WA0000001008
B2308144801837N11912842WA0000001000
B2308194801827N11912844WA0000000992
B2308244801817N11912841WA0000000983
B2308294801809N11912840WA0000000974
B2308344801801N11912837WA0000000964
B2308394801795N11912824WA0000000954
B2308444801789N11912808WA0000000944
B2308494801783N11912789WA0000000933
B2308544801776N11912770WA0000000921
B2308594801767N11912757WA0000000908
B2309044801758N11912755WA0000000896
B2309094801754N11912751WA0000000885
B2309144801747N11912751WA0000000874
B2309194801738N11912753WA0000000863
B2309244801733N11912755WA0000000853
B2309294801733N11912755WA0000000844
B2309344801731N11912758WA0000000836
B2309394801730N11912758WA0000000829
B2309454801730N11912758WA0000000822
B2309504801730N11912759WA0000000817
B2309554801732N11912759WA0000000814
B2310004801733N11912760WA0000000810
B2310054801734N11912760WA0000000808
B2310104801734N11912760WA0000000805
B2310154801736N11912760WA0000000802
B2310204801738N11912760WA0000000800
B2310254801738N11912760WA0000000798
B2310304801739N11912760WA0000000796
B2310354801738N11912761WA0000000794
B2310404801739N11912760WA0000000792
LXGD GpsDump version 4.19
LXGD Downloaded 2008-08-08  23:29:01
