AFLY07437
HFDTE070811
HFFXA100
HFPLTPILOT:Josh Cohn         
HFGTYGLIDERTYPE:     not set      
HFGIDGLIDERID:Here to kick ass  
HFDTM100GPSDATUM:WGS84
HFGPSGPS:FASTRAX IT321
HFRFWFIRMWAREVERSION:3.32
HFRHWHARDWAREVERSION:1.00
HFFTYFRTYPE:FLYTEC,6030
I013638TAS
B2157273824082N12206426WA0081600837000
B2157293824082N12206426WA0081600837000
B2157313824082N12206426WA0081600837000
B2157333824082N12206426WA0081600837000
B2157353824082N12206426WA0081700837000
B2157373824082N12206426WA0081600837000
B2157393824082N12206426WA0081600837000
B2157413824082N12206426WA0081600837000
B2157433824082N12206425WA0081600836000
B2157453824082N12206425WA0081600837000
B2157473824081N12206426WA0081600836000
B2157493824081N12206427WA0081500836000
B2157513824080N12206428WA0081400835000
B2157533824079N12206432WA0081300835000
B2157553824078N12206437WA0081200835000
B2157573824078N12206444WA0081100835000
B2157593824078N12206452WA0080900835000
B2158013824078N12206459WA0080800835000
B2158033824077N12206468WA0080900833000
B2158053824074N12206475WA0081000831000
B2158073824070N12206479WA0080900830000
B2158093824065N12206484WA0080900829000
B2158113824059N12206487WA0080900829000
B2158133824053N12206488WA0081200830000
B2158153824046N12206488WA0081400832000
B2158173824040N12206490WA0081500833000
B2158193824035N12206488WA0081400833000
B2158213824028N12206483WA0081100832000
B2158233824018N12206477WA0081500834000
B2158253824010N12206476WA0081900836000
B2158273824007N12206476WA0081600836000
B2158293824000N12206476WA0081000836000
B2158313823989N12206472WA0080600834000
B2158333823981N12206463WA0080600832000
B2158353823975N12206456WA0080400829000
B2158373823968N12206448WA0080000826000
B2158393823960N12206439WA0079700822000
B2158413823952N12206430WA0079500819000
B2158433823943N12206420WA0079300816000
B2158453823934N12206415WA0079100814000
B2158473823925N12206409WA0079000811000
B2158493823916N12206403WA0079200810000
B2158513823909N12206396WA0079200809000
B2158533823903N12206386WA0078900807000
B2158553823895N12206380WA0078500805000
B2158573823885N12206377WA0078100802000
B2158593823874N12206373WA0077700798000
B2159013823863N12206369WA0077500795000
B2159033823852N12206364WA0077200791000
B2159053823841N12206360WA0077200789000
B2159073823830N12206356WA0077700787000
B2159093823823N12206351WA0077900787000
B2159113823815N12206348WA0077900788000
B2159133823807N12206346WA0077900789000
B2159153823799N12206344WA0077600788000
B2159173823792N12206340WA0077000787000
B2159193823783N12206330WA0076700785000
B2159213823774N12206320WA0076600783000
B2159233823765N12206311WA0076500783000
B2159253823757N12206303WA0076200781000
B2159273823747N12206296WA0075700777000
B2159293823736N12206287WA0075400773000
B2159313823724N12206277WA0075600772000
B2159333823716N12206267WA0075900771000
B2159353823710N12206259WA0075800772000
B2159373823704N12206251WA0075700771000
B2159393823696N12206243WA0075600771000
B2159413823687N12206233WA0075600770000
B2159433823679N12206224WA0075500770000
B2159453823670N12206216WA0075300768000
B2159473823660N12206208WA0075300768000
B2159493823652N12206201WA0075100766000
B2159513823642N12206194WA0074900764000
B2159533823633N12206187WA0074800763000
B2159553823623N12206180WA0074700762000
B2159573823614N12206172WA0074800762000
B2159593823606N12206165WA0074900763000
B2200013823598N12206158WA0074600762000
B2200033823590N12206149WA0074100760000
B2200053823581N12206141WA0074000758000
B2200073823572N12206132WA0074100758000
B2200093823566N12206123WA0074000758000
B2200113823559N12206113WA0073900757000
B2200133823552N12206104WA0073800756000
B2200153823545N12206095WA0073900755000
B2200173823539N12206087WA0073700754000
B2200193823532N12206077WA0073400753000
B2200213823522N12206068WA0073400752000
B2200233823513N12206059WA0073400750000
B2200253823506N12206052WA0073500749000
B2200273823499N12206044WA0073500750000
B2200293823492N12206036WA0073700751000
B2200313823486N12206030WA0073900752000
B2200333823480N12206022WA0073800752000
B2200353823473N12206014WA0073900753000
B2200373823466N12206008WA0073900753000
B2200393823460N12206003WA0073800753000
B2200413823452N12205996WA0073700752000
B2200433823445N12205988WA0073900753000
B2200453823440N12205981WA0073900754000
B2200473823435N12205975WA0073600753000
B2200493823428N12205966WA0073500752000
B2200513823420N12205957WA0073500752000
B2200533823414N12205947WA0073400752000
B2200553823408N12205936WA0073100750000
B2200573823401N12205923WA0073100749000
B2200593823397N12205909WA0072900748000
B2201013823393N12205896WA0072900747000
B2201033823389N12205881WA0073300748000
B2201053823386N12205868WA0073900749000
B2201073823385N12205855WA0073900750000
B2201093823380N12205842WA0073800750000
B2201113823371N12205837WA0073800750000
B2201133823366N12205842WA0074100751000
B2201153823367N12205850WA0074400754000
B2201173823372N12205856WA0074900758000
B2201193823376N12205861WA0075300763000
B2201213823378N12205866WA0075500766000
B2201233823378N12205872WA0075700769000
B2201253823381N12205880WA0075900772000
B2201273823385N12205884WA0076000774000
B2201293823388N12205889WA0075800775000
B2201313823392N12205896WA0075900775000
B2201333823398N12205902WA0075900776000
B2201353823403N12205907WA0076000777000
B2201373823407N12205912WA0075900777000
B2201393823409N12205920WA0075700776000
B2201413823409N12205932WA0075800777000
B2201433823410N12205940WA0075600776000
B2201453823414N12205950WA0075100774000
B2201473823419N12205964WA0075100773000
B2201493823425N12205976WA0075200772000
B2201513823428N12205987WA0074800770000
B2201533823432N12205998WA0074500767000
B2201553823440N12206009WA0074600766000
B2201573823449N12206017WA0075000765000
B2201593823458N12206022WA0075300766000
B2202013823464N12206028WA0075200767000
B2202033823471N12206034WA0075400767000
B2202053823478N12206040WA0075500769000
B2202073823484N12206046WA0075400769000
B2202093823490N12206052WA0075400769000
B2202113823496N12206059WA0075400770000
B2202133823499N12206066WA0075300770000
B2202153823496N12206075WA0074800768000
B2202173823486N12206078WA0074700766000
B2202193823476N12206072WA0074900766000
B2202213823469N12206066WA0075100768000
B2202233823463N12206057WA0075300769000
B2202253823458N12206048WA0075500771000
B2202273823455N12206035WA0075900774000
B2202293823453N12206024WA0076200778000
B2202313823450N12206015WA0076200780000
B2202333823445N12206004WA0076200780000
B2202353823439N12205994WA0076600783000
B2202373823435N12205985WA0076900786000
B2202393823432N12205977WA0077000788000
B2202413823429N12205967WA0076800788000
B2202433823425N12205954WA0076500787000
B2202453823419N12205940WA0076500786000
B2202473823415N12205927WA0076600786000
B2202493823411N12205914WA0076600787000
B2202513823408N12205902WA0076700788000
B2202533823405N12205891WA0076900788000
B2202553823400N12205880WA0077400791000
B2202573823395N12205870WA0077900794000
B2202593823390N12205861WA0077800796000
B2203013823379N12205862WA0077800797000
B2203033823374N12205873WA0078100799000
B2203053823382N12205880WA0078600802000
B2203073823394N12205877WA0078800806000
B2203093823403N12205872WA0078900807000
B2203113823412N12205872WA0079000808000
B2203133823420N12205880WA0079100809000
B2203153823418N12205890WA0079000809000
B2203173823409N12205895WA0079000810000
B2203193823398N12205888WA0078200809000
B2203213823395N12205867WA0078100807000
B2203233823396N12205848WA0078600808000
B2203253823396N12205836WA0078900810000
B2203273823392N12205821WA0079400814000
B2203293823387N12205809WA0079600817000
B2203313823379N12205812WA0079400818000
B2203333823381N12205824WA0080000820000
B2203353823391N12205828WA0080500824000
B2203373823398N12205827WA0080400825000
B2203393823404N12205832WA0080300825000
B2203413823409N12205838WA0080500827000
B2203433823409N12205842WA0080200827000
B2203453823403N12205848WA0079600824000
B2203473823393N12205853WA0079200821000
B2203493823380N12205843WA0078800818000
B2203513823376N12205823WA0079000814000
B2203533823375N12205808WA0078900813000
B2203553823373N12205793WA0078600810000
B2203573823371N12205774WA0078900809000
B2203593823368N12205758WA0079100811000
B2204013823365N12205745WA0078900810000
B2204033823360N12205732WA0078600807000
B2204053823355N12205718WA0078500805000
B2204073823349N12205705WA0078300804000
B2204093823343N12205693WA0078100801000
B2204113823338N12205680WA0077800798000
B2204133823332N12205667WA0077300795000
B2204153823326N12205652WA0076900790000
B2204173823319N12205637WA0076500786000
B2204193823311N12205622WA0076200782000
B2204213823302N12205608WA0076000779000
B2204233823294N12205593WA0075900777000
B2204253823286N12205580WA0075900776000
B2204273823278N12205566WA0076300776000
B2204293823273N12205553WA0076800777000
B2204313823271N12205540WA0076700778000
B2204333823266N12205530WA0076600778000
B2204353823257N12205530WA0076300776000
B2204373823256N12205540WA0076500775000
B2204393823266N12205548WA0077100778000
B2204413823270N12205548WA0077200782000
B2204433823270N12205551WA0077100781000
B2204453823266N12205554WA0076800780000
B2204473823255N12205555WA0076300779000
B2204493823244N12205538WA0076600779000
B2204513823240N12205524WA0076400780000
B2204533823235N12205516WA0075800776000
B2204553823227N12205506WA0075400771000
B2204573823217N12205497WA0075300768000
B2204593823209N12205493WA0075200767000
B2205013823200N12205486WA0075100766000
B2205033823192N12205479WA0075000765000
B2205053823183N12205473WA0075100764000
B2205073823174N12205468WA0075000763000
B2205093823166N12205465WA0075100763000
B2205113823157N12205460WA0075600764000
B2205133823150N12205457WA0075900767000
B2205153823144N12205456WA0076100770000
B2205173823139N12205456WA0076300772000
B2205193823136N12205458WA0076400773000
B2205213823133N12205460WA0076500774000
B2205233823128N12205461WA0076500775000
B2205253823121N12205459WA0076500776000
B2205273823113N12205456WA0076300775000
B2205293823105N12205451WA0076000773000
B2205313823096N12205447WA0076100772000
B2205333823088N12205442WA0076300773000
B2205353823082N12205438WA0076300774000
B2205373823074N12205436WA0076400774000
B2205393823066N12205434WA0076300775000
B2205413823060N12205432WA0076100775000
B2205433823051N12205428WA0075800774000
B2205453823040N12205422WA0075500771000
B2205473823030N12205413WA0075500771000
B2205493823022N12205402WA0075600771000
B2205513823014N12205393WA0075400771000
B2205533823006N12205384WA0075200769000
B2205553822998N12205374WA0075200768000
B2205573822991N12205362WA0075200768000
B2205593822984N12205350WA0074700766000
B2206013822975N12205343WA0074400763000
B2206033822964N12205336WA0074000760000
B2206053822955N12205328WA0073700756000
B2206073822946N12205317WA0073300752000
B2206093822938N12205305WA0073000748000
B2206113822930N12205293WA0073100745000
B2206133822922N12205284WA0073300743000
B2206153822916N12205275WA0073300743000
B2206173822909N12205267WA0073300743000
B2206193822903N12205259WA0073200743000
B2206213822896N12205252WA0073000742000
B2206233822889N12205246WA0072700740000
B2206253822882N12205240WA0072300737000
B2206273822874N12205232WA0072100734000
B2206293822865N12205223WA0072200733000
B2206313822859N12205211WA0072400733000
B2206333822853N12205202WA0072600734000
B2206353822846N12205195WA0072800736000
B2206373822840N12205196WA0072700737000
B2206393822841N12205205WA0072800737000
B2206413822850N12205210WA0073100740000
B2206433822861N12205209WA0073200743000
B2206453822870N12205208WA0073100744000
B2206473822879N12205210WA0073000743000
B2206493822886N12205216WA0072900743000
B2206513822886N12205222WA0072500741000
B2206533822878N12205227WA0072200739000
B2206553822868N12205224WA0072100737000
B2206573822860N12205216WA0072200737000
B2206593822853N12205209WA0072300737000
B2207013822847N12205205WA0072500738000
B2207033822841N12205201WA0072900740000
B2207053822837N12205197WA0073100743000
B2207073822834N12205193WA0073100743000
B2207093822829N12205193WA0072900743000
B2207113822830N12205204WA0072700742000
B2207133822840N12205211WA0072800741000
B2207153822853N12205210WA0073100743000
B2207173822862N12205208WA0073100744000
B2207193822871N12205210WA0072800743000
B2207213822880N12205212WA0072600741000
B2207233822889N12205214WA0072200737000
B2207253822896N12205216WA0071800733000
B2207273822904N12205220WA0071700731000
B2207293822911N12205225WA0071600729000
B2207313822917N12205229WA0071300727000
B2207333822921N12205235WA0070800723000
B2207353822922N12205242WA0070700720000
B2207373822925N12205247WA0070400717000
B2207393822933N12205254WA0070300714000
B2207413822943N12205259WA0070700713000
B2207433822951N12205257WA0070700713000
B2207453822959N12205256WA0070400711000
B2207473822967N12205257WA0070300711000
B2207493822975N12205259WA0070300711000
B2207513822978N12205260WA0070000709000
B2207533822981N12205265WA0069900708000
B2207553822989N12205267WA0069900708000
B2207573822998N12205266WA0069700706000
B2207593823005N12205269WA0069500705000
B2208013823004N12205276WA0069500703000
B2208033822999N12205273WA0069700702000
B2208053822994N12205267WA0069700703000
B2208073822991N12205263WA0069700703000
B2208093822986N12205259WA0069700705000
B2208113822983N12205256WA0069600704000
B2208133822980N12205253WA0069500704000
B2208153822976N12205252WA0069500703000
B2208173822972N12205251WA0069500704000
B2208193822967N12205249WA0069700705000
B2208213822962N12205246WA0069900707000
B2208233822959N12205241WA0070000709000
B2208253822954N12205238WA0070100710000
B2208273822951N12205236WA0070300712000
B2208293822947N12205232WA0070400713000
B2208313822943N12205230WA0070500715000
B2208333822940N12205228WA0070400715000
B2208353822936N12205224WA0070100714000
B2208373822931N12205220WA0069600712000
B2208393822926N12205215WA0069100708000
B2208413822920N12205208WA0068700703000
B2208433822915N12205204WA0068100699000
B2208453822910N12205204WA0067800694000
B2208473822906N12205205WA0067500691000
B2208493822904N12205208WA0067300688000
B2208513822901N12205208WA0066900683000
B2208533822897N12205210WA0066600680000
B2208553822893N12205212WA0066600676000
B2208573822891N12205213WA0066700673000
B2208593822890N12205214WA0066700670000
B2209013822891N12205214WA0066700669000
B2209033822891N12205214WA0066700668000
B2209053822891N12205214WA0066700669000
B2209073822890N12205214WA0066700671000
B2209093822891N12205213WA0066700672000
B2209123822891N12205213WA0066700672000
B2209143822891N12205213WA0066700673000
B2209163822891N12205213WA0066700673000
B2209183822891N12205213WA0066700674000
B2209203822891N12205213WA0066700674000
B2209223822891N12205213WA0066700674000
B2209243822891N12205212WA0066700674000
B2209263822891N12205212WA0066700674000
B2209283822891N12205212WA0066700674000
B2209303822891N12205212WA0066700674000
B2209323822891N12205212WA0066700674000
B2209343822891N12205212WA0066700674000
B2209363822891N12205212WA0066700674000
B2209383822891N12205212WA0066700674000
B2209403822891N12205212WA0066700674000
B2209423822891N12205212WA0066700674000
B2209443822891N12205212WA0066700674000
B2209463822891N12205212WA0066700674000
B2209483822891N12205212WA0066600674000
B2209503822891N12205212WA0066700674000
B2209523822891N12205212WA0066700674000
B2209543822891N12205212WA0066700674000
B2209563822891N12205212WA0066700674000
B2209583822891N12205212WA0066700674000
B2210003822891N12205212WA0066700674000
B2210023822891N12205210WA0066700675000
B2210043822890N12205210WA0066700676000
B2210063822890N12205210WA0066700676000
B2210083822890N12205210WA0066700676000
B2210103822890N12205210WA0066700677000
B2210123822890N12205210WA0066700677000
B2210143822890N12205210WA0066700677000
B2210163822890N12205210WA0066700678000
B2210183822890N12205210WV0066700000000
GCCF39CAF58462E9CD0DDE627D74435FB
G6C2C1BDDD001D91C274667D939463310
G7A69A4BFC3492F54FBB6BF18016F5552
G00000000000000000000000000000000
