AXCSAAA
HFDTE191013
HFFXA050
HFPLTPILOT:JOSH COHN
HFGTYGLIDERTYPE:BOOM 9
HFGIDGLIDERID:
HFCIDCOMPETITIONID:1771
HFFTYFRTYPE:XCSOAR,XCSOAR Android 6.7 Sep 30 2013
HFGPS:Internal GPS (Android)
HFDTM100DATUM:WGS-84
I023638FXA3940SIU
C191013222607000000000004
C0000000N00000000ETAKEOFF
C4151461N12230721WBKM
C4157742N12155500WDORRIS
C4157742N12155500WDORRIS
C4157742N12155500WDORRIS
C4119148N12228755WEDDY
C4214189N12150378WFALLS
C0000000N00000000ELANDING
F222607
B2226073731081N12153523WA005500060400000
B2226123731080N12153523WA005500060400000
B2226173731081N12153523WA005500060400000
B2226223731081N12153523WA005490060400000
B2226273731081N12153523WA005490060400000
B2226323731081N12153523WA005490060400000
B2226373731081N12153523WA005490060400000
B2226423731081N12153523WA005490060400000
B2226473731081N12153523WA005490060400000
B2226523731081N12153523WA005490060400000
B2226573731081N12153523WA005490060400000
B2227023731081N12153524WA005490060400000
B2227073731081N12153524WA005500060400000
B2227123731081N12153524WA005500060400000
B2227173731081N12153524WA005490060400000
B2227223731081N12153524WA005500060400000
B2227273731081N12153524WA005490060400000
B2227323731081N12153524WA005500060400000
B2227373731081N12153524WA005490060400000
B2227423731081N12153524WA005500060400000
B2227473731081N12153524WA005500060400000
B2227523731081N12153524WA005500060400000
B2227573731081N12153524WA005500060400000
B2228023731081N12153524WA005490060400000
B2228073731081N12153524WA005490060400000
B2228123731081N12153524WA005500060400000
B2228173731081N12153524WA005500060400000
B2228223731081N12153524WA005500060400000
B2228273731081N12153524WA005500060400000
B2228323731081N12153524WA005500060400000
B2228373731081N12153524WA005500060400000
B2228423731081N12153524WA005500060400000
B2228473731081N12153524WA005500060400000
B2228523731081N12153524WA005490060400000
B2228573731081N12153524WA005500060400000
B2229023731081N12153524WA005500060400000
B2229073731081N12153524WA005490060400000
B2229123731081N12153524WA005500060400000
B2229173731081N12153524WA005500060400000
B2229223731081N12153524WA005500060400000
B2229273731081N12153524WA005490060400000
B2229323731081N12153524WA005490060400000
B2229373731081N12153524WA005500060400000
B2229423731081N12153524WA005490060400000
B2229473731081N12153524WA005490060400000
B2229523731081N12153524WA005500060400000
B2229573731081N12153524WA005500060400000
B2230023731081N12153524WA005500060400000
B2230073731081N12153524WA005490060400000
B2230123731081N12153524WA005500060400000
B2230173731081N12153524WA005500060400000
B2230223731081N12153524WA005500060400000
B2230273731081N12153524WA005500060400000
B2230323731081N12153524WA005500060400000
B2230373731081N12153524WA005500060400000
B2230423731081N12153525WA005500060400000
B2230473731084N12153531WA005470060300000
B2230523731092N12153548WA005440060200000
B2230573731104N12153566WA005460060000000
B2231023731114N12153589WA005420059800000
B2231073731125N12153612WA005390059600000
B2231123731138N12153630WA005400059500000
B2231173731153N12153644WA005420059600000
B2231223731172N12153658WA005450060000000
B2231273731192N12153669WA005490060300000
B2231323731210N12153679WA005470060200000
B2231373731231N12153688WA005430059900000
B2231423731255N12153697WA005380059500000
B2231473731279N12153705WA005450059600000
B2231523731295N12153710WA005470059800000
B2231573731312N12153708WA005530060200000
B2232023731327N12153711WA005580060500000
B2232073731326N12153735WA005510060500000
B2232123731302N12153721WA005580060700000
B2232173731309N12153694WA005590060800000
B2232193731317N12153694WA005620060900000
B2232203731320N12153697WA005620061000000
B2232213731321N12153703WA005620061100000
B2232223731320N12153709WA005620061200000
B2232233731318N12153714WA005610061200000
B2232243731313N12153719WA005610061200000
B2232253731307N12153721WA005610061300000
B2232263731301N12153720WA005610061400000
B2232273731296N12153718WA005630061500000
B2232283731293N12153714WA005640061500000
B2232293731291N12153708WA005640061500000
B2232303731290N12153702WA005630061600000
B2232323731292N12153690WA005640061700000
B2232333731296N12153685WA005640061700000
B2232343731301N12153682WA005630061700000
B2232353731307N12153683WA005640061600000
B2232373731314N12153692WA005670061600000
B2232383731313N12153698WA005680061700000
B2232393731310N12153704WA005690061700000
B2232403731307N12153708WA005700061700000
B2232413731303N12153712WA005710061800000
B2232423731298N12153713WA005710061900000
B2232433731292N12153711WA005710062000000
B2232443731287N12153708WA005710062000000
B2232453731283N12153703WA005710062100000
B2232463731280N12153698WA005710062100000
B2232473731279N12153691WA005710062100000
B2232483731280N12153685WA005700062100000
B2232493731282N12153679WA005700062100000
B2232503731286N12153674WA005690062100000
B2232513731291N12153672WA005680062000000
B2232523731296N12153671WA005680062000000
B2232533731301N12153672WA005700062000000
B2232543731304N12153676WA005720062000000
B2232553731306N12153679WA005750062200000
B2232563731307N12153683WA005770062300000
B2232573731308N12153686WA005780062400000
B2232583731310N12153689WA005780062400000
B2232593731311N12153692WA005790062500000
B2233003731312N12153695WA005790062600000
B2233013731313N12153699WA005790062700000
B2233023731314N12153705WA005800062800000
B2233033731313N12153711WA005810062900000
B2233043731312N12153716WA005820063000000
B2233053731309N12153721WA005840063100000
B2233063731303N12153722WA005840063200000
B2233073731295N12153720WA005850063300000
B2233083731290N12153715WA005850063400000
B2233093731287N12153709WA005860063500000
B2233103731286N12153702WA005860063600000
B2233113731289N12153697WA005860063600000
B2233123731294N12153693WA005850063700000
B2233133731300N12153692WA005850063700000
B2233143731305N12153694WA005870063700000
B2233153731308N12153699WA005890063800000
B2233163731310N12153704WA005910063900000
B2233173731309N12153710WA005930064200000
B2233183731306N12153715WA005950064400000
B2233193731303N12153720WA005960064600000
B2233203731299N12153723WA005970064700000
B2233213731293N12153725WA005970064800000
B2233223731287N12153723WA005970064900000
B2233233731281N12153719WA005980064900000
B2233243731277N12153712WA005980065000000
B2233253731276N12153705WA006000065100000
B2233263731277N12153699WA006000065200000
B2233273731281N12153694WA006010065200000
B2233283731285N12153692WA006010065200000
B2233293731290N12153691WA006010065200000
B2233303731294N12153693WA006020065200000
B2233313731298N12153696WA006040065300000
B2233323731300N12153701WA006060065300000
B2233333731302N12153707WA006070065400000
B2233343731303N12153711WA006110065600000
B2233363731300N12153721WA006140066000000
B2233373731295N12153726WA006140066100000
B2233393731281N12153727WA006140066400000
B2233403731275N12153721WA006140066500000
B2233413731272N12153713WA006150066700000
B2233423731271N12153704WA006180066900000
B2233433731271N12153698WA006200067100000
B2233443731273N12153694WA006210067200000
B2233453731277N12153693WA006210067200000
B2233463731281N12153693WA006210067200000
B2233473731286N12153694WA006230067200000
B2233483731289N12153697WA006230067300000
B2233493731292N12153703WA006250067300000
B2233503731292N12153709WA006260067400000
B2233513731290N12153715WA006270067500000
B2233523731284N12153721WA006300067600000
B2233533731277N12153724WA006320067700000
B2233543731270N12153723WA006340067800000
B2233553731264N12153720WA006340068000000
B2233563731260N12153715WA006350068100000
B2233573731257N12153707WA006350068300000
B2233583731256N12153700WA006360068400000
B2233593731257N12153694WA006360068600000
B2234003731261N12153690WA006370068700000
B2234013731265N12153688WA006370068600000
B2234023731270N12153688WA006380068700000
B2234033731274N12153690WA006380068800000
B2234043731278N12153693WA006390068900000
B2234053731281N12153697WA006400069000000
B2234063731283N12153701WA006410069000000
B2234073731285N12153707WA006410069100000
B2234083731285N12153713WA006400069200000
B2234093731284N12153720WA006400069200000
B2234103731280N12153727WA006390069300000
B2234113731274N12153732WA006400069300000
B2234123731267N12153734WA006400069400000
B2234133731260N12153734WA006420069600000
B2234143731253N12153731WA006440069800000
B2234153731249N12153727WA006460070000000
B2234163731246N12153722WA006470070100000
B2234173731245N12153717WA006470070200000
B2234183731246N12153711WA006470070300000
B2234193731248N12153707WA006470070400000
B2234203731252N12153705WA006480070400000
B2234213731256N12153704WA006490070400000
B2234223731259N12153705WA006500070500000
B2234233731261N12153707WA006520070500000
B2234243731264N12153709WA006520070600000
B2234253731266N12153713WA006520070600000
B2234263731268N12153718WA006510070600000
B2234273731268N12153725WA006510070600000
B2234283731267N12153733WA006490070600000
B2234293731262N12153740WA006490070500000
B2234303731257N12153745WA006500070500000
B2234313731250N12153748WA006520070600000
B2234323731242N12153748WA006530070600000
B2234333731236N12153745WA006550070700000
B2234343731231N12153742WA006560070800000
B2234353731228N12153738WA006560070800000
B2234363731225N12153733WA006560070800000
B2234373731224N12153726WA006540070800000
B2234383731225N12153720WA006540070800000
B2234393731227N12153715WA006540070800000
B2234403731230N12153713WA006550070800000
B2234413731234N12153713WA006560070900000
B2234423731237N12153714WA006570070900000
B2234433731241N12153716WA006590071000000
B2234443731244N12153718WA006600071000000
B2234453731246N12153722WA006600071000000
B2234463731247N12153725WA006600071000000
B2234473731250N12153729WA006590070900000
B2234483731252N12153733WA006590070900000
B2234493731255N12153737WA006590071000000
B2234503731257N12153739WA006600071100000
B2234513731260N12153742WA006620071200000
B2234523731262N12153744WA006630071300000
B2234533731265N12153746WA006630071300000
B2234543731267N12153749WA006630071400000
B2234553731270N12153752WA006620071300000
B2234563731273N12153755WA006620071300000
B2234573731276N12153758WA006620071400000
B2234583731279N12153762WA006610071400000
B2235033731295N12153780WA006590071300000
B2235083731313N12153803WA006650071400000
B2235133731326N12153823WA006710072200000
B2235183731337N12153837WA006680072400000
B2235233731340N12153819WA006660072300000
B2235283731320N12153804WA006650072200000
B2235323731299N12153802WA006660072200000
B2235333731292N12153803WA006650072200000
B2235343731286N12153806WA006650072200000
B2235353731280N12153812WA006670072300000
B2235363731276N12153818WA006690072400000
B2235373731273N12153826WA006710072500000
B2235383731275N12153834WA006710072500000
B2235393731279N12153840WA006700072400000
B2235403731284N12153844WA006700072300000
B2235413731289N12153845WA006700072400000
B2235423731294N12153845WA006710072500000
B2235433731298N12153844WA006720072500000
B2235443731300N12153841WA006720072500000
B2235453731302N12153836WA006710072400000
B2235463731304N12153831WA006710072400000
B2235473731304N12153825WA006720072400000
B2235483731302N12153819WA006720072400000
B2235493731298N12153815WA006700072300000
B2235503731292N12153812WA006690072200000
B2235513731285N12153811WA006680072100000
B2235523731279N12153813WA006670072000000
B2235533731272N12153816WA006660071900000
B2235543731267N12153821WA006660071900000
B2235553731261N12153828WA006650071800000
B2235563731258N12153836WA006650071700000
B2235573731257N12153845WA006680071600000
B2235583731259N12153853WA006700071700000
B2235593731261N12153858WA006730071800000
B2236003731263N12153862WA006740071900000
B2236013731266N12153865WA006740071900000
B2236023731269N12153870WA006730071900000
B2236033731272N12153874WA006720071900000
B2236043731276N12153880WA006690071900000
B2236053731279N12153885WA006690072000000
B2236063731281N12153890WA006700072100000
B2236073731283N12153894WA006700072100000
B2236083731285N12153899WA006700072200000
B2236093731287N12153904WA006700072100000
B2236103731289N12153909WA006710072200000
B2236113731291N12153915WA006710072300000
B2236123731293N12153920WA006730072400000
B2236133731294N12153925WA006740072500000
B2236143731296N12153930WA006740072600000
B2236193731309N12153950WA006740072500000
B2236243731319N12153940WA006770072600000
B2236293731323N12153929WA006780072900000
B2236343731332N12153920WA006760072800000
B2236393731346N12153911WA006760072800000
B2236443731358N12153896WA006740072800000
B2236493731366N12153880WA006760072900000
B2236543731362N12153858WA006750073000000
B2236593731352N12153837WA006780073200000
B2237043731341N12153817WA006780073200000
B2237093731327N12153793WA006780073200000
B2237143731311N12153771WA006790073300000
B2237193731295N12153751WA006810073400000
B2237243731280N12153730WA006820073600000
B2237293731266N12153707WA006870073900000
B2237343731254N12153683WA006900074200000
B2237393731241N12153661WA006930074600000
B2237443731227N12153639WA006950074800000
B2237493731210N12153617WA006900074900000
B2237543731214N12153593WA006850074300000
B2237593731228N12153610WA006830073900000
B2238043731239N12153636WA006820073700000
B2238093731249N12153656WA006840073800000
B2238143731257N12153677WA006830073800000
B2238193731267N12153696WA006800073700000
B2238243731277N12153716WA006800073600000
B2238293731288N12153734WA006780073400000
B2238343731301N12153755WA006740073100000
B2238393731316N12153775WA006700072900000
B2238443731334N12153795WA006820073000000
B2238493731339N12153817WA006780073300000
B2238543731345N12153797WA006710073000000
B2238593731334N12153778WA006770073100000
B2239043731328N12153753WA006780073300000
B2239093731340N12153767WA006820073500000
B2239143731316N12153777WA006860073800000
B2239193731311N12153752WA006860073900000
B2239203731314N12153751WA006870073900000
B2239213731318N12153751WA006890073900000
B2239223731320N12153752WA006890074000000
B2239233731323N12153755WA006910074100000
B2239243731326N12153758WA006920074100000
B2239263731328N12153768WA006920074200000
B2239273731327N12153774WA006920074200000
B2239283731325N12153780WA006920074200000
B2239293731322N12153785WA006920074200000
B2239303731317N12153789WA006920074300000
B2239313731312N12153790WA006920074300000
B2239323731306N12153788WA006920074300000
B2239333731301N12153784WA006920074300000
B2239343731298N12153780WA006920074400000
B2239353731295N12153775WA006920074400000
B2239363731292N12153771WA006930074400000
B2239373731291N12153765WA006930074400000
B2239383731290N12153760WA006930074500000
B2239393731289N12153755WA006940074600000
B2239403731289N12153750WA006960074800000
B2239413731290N12153746WA006970074900000
B2239423731290N12153744WA006970075000000
B2239433731292N12153742WA006960075000000
B2239443731295N12153741WA006940075000000
B2239453731298N12153742WA006930074900000
B2239463731303N12153744WA006920074900000
B2239473731306N12153749WA006920074900000
B2239483731309N12153754WA006930075000000
B2239493731309N12153760WA006940075100000
B2239503731309N12153766WA006960075200000
B2239513731307N12153772WA006960075200000
B2239523731304N12153777WA006970075300000
B2239533731301N12153782WA006980075300000
B2239543731296N12153786WA006980075300000
B2239553731291N12153788WA006980075300000
B2239563731285N12153788WA006980075300000
B2239573731280N12153787WA006980075300000
B2239583731275N12153784WA006980075300000
B2239593731271N12153780WA006980075300000
B2240003731268N12153775WA006980075300000
B2240013731265N12153770WA006980075300000
B2240023731264N12153765WA006990075400000
B2240033731262N12153760WA006990075400000
B2240043731262N12153756WA006990075400000
B2240053731262N12153753WA006980075400000
B2240063731264N12153749WA006980075400000
B2240073731266N12153746WA006970075300000
B2240083731269N12153743WA006960075300000
B2240093731273N12153742WA006960075300000
B2240103731276N12153742WA006970075300000
B2240113731279N12153743WA006980075300000
B2240123731282N12153745WA006990075400000
B2240133731285N12153748WA006990075400000
B2240143731287N12153751WA006990075400000
B2240153731289N12153754WA006990075300000
B2240163731291N12153758WA006980075300000
B2240173731294N12153762WA006970075200000
B2240183731298N12153766WA006950075100000
B2240193731302N12153771WA006950075000000
B2240203731306N12153775WA006950075000000
B2240213731310N12153779WA006950075000000
B2240223731313N12153782WA006960074900000
B2240233731316N12153786WA006960074900000
B2240243731319N12153790WA006950074800000
B2240253731322N12153794WA006930074800000
B2240263731325N12153798WA006910074700000
B2240273731330N12153802WA006900074600000
B2240323731350N12153821WA006930074500000
B2240373731367N12153841WA006960074800000
B2240423731381N12153860WA007010075200000
B2240473731390N12153883WA007000075300000
B2240523731404N12153904WA006940075000000
B2240573731422N12153917WA006890074700000
B2241023731444N12153926WA006840074300000
B2241073731461N12153918WA006770073500000
B2241123731474N12153902WA006790073400000
B2241173731485N12153888WA006820073400000
B2241223731484N12153872WA006740073200000
B2241273731460N12153859WA006680072800000
B2241323731437N12153843WA006670072400000
B2241373731418N12153825WA006660072100000
B2241423731400N12153806WA006650072000000
B2241473731380N12153789WA006680072000000
B2241523731363N12153771WA006720072200000
B2241573731345N12153747WA006770072500000
B2242023731322N12153737WA006760072500000
B2242073731313N12153770WA006690072100000
B2242123731336N12153781WA006700072000000
B2242173731354N12153785WA006820072500000
B2242223731362N12153770WA006880072800000
B2242273731337N12153769WA006960073500000
B2242323731344N12153787WA007060074500000
B2242353731338N12153768WA007100075000000
B2242363731331N12153765WA007120075200000
B2242373731325N12153765WA007140075600000
B2242383731319N12153769WA007160076000000
B2242393731316N12153775WA007170076300000
B2242403731314N12153783WA007180076400000
B2242413731314N12153791WA007190076400000
B2242423731316N12153797WA007200076500000
B2242433731319N12153800WA007220076600000
B2242443731322N12153801WA007230076700000
B2242453731325N12153799WA007240076800000
B2242463731327N12153796WA007250076900000
B2242473731328N12153790WA007260077000000
B2242483731327N12153784WA007260077000000
B2242493731325N12153778WA007270077100000
B2242503731322N12153772WA007280077300000
B2242513731319N12153767WA007300077500000
B2242523731316N12153762WA007320077700000
B2242533731313N12153757WA007340077900000
B2242543731310N12153753WA007350078100000
B2242553731308N12153748WA007370078200000
B2242563731305N12153743WA007380078400000
B2242573731302N12153737WA007400078600000
B2242583731299N12153732WA007420078800000
B2242593731297N12153727WA007430079000000
B2243003731295N12153722WA007450079200000
B2243013731295N12153718WA007440079300000
B2243023731298N12153713WA007420079300000
B2243033731303N12153711WA007400079200000
B2243043731310N12153712WA007370079200000
B2243053731315N12153718WA007340079000000
B2243063731317N12153727WA007340078900000
B2243073731315N12153736WA007350079000000
B2243083731312N12153743WA007390079300000
B2243093731308N12153748WA007410079700000
B2243103731305N12153753WA007440079900000
B2243113731302N12153758WA007460080100000
B2243123731298N12153763WA007460080200000
B2243133731292N12153767WA007460080400000
B2243143731285N12153770WA007460080400000
B2243153731276N12153769WA007470080500000
B2243163731268N12153764WA007480080500000
B2243173731263N12153757WA007500080600000
B2243183731261N12153751WA007510080600000
B2243193731262N12153745WA007520080600000
B2243203731267N12153743WA007530080500000
B2243213731273N12153744WA007530080500000
B2243223731278N12153746WA007530080600000
B2243233731282N12153751WA007550080600000
B2243243731282N12153758WA007570080700000
B2243263731277N12153771WA007600080800000
B2243273731272N12153776WA007610080900000
B2243283731265N12153780WA007620081000000
B2243293731258N12153782WA007630081100000
B2243303731251N12153781WA007630081200000
B2243313731244N12153778WA007630081300000
B2243323731238N12153774WA007630081300000
B2243333731234N12153769WA007640081500000
B2243343731232N12153763WA007650081500000
B2243353731232N12153759WA007650081500000
B2243363731234N12153755WA007640081500000
B2243373731237N12153753WA007630081400000
B2243383731242N12153754WA007630081400000
B2243393731246N12153756WA007630081400000
B2243403731250N12153761WA007640081500000
B2243413731253N12153767WA007650081500000
B2243423731254N12153773WA007670081600000
B2243433731254N12153780WA007680081700000
B2243443731252N12153787WA007690081800000
B2243463731242N12153798WA007670082000000
B2243473731234N12153801WA007670082000000
B2243483731225N12153800WA007680082100000
B2243503731212N12153794WA007700082300000
B2243513731209N12153791WA007700082300000
B2243523731208N12153786WA007700082200000
B2243533731210N12153781WA007700082300000
B2243543731212N12153778WA007700082300000
B2243553731215N12153777WA007690082200000
B2243563731219N12153778WA007690082200000
B2243573731223N12153782WA007690082200000
B2243583731226N12153787WA007700082300000
B2243593731227N12153794WA007700082300000
B2244003731225N12153801WA007700082300000
B2244013731221N12153808WA007680082200000
B2244023731215N12153815WA007670082200000
B2244033731207N12153820WA007660082100000
B2244043731198N12153821WA007660082100000
B2244053731191N12153820WA007670082100000
B2244063731185N12153816WA007660082000000
B2244073731180N12153812WA007660082000000
B2244083731176N12153809WA007650081900000
B2244093731171N12153805WA007640081900000
B2244103731168N12153801WA007630081800000
B2244113731166N12153796WA007610081600000
B2244123731165N12153790WA007590081400000
B2244133731164N12153783WA007580081300000
B2244143731164N12153777WA007570081200000
B2244153731163N12153772WA007580081100000
B2244163731162N12153768WA007580081100000
B2244173731161N12153764WA007570081100000
B2244183731159N12153759WA007560081000000
B2244193731157N12153754WA007550080900000
B2244203731155N12153747WA007540080900000
B2244213731152N12153741WA007530080900000
B2244223731149N12153735WA007550080900000
B2244233731146N12153730WA007560081000000
B2244243731143N12153726WA007570081000000
B2244253731140N12153721WA007550081000000
B2244303731126N12153691WA007500080800000
B2244353731112N12153666WA007440080500000
B2244403731100N12153639WA007390080000000
B2244453731086N12153606WA007330079500000
B2244503731077N12153579WA007370079300000
B2244553731073N12153551WA007320078900000
B2245003731066N12153521WA007280078500000
B2245053731058N12153492WA007230078100000
B2245103731048N12153463WA007120077500000
B2245153731037N12153424WA007020076500000
B2245203731027N12153394WA007050076000000
B2245253731016N12153363WA007050075900000
B2245303731009N12153334WA007030075800000
B2245353731000N12153302WA006970075400000
B2245403730989N12153266WA006980075300000
B2245453730979N12153234WA006970075300000
B2245503730970N12153206WA006990075500000
B2245553730962N12153183WA006960075400000
B2246003730941N12153165WA006870074900000
B2246053730917N12153193WA006850074400000
B2246103730914N12153220WA006860074500000
B2246153730908N12153247WA006900074500000
B2246203730907N12153274WA006870074300000
B2246253730904N12153295WA006960074500000
B2246303730901N12153323WA006970074700000
B2246353730897N12153351WA006960074800000
B2246403730894N12153378WA006940074700000
B2246453730895N12153406WA006930074700000
B2246503730897N12153428WA006920074600000
B2246553730898N12153449WA006870074500000
B2247003730899N12153476WA006810074100000
B2247053730904N12153502WA006840073900000
B2247103730913N12153512WA006830073700000
B2247153730928N12153513WA006840073800000
B2247203730941N12153503WA006750073600000
B2247253730951N12153481WA006650072800000
B2247303730959N12153458WA006640072300000
B2247353730955N12153429WA006610071900000
B2247403730940N12153400WA006610071800000
B2247453730916N12153376WA006570071500000
B2247503730885N12153361WA006550071300000
B2247553730853N12153355WA006540071100000
B2248003730821N12153351WA006510070700000
B2248053730785N12153357WA006460070300000
B2248103730752N12153368WA006410070000000
B2248153730721N12153379WA006370069900000
B2248203730691N12153388WA006290069600000
B2248253730663N12153396WA006210068900000
B2248303730634N12153407WA006140068400000
B2248353730597N12153417WA005990067800000
B2248403730561N12153425WA005960066800000
B2248453730524N12153430WA005910065900000
B2248503730487N12153434WA005900065100000
B2248553730457N12153434WA005810064300000
B2249003730424N12153434WA005760063400000
B2249053730391N12153433WA005710062600000
B2249103730360N12153433WA005680062000000
B2249153730327N12153431WA005610061500000
B2249203730297N12153424WA005600060900000
B2249253730276N12153409WA005550060500000
B2249303730249N12153395WA005520060000000
B2249353730229N12153411WA005520060000000
B2249403730244N12153423WA005480059600000
B2249453730252N12153403WA005460059500000
B2249463730253N12153398WA005450059400000
B2249473730253N12153393WA005440059300000
B2249483730252N12153387WA005430059300000
B2249493730251N12153381WA005420059200000
B2249503730249N12153375WA005410059100000
B2249513730245N12153369WA005400059000000
B2249523730240N12153365WA005400058900000
B2249533730234N12153362WA005390058800000
B2249543730228N12153361WA005380058700000
B2249553730222N12153363WA005370058600000
B2249563730217N12153367WA005360058400000
B2249573730213N12153371WA005340058300000
B2249583730211N12153377WA005340058200000
B2249593730211N12153383WA005330058100000
B2250003730213N12153388WA005330058000000
B2250013730216N12153390WA005320057900000
B2250023730220N12153391WA005320057900000
B2250033730224N12153389WA005320057900000
B2250043730228N12153387WA005320057900000
B2250053730232N12153384WA005330058000000
B2250063730235N12153381WA005330058000000
B2250073730238N12153378WA005340058000000
B2250083730242N12153376WA005330058000000
B2250093730246N12153377WA005320057900000
B2250103730250N12153379WA005310057700000
B2250113730253N12153383WA005300057600000
B2250123730256N12153389WA005290057600000
B2250133730257N12153395WA005290057600000
B2250143730258N12153400WA005290057600000
B2250153730258N12153405WA005290057600000
B2250163730258N12153410WA005290057600000
B2250173730258N12153415WA005290057500000
B2250183730258N12153420WA005280057500000
B2250193730257N12153425WA005280057500000
B2250203730257N12153430WA005290057600000
B2250213730257N12153434WA005290057600000
B2250223730256N12153438WA005290057600000
B2250233730255N12153443WA005290057600000
B2250243730255N12153448WA005280057600000
B2250253730255N12153453WA005270057500000
B2250263730254N12153459WA005250057500000
B2250273730253N12153465WA005230057500000
B2250283730251N12153471WA005210057500000
B2250333730244N12153506WA005190057400000
B2250383730241N12153537WA005170057300000
B2250433730237N12153567WA005130056900000
B2250483730237N12153600WA005100056500000
B2250533730238N12153630WA005070056100000
B2250583730238N12153654WA005040055800000
B2251033730235N12153679WA005010055600000
B2251083730233N12153707WA004970055100000
B2251133730240N12153726WA004970055000000
B2251183730252N12153739WA004970054900000
B2251233730270N12153734WA004960054600000
B2251283730264N12153707WA004950054300000
B2251333730239N12153702WA004910053800000
B2251343730235N12153705WA004900053700000
B2251353730231N12153708WA004890053600000
B2251363730228N12153713WA004890053600000
B2251373730226N12153717WA004880053500000
B2251383730225N12153722WA004860053500000
B2251393730225N12153726WA004840053400000
B2251403730227N12153731WA004830053400000
B2251413730229N12153736WA004840053300000
B2251423730231N12153740WA004840053300000
B2251433730234N12153742WA004840053300000
B2251443730237N12153744WA004830053300000
B2251453730240N12153745WA004830053200000
B2251463730244N12153747WA004820053100000
B2251473730247N12153748WA004810053100000
B2251483730251N12153749WA004800053000000
B2251493730255N12153750WA004800053000000
B2251503730259N12153752WA004780052900000
B2251513730264N12153754WA004780052800000
B2251523730268N12153756WA004770052700000
B2251533730273N12153759WA004780052700000
B2251543730277N12153761WA004780052700000
B2251553730281N12153764WA004770052700000
B2251563730285N12153767WA004760052600000
B2251573730288N12153771WA004740052600000
B2251583730293N12153774WA004730052500000
B2251593730297N12153778WA004710052400000
B2252043730320N12153797WA004640051900000
B2252093730344N12153807WA004600051300000
B2252143730366N12153811WA004580050900000
B2252193730385N12153827WA004550050700000
B2252243730404N12153841WA004510050200000
B2252293730423N12153848WA004460049700000
B2252343730446N12153852WA004410049000000
B2252393730471N12153851WA004390048600000
B2252443730496N12153846WA004370048400000
B2252493730522N12153840WA004330047900000
B2252543730545N12153834WA004310047600000
B2252593730568N12153824WA004230047000000
B2253043730591N12153810WA004160046200000
B2253093730615N12153791WA004170045900000
B2253143730634N12153776WA004170045800000
B2253193730650N12153763WA004220046000000
B2253243730671N12153765WA004120045600000
B2253293730684N12153783WA004090045200000
B2253343730696N12153803WA004080045000000
B2253393730705N12153823WA004040044700000
B2253443730721N12153841WA003950044000000
B2253493730743N12153855WA003960043700000
B2253543730760N12153865WA003950043600000
B2253593730780N12153874WA003900043200000
B2254043730796N12153891WA003840042600000
B2254093730783N12153905WA003780042200000
B2254143730761N12153882WA003750041700000
B2254193730742N12153862WA003730041300000
B2254243730723N12153846WA003710041000000
B2254293730704N12153828WA003680040700000
B2254343730684N12153813WA003660040400000
B2254393730664N12153802WA003640040200000
B2254443730643N12153792WA003630040100000
B2254493730623N12153777WA003590039800000
B2254543730601N12153762WA003550039400000
B2254593730582N12153767WA003480038700000
B2255043730591N12153787WA003460038500000
B2255093730610N12153792WA003390038100000
B2255143730631N12153796WA003350037600000
B2255193730650N12153802WA003300037100000
B2255243730647N12153824WA003250036800000
B2255293730626N12153815WA003250036800000
B2255343730604N12153801WA003210036400000
B2255393730583N12153810WA003160035900000
B2255443730569N12153822WA003170035900000
B2255493730549N12153835WA003080035600000
B2255543730528N12153851WA003000035200000
B2255593730507N12153865WA002920034400000
B2256043730486N12153880WA002860033500000
B2256093730466N12153895WA002820032900000
B2256143730451N12153912WA002760032400000
B2256193730431N12153931WA002670031600000
B2256243730409N12153951WA002610030700000
B2256293730387N12153968WA002520029900000
B2256343730365N12153988WA002430029000000
B2256393730349N12154011WA002400028400000
B2256443730332N12154024WA002450028200000
B2256493730318N12154032WA002440028100000
B2256543730311N12154050WA002430028200000
B2256593730313N12154071WA002450028300000
B2257043730333N12154081WA002400027800000
B2257063730342N12154071WA002380027600000
B2257073730345N12154064WA002380027500000
B2257083730346N12154057WA002370027500000
B2257093730346N12154051WA002370027400000
B2257103730345N12154044WA002370027400000
B2257113730343N12154039WA002370027300000
B2257123730340N12154034WA002370027300000
B2257133730336N12154030WA002370027400000
B2257143730332N12154027WA002380027400000
B2257153730329N12154026WA002380027400000
B2257163730325N12154025WA002380027300000
B2257173730321N12154024WA002380027300000
B2257183730317N12154025WA002380027300000
B2257193730313N12154025WA002380027300000
B2257203730309N12154026WA002380027300000
B2257213730306N12154027WA002380027400000
B2257223730303N12154028WA002390027400000
B2257233730299N12154030WA002390027400000
B2257243730295N12154031WA002390027400000
B2257253730291N12154033WA002400027500000
B2257263730288N12154035WA002410027500000
B2257273730285N12154037WA002420027600000
B2257283730282N12154039WA002430027700000
B2257293730278N12154039WA002430027700000
B2257303730275N12154040WA002430027700000
B2257313730271N12154040WA002420027700000
B2257323730268N12154042WA002390027700000
B2257333730265N12154045WA002390027700000
B2257343730264N12154049WA002370027700000
B2257353730264N12154055WA002350027700000
B2257363730267N12154060WA002340027600000
B2257373730272N12154064WA002340027600000
B2257383730277N12154065WA002340027600000
B2257393730283N12154064WA002350027600000
B2257403730288N12154061WA002350027500000
B2257413730292N12154057WA002350027400000
B2257423730296N12154051WA002340027400000
B2257433730298N12154044WA002340027300000
B2257443730298N12154037WA002340027200000
B2257453730298N12154030WA002340027200000
B2257463730296N12154024WA002340027200000
B2257473730293N12154018WA002340027200000
B2257483730290N12154013WA002340027100000
B2257493730287N12154009WA002340027100000
B2257503730283N12154006WA002340027000000
B2257513730278N12154003WA002330026900000
B2257523730274N12154002WA002320026800000
B2257533730269N12154003WA002310026700000
B2257543730266N12154006WA002290026600000
B2257553730265N12154012WA002280026400000
B2257563730265N12154018WA002260026300000
B2257573730265N12154023WA002250026300000
B2257583730266N12154027WA002260026200000
B2257593730267N12154031WA002250026200000
B2258003730267N12154035WA002250026100000
B2258013730267N12154040WA002240026000000
B2258023730267N12154045WA002230025900000
B2258033730267N12154049WA002230025900000
B2258043730266N12154053WA002230025800000
B2258063730265N12154060WA002220025800000
B2258073730263N12154064WA002210025700000
B2258083730261N12154068WA002200025700000
B2258093730259N12154073WA002200025600000
B2258103730258N12154077WA002190025600000
B2258113730258N12154082WA002190025600000
B2258123730259N12154086WA002180025500000
B2258133730262N12154090WA002180025300000
B2258143730266N12154092WA002170025200000
B2258153730271N12154092WA002170025200000
B2258163730276N12154090WA002150025100000
B2258173730280N12154086WA002140025100000
B2258183730283N12154082WA002130025000000
B2258193730287N12154078WA002120024800000
B2258203730291N12154074WA002100024600000
B2258213730297N12154072WA002090024500000
B2258223730302N12154070WA002080024400000
B2258233730307N12154068WA002080024400000
B2258243730311N12154067WA002060024300000
B2258253730316N12154066WA002050024200000
B2258263730320N12154067WA002030024100000
B2258273730323N12154071WA002000023900000
B2258283730325N12154076WA001990023700000
B2258293730326N12154083WA001960023500000
B2258303730325N12154089WA001950023400000
B2258313730322N12154093WA001950023300000
B2258323730320N12154097WA001940023200000
B2258333730317N12154101WA001920023200000
B2258343730315N12154106WA001910023100000
B2258353730313N12154111WA001890023100000
B2258363730310N12154117WA001880023000000
B2258373730308N12154122WA001870022900000
B2258383730306N12154126WA001860022900000
B2258393730304N12154130WA001860022800000
B2258403730301N12154134WA001850022800000
B2258413730299N12154138WA001840022700000
B2258423730297N12154143WA001820022600000
B2258433730295N12154147WA001810022500000
B2258443730293N12154152WA001810022500000
B2258453730290N12154155WA001800022400000
B2258503730291N12154177WA001710021600000
B2258553730322N12154169WA001690020900000
B2259003730331N12154188WA001610020000000
B2259053730302N12154193WA001620019900000
B2259103730322N12154211WA001580019400000
B2259133730337N12154206WA001620019400000
B2259143730340N12154204WA001610019300000
B2259153730344N12154202WA001570019100000
B2259163730349N12154198WA001550019000000
B2259173730353N12154194WA001550018900000
B2259183730357N12154191WA001550018900000
B2259193730361N12154188WA001540018800000
B2259203730366N12154186WA001550018700000
B2259213730370N12154185WA001540018600000
B2259223730374N12154185WA001540018500000
B2259233730379N12154185WA001520018400000
B2259243730383N12154187WA001510018300000
B2259253730387N12154191WA001490018200000
B2259263730390N12154196WA001470018100000
B2259273730391N12154202WA001440018000000
B2259283730390N12154208WA001440017900000
B2259293730385N12154211WA001430017700000
B2259303730381N12154213WA001440017700000
B2259313730378N12154215WA001440017600000
B2259323730375N12154218WA001420017500000
B2259333730372N12154221WA001390017400000
B2259343730370N12154224WA001340017200000
B2259353730371N12154230WA001300016900000
B2259363730372N12154238WA001270016700000
B2259373730372N12154246WA001280016600000
B2259383730371N12154252WA001290016400000
B2259393730369N12154256WA001290016400000
B2259403730367N12154260WA001290016300000
B2259413730366N12154264WA001290016200000
B2259423730366N12154267WA001290016100000
B2259433730365N12154267WA001290016000000
B2259443730365N12154266WA001290016000000
B2259453730365N12154266WA001290016000000
B2259463730365N12154266WA001290016100000
B2259473730365N12154266WA001290016100000
B2259483730365N12154265WA001290016200000
B2259533730366N12154265WA001290016200000
B2259583730365N12154264WA001290016100000
B2300033730365N12154264WA001280016100000
B2300083730365N12154264WA001280016100000
B2300133730365N12154264WA001290016100000
B2300183730365N12154264WA001280016100000
B2300233730365N12154265WA001280016100000
B2300283730365N12154264WA001280016100000
B2300333730364N12154263WA001280015900000
B2300383730363N12154263WA001280015800000
B2300433730363N12154263WA001280015700000
B2300483730364N12154262WA001290015800000
B2300533730364N12154262WA001280015800000
B2300583730364N12154262WA001280015700000
B2301033730363N12154262WA001280015700000
B2301083730362N12154260WA001290015600000
B2301133730362N12154260WA001280015600000
B2301183730362N12154260WA001280015500000
B2301233730362N12154260WA001290015500000
B2301283730361N12154260WA001290015500000
B2301333730362N12154260WA001280015500000
B2301383730362N12154260WA001280015500000
B2301433730362N12154260WA001290015500000
B2301483730362N12154259WA001290015500000
B2301533730362N12154260WA001280015500000
B2301583730362N12154260WA001280015500000
B2302033730362N12154260WA001280015500000
B2302083730362N12154260WA001280015600000
B2302133730362N12154260WA001270015600000
B2302183730362N12154260WA001280015500000
B2302233730362N12154260WA001280015600000
B2302283730362N12154260WA001280015600000
B2302333730362N12154260WA001280015600000
G5f497ed28dd51fef
Gc2cab7a60addb4cd
G5a41ce0b0e4ddadb
G5f2d970fce264acb
Gdfb37fdac676fcd3
G27b1b5d1362cceac
G087b58d46b5d4674
Gbc6ff1ab9ccb5739
