AXCSAAA
HFDTE210713
HFFXA050
HFPLTPILOT:JOSH COHN
HFGTYGLIDERTYPE:BOOM 9
HFGIDGLIDERID:
HFCIDCOMPETITIONID:1771
HFFTYFRTYPE:XCSOAR,XCSOAR Android 6.7_preview12 Jul 11 2013
HFGPS:Internal GPS (Android)
HFDTM100DATUM:WGS-84
I023638FXA3940SIU
C210713092014000000000003
C0000000N00000000ETAKEOFF
C4241250N02445008E25S145 SOPOT TAKE
C4234766N02443000E22S060 TSARKVISHT
C4219623N02516311E50P062 ANTENA ENE
C4232277N02449647E31L029 BANYA AIRF
C4232277N02449647E31L029 BANYA AIRF
C0000000N00000000ELANDING
F092014
B0920144241270N02445030EA014210147400000
B0920194241270N02445030EA014210147400000
B0920244241269N02445030EA014200147400000
B0920294241268N02445029EA014200147300000
B0920344241263N02445027EA014170147200000
B0920394241263N02445027EA014170147200000
B0920444241263N02445027EA014170147200000
B0920494241262N02445027EA014170147100000
B0920544241261N02445029EA014160147100000
B0920594241261N02445030EA014160147100000
B0921044241260N02445030EA014160147200000
B0921094241260N02445030EA014160147100000
B0921144241261N02445029EA014150147100000
B0921194241261N02445026EA014160147000000
B0921244241261N02445022EA014150147000000
B0921294241262N02445017EA014150146900000
B0921344241263N02445014EA014160146900000
B0921394241265N02445011EA014160146900000
B0921444241268N02445009EA014170146900000
B0921494241270N02445008EA014180147000000
B0921544241272N02445007EA014180146900000
B0921594241274N02445009EA014190147000000
B0922044241273N02445009EA014200147000000
B0922094241274N02445011EA014200147100000
B0922144241274N02445011EA014210147100000
B0922194241275N02445012EA014210147200000
B0922244241275N02445012EA014210147200000
B0922294241276N02445012EA014220147300000
B0922344241277N02445012EA014230147300000
B0922394241277N02445012EA014240147400000
B0922444241278N02445012EA014240147400000
B0922494241278N02445013EA014240147500000
B0922544241280N02445014EA014250147600000
B0922594241283N02445016EA014260148000000
B0923044241285N02445019EA014280148100000
B0923094241288N02445020EA014280148200000
B0923144241291N02445022EA014300148200000
B0923194241292N02445023EA014310148300000
B0923244241293N02445022EA014300148400000
B0923294241293N02445022EA014300148400000
B0923344241291N02445022EA014290148500000
B0923394241291N02445022EA014290148500000
B0923444241291N02445022EA014290148400000
B0923494241291N02445022EA014290148400000
B0923544241291N02445022EA014290148400000
B0923594241291N02445022EA014290148400000
B0924044241291N02445022EA014290148400000
B0924094241291N02445022EA014290148400000
B0924144241291N02445022EA014280148500000
B0924194241291N02445022EA014280148400000
B0924244241291N02445022EA014280148400000
B0924294241291N02445022EA014280148300000
B0924344241291N02445022EA014280148400000
B0924394241290N02445022EA014280148400000
B0924444241290N02445022EA014280148400000
B0924494241290N02445022EA014280148400000
B0924544241289N02445021EA014270148300000
B0924594241285N02445015EA014210148400000
B0925044241265N02444988EA014140147400000
B0925094241253N02444966EA014180147500000
B0925144241239N02444948EA014190147600000
B0925194241226N02444931EA014170146900000
B0925244241210N02444904EA014130146400000
B0925294241196N02444882EA014180146600000
B0925344241181N02444858EA014190146800000
B0925394241167N02444832EA014150146300000
B0925444241160N02444810EA014120145900000
B0925494241150N02444786EA014060145400000
B0925544241140N02444759EA014020145100000
B0925594241132N02444737EA014040145400000
B0926044241124N02444720EA014040145500000
B0926094241115N02444705EA014120146400000
B0926144241110N02444688EA014180147100000
B0926194241099N02444677EA014150147000000
B0926244241084N02444685EA014110146600000
B0926294241067N02444698EA014140146900000
B0926344241051N02444705EA014140147000000
B0926394241035N02444714EA014190147200000
B0926444241018N02444719EA014200147400000
B0926494241003N02444721EA014230147800000
B0926544240989N02444722EA014260147900000
B0926594240968N02444723EA014300148100000
B0927044240953N02444727EA014410149400000
B0927094240939N02444734EA014580151100000
B0927144240935N02444756EA014660151700000
B0927194240944N02444786EA014800153300000
B0927244240969N02444812EA014890154100000
B0927294241000N02444825EA014950154700000
B0927344241027N02444802EA015020155600000
B0927394241034N02444769EA015100156300000
B0927434241026N02444758EA015180157300000
B0927444241023N02444756EA015200157500000
B0927454241021N02444755EA015220157700000
B0927464241018N02444754EA015240157700000
B0927474241014N02444755EA015250158000000
B0927484241010N02444755EA015270158300000
B0927494241006N02444756EA015300158600000
B0927504241003N02444756EA015330159000000
B0927514241000N02444757EA015370159300000
B0927524240997N02444757EA015410159600000
B0927534240994N02444757EA015450159900000
B0927544240991N02444757EA015470160000000
B0927554240988N02444758EA015490160100000
B0927564240985N02444758EA015500160200000
B0927574240982N02444759EA015510160300000
B0927584240978N02444760EA015520160600000
B0927594240975N02444761EA015540160700000
B0928004240971N02444762EA015560161000000
B0928014240967N02444761EA015590161400000
B0928024240963N02444760EA015610161700000
B0928034240960N02444758EA015640161900000
B0928044240957N02444756EA015660162200000
B0928054240953N02444753EA015680162500000
B0928064240950N02444751EA015710162700000
B0928074240947N02444749EA015730163000000
B0928084240943N02444746EA015750163100000
B0928094240939N02444744EA015760163200000
B0928104240935N02444743EA015760163400000
B0928114240931N02444740EA015770163400000
B0928124240927N02444739EA015770163500000
B0928134240924N02444738EA015780163600000
B0928144240920N02444738EA015790163700000
B0928154240916N02444738EA015790163700000
B0928164240911N02444739EA015800163800000
B0928174240907N02444740EA015810163900000
B0928184240902N02444742EA015840164000000
B0928194240898N02444744EA015870164300000
B0928204240894N02444745EA015890164500000
B0928214240890N02444747EA015910164400000
B0928224240886N02444748EA015930164500000
B0928234240882N02444749EA015940164700000
B0928244240877N02444750EA015960164900000
B0928254240873N02444751EA015970165000000
B0928264240869N02444753EA015970165000000
B0928274240865N02444757EA015960164800000
B0928284240861N02444762EA015940164800000
B0928294240856N02444767EA015940164700000
B0928304240850N02444772EA015940164800000
B0928314240845N02444776EA015950164900000
B0928324240839N02444780EA015970165300000
B0928334240834N02444784EA016010165600000
B0928344240830N02444788EA016060166300000
B0928354240826N02444792EA016130166800000
B0928364240823N02444795EA016170167300000
B0928374240820N02444797EA016200167500000
B0928384240817N02444800EA016220167600000
B0928394240813N02444804EA016220167600000
B0928444240792N02444828EA016310168500000
B0928494240777N02444846EA016400168900000
B0928544240759N02444863EA016490169400000
B0928594240742N02444876EA016570170200000
B0929044240724N02444889EA016680171600000
B0929094240709N02444903EA016800173300000
B0929144240695N02444922EA016860173900000
B0929194240703N02444969EA016940174300000
B0929244240732N02444970EA017160175700000
B0929294240759N02444955EA017280177300000
B0929344240782N02444937EA017410178200000
B0929394240802N02444921EA017500179300000
B0929444240836N02444928EA017570180600000
B0929494240866N02444931EA017690182200000
B0929544240888N02444922EA017820183500000
B0929594240895N02444900EA017930184400000
B0930044240876N02444898EA018060186000000
B0930084240868N02444924EA018140186900000
B0930094240869N02444933EA018150186900000
B0930104240871N02444942EA018150186900000
B0930114240873N02444952EA018150187000000
B0930124240877N02444960EA018160187100000
B0930134240881N02444968EA018170187300000
B0930144240889N02444974EA018170187500000
B0930154240895N02444976EA018190187700000
B0930164240901N02444976EA018220187700000
B0930174240907N02444975EA018240187800000
B0930184240911N02444973EA018260187900000
B0930194240915N02444968EA018270188000000
B0930204240919N02444963EA018280188100000
B0930214240921N02444957EA018280188300000
B0930224240922N02444950EA018310188800000
B0930234240923N02444944EA018350189300000
B0930244240923N02444940EA018380189700000
B0930254240922N02444937EA018420190000000
B0930264240921N02444934EA018450189700000
B0930274240918N02444932EA018480190100000
B0930284240915N02444930EA018500190400000
B0930294240911N02444931EA018520190700000
B0930304240907N02444934EA018550191000000
B0930314240903N02444937EA018570191200000
B0930324240900N02444939EA018600191300000
B0930334240896N02444943EA018620191200000
B0930344240893N02444946EA018630191300000
B0930354240889N02444951EA018640191400000
B0930364240886N02444954EA018640191500000
B0930374240883N02444956EA018650191600000
B0930384240879N02444958EA018660191600000
B0930394240875N02444961EA018670191800000
B0930404240872N02444964EA018680191800000
B0930414240869N02444967EA018700191900000
B0930424240866N02444970EA018710192000000
B0930434240863N02444972EA018720192000000
B0930444240860N02444974EA018720192000000
B0930454240856N02444977EA018730192000000
B0930464240853N02444980EA018730192000000
B0930514240837N02444999EA018790192600000
B0930564240821N02445019EA018860193100000
B0931014240803N02445041EA018960194100000
B0931064240781N02445061EA019040194800000
B0931114240757N02445075EA019120195400000
B0931164240732N02445090EA019130196300000
B0931214240704N02445108EA019210197600000
B0931264240673N02445122EA019300199100000
B0931314240647N02445130EA019430200400000
B0931364240619N02445122EA019540201900000
B0931414240596N02445119EA019720203900000
B0931464240567N02445111EA019750204600000
B0931514240540N02445105EA019920206300000
B0931564240517N02445095EA020090207800000
B0932014240493N02445084EA020180208800000
B0932064240470N02445073EA020310210200000
B0932114240448N02445069EA020450211600000
B0932164240423N02445067EA020520212600000
B0932214240402N02445068EA020560212800000
B0932264240378N02445063EA020680214200000
B0932314240352N02445056EA020770214900000
B0932364240328N02445036EA020880216100000
B0932414240300N02445011EA020870216200000
B0932464240271N02444983EA020990217300000
B0932514240243N02444950EA020910216700000
B0932564240214N02444929EA020960217000000
B0933014240187N02444904EA020940216800000
B0933064240159N02444885EA020980217400000
B0933114240129N02444877EA020990217400000
B0933164240104N02444866EA021030217900000
B0933214240079N02444860EA021020217800000
B0933264240050N02444856EA020890216500000
B0933314240017N02444848EA020830216100000
B0933364239985N02444838EA020730214900000
B0933414239950N02444828EA020650214100000
B0933464239919N02444823EA020600213600000
B0933514239886N02444823EA020520212900000
B0933564239852N02444829EA020510212800000
B0934014239822N02444835EA020480212500000
B0934064239789N02444841EA020560213300000
B0934114239765N02444851EA020690214200000
B0934164239740N02444860EA020720214500000
B0934214239715N02444864EA020810215300000
B0934264239689N02444856EA020870216100000
B0934314239668N02444837EA020910216500000
B0934364239650N02444812EA020950216900000
B0934414239634N02444791EA021050217800000
B0934464239612N02444780EA021100218600000
B0934514239591N02444780EA021160218900000
B0934564239566N02444780EA021250219900000
B0935014239535N02444777EA021210219900000
B0935064239510N02444771EA021220219600000
B0935114239485N02444760EA021220219700000
B0935164239461N02444748EA021180219300000
B0935214239439N02444736EA021140218800000
B0935264239424N02444721EA021090218400000
B0935314239397N02444707EA021010218300000
B0935364239382N02444698EA020910218400000
B0935414239359N02444671EA020920217500000
B0935464239329N02444651EA020800217100000
B0935514239318N02444621EA020700216400000
B0935564239305N02444599EA020680215400000
B0936014239289N02444561EA020620214900000
B0936064239280N02444529EA020590214200000
B0936114239253N02444507EA020560213600000
B0936164239227N02444484EA020570213500000
B0936214239204N02444459EA020550213300000
B0936264239182N02444436EA020510212700000
B0936314239153N02444418EA020450211900000
B0936364239126N02444397EA020460212000000
B0936414239098N02444379EA020480212100000
B0936464239070N02444361EA020440211800000
B0936514239044N02444349EA020500212300000
B0936564239021N02444335EA020470212100000
B0937014239006N02444322EA020500212300000
B0937064238987N02444310EA020520212500000
B0937114238970N02444293EA020520212600000
B0937164238953N02444276EA020550212900000
B0937214238934N02444261EA020660214000000
B0937264238913N02444249EA020690214400000
B0937314238893N02444236EA020740214900000
B0937364238873N02444221EA020750215000000
B0937414238853N02444199EA020820215700000
B0937464238832N02444176EA020900216400000
B0937514238810N02444159EA020940216800000
B0937564238782N02444149EA020910216500000
B0938014238750N02444140EA020850216100000
B0938064238720N02444136EA020870216100000
B0938114238689N02444136EA020810215600000
B0938164238660N02444132EA020810215700000
B0938214238631N02444128EA020770215200000
B0938264238601N02444122EA020780215200000
B0938314238570N02444119EA020740214800000
B0938364238536N02444113EA020690214400000
B0938414238501N02444110EA020630213700000
B0938464238468N02444108EA020570213000000
B0938514238432N02444103EA020480212300000
B0938564238401N02444100EA020380211200000
B0939014238372N02444095EA020390211300000
B0939064238344N02444089EA020300210300000
B0939114238314N02444085EA020220209600000
B0939164238281N02444092EA020170209200000
B0939214238248N02444098EA020170209300000
B0939264238215N02444097EA020230209700000
B0939314238187N02444089EA020230209600000
B0939364238162N02444073EA020170208800000
B0939414238129N02444064EA020020207800000
B0939464238095N02444058EA019930206800000
B0939514238065N02444068EA019830205700000
B0939564238037N02444092EA019720204800000
B0940014238010N02444125EA019700204400000
B0940064237985N02444154EA019730204500000
B0940114237958N02444176EA019690204200000
B0940164237927N02444187EA019650204000000
B0940214237895N02444197EA019630203800000
B0940264237863N02444196EA019570203500000
B0940314237837N02444196EA019510202900000
B0940364237804N02444194EA019400201600000
B0940414237771N02444189EA019330200600000
B0940464237736N02444188EA019280200200000
B0940514237712N02444217EA019120198200000
B0940564237728N02444250EA019050197800000
B0941014237749N02444263EA019030197500000
B0941064237771N02444269EA019020197400000
B0941114237793N02444270EA019010197200000
B0941164237816N02444274EA018960196800000
B0941214237837N02444286EA018960196500000
B0941264237859N02444298EA018900196300000
B0941314237885N02444310EA018840196000000
B0941364237916N02444322EA018700194700000
B0941414237948N02444335EA018660194200000
B0941464237983N02444350EA018560193800000
B0941514238015N02444362EA018500192900000
B0941564238051N02444358EA018390191400000
B0942014238085N02444352EA018300190100000
B0942064238119N02444344EA018230189300000
B0942114238154N02444335EA018140188200000
B0942164238192N02444336EA018070187600000
B0942214238218N02444343EA018100187800000
B0942264238250N02444357EA017900187600000
B0942314238283N02444372EA017790186700000
B0942364238316N02444386EA017620186000000
B0942414238350N02444398EA017460184100000
B0942464238386N02444406EA017330181900000
B0942514238424N02444396EA017170179200000
B0942564238465N02444386EA017020177300000
B0943014238502N02444379EA016960176200000
B0943064238542N02444380EA016870175300000
B0943114238577N02444387EA016790174200000
B0943134238593N02444388EA016760173900000
B0943144238601N02444388EA016760173900000
B0943154238608N02444388EA016750173700000
B0943164238616N02444386EA016740173700000
B0943174238624N02444385EA016740173600000
B0943224238661N02444374EA016710173100000
B0943274238700N02444370EA016690173000000
B0943324238739N02444379EA016670172800000
B0943374238759N02444419EA016690172900000
B0943424238774N02444460EA016650172500000
B0943474238792N02444502EA016680172800000
B0943524238812N02444531EA016720173100000
B0943574238828N02444556EA016760173200000
B0944024238828N02444592EA016770173400000
B0944074238811N02444600EA016780173500000
B0944124238810N02444577EA016750173300000
B0944174238833N02444562EA016760173600000
B0944184238838N02444563EA016770173600000
B0944194238843N02444564EA016770173600000
B0944204238848N02444566EA016780173700000
B0944214238852N02444569EA016790173700000
B0944224238856N02444575EA016790173700000
B0944234238859N02444579EA016790173600000
B0944244238863N02444588EA016800173800000
B0944254238865N02444595EA016800173900000
B0944264238865N02444602EA016810173900000
B0944274238865N02444610EA016810173900000
B0944284238864N02444617EA016810173900000
B0944294238863N02444624EA016810173900000
B0944304238861N02444631EA016810174000000
B0944314238859N02444636EA016810174000000
B0944324238856N02444640EA016810174000000
B0944334238852N02444643EA016810174000000
B0944344238848N02444645EA016810174000000
B0944354238845N02444645EA016810174000000
B0944364238842N02444645EA016810174000000
B0944374238839N02444642EA016810173800000
B0944384238838N02444639EA016800173700000
B0944394238836N02444635EA016800173600000
B0944404238835N02444630EA016790173600000
B0944414238835N02444625EA016790173600000
B0944424238836N02444620EA016790173600000
B0944434238838N02444614EA016780173600000
B0944444238841N02444609EA016780173600000
B0944454238846N02444605EA016780173600000
B0944464238850N02444602EA016780173600000
B0944474238855N02444600EA016780173600000
B0944484238861N02444598EA016780173600000
B0944494238867N02444598EA016780173600000
B0944504238873N02444598EA016790173700000
B0944514238878N02444598EA016790173700000
B0944524238883N02444599EA016790173700000
B0944534238888N02444601EA016790173700000
B0944544238893N02444603EA016790173700000
B0944554238898N02444606EA016780173600000
B0944564238903N02444609EA016780173500000
B0944574238908N02444611EA016770173500000
B0944584238913N02444614EA016750173400000
B0944594238918N02444616EA016730173400000
B0945004238923N02444618EA016720173300000
B0945014238928N02444620EA016700173300000
B0945024238934N02444622EA016690173300000
B0945034238939N02444623EA016680173300000
B0945044238945N02444624EA016670173200000
B0945054238951N02444625EA016670173100000
B0945064238956N02444625EA016660172900000
B0945074238961N02444625EA016650172700000
B0945124238987N02444615EA016540171300000
B0945174239006N02444587EA016480171100000
B0945224239016N02444557EA016420170100000
B0945534238966N02444392EA016050166000000
B0946094238917N02444511EA015890165900000
B0946154238911N02444555EA015820164100000
B0946204238906N02444597EA015780163800000
B0946254238900N02444636EA015740163400000
B0946304238895N02444675EA015720162700000
B0946354238894N02444713EA015680162500000
B0946404238891N02444753EA015640162100000
B0946454238889N02444790EA015640161800000
B0946504238888N02444828EA015610161700000
B0946554238890N02444871EA015580161400000
B0947004238894N02444910EA015560161100000
B0947054238901N02444951EA015550161100000
B0947104238907N02444995EA015520161000000
B0947424239007N02445242EA015230157900000
B0947474239035N02445262EA015240157900000
B0947524239062N02445277EA015140156900000
B0947574239087N02445264EA015030156600000
B0948024239091N02445235EA014980155500000
B0948224239111N02445076EA014710151600000
B0948274239111N02445042EA014580150300000
B0948324239111N02445003EA014500150200000
B0948384239111N02444961EA014420148900000
B0948434239112N02444923EA014290147500000
B0949114239120N02444663EA013790142900000
B0949164239125N02444613EA013680141700000
B0949534239222N02444297EA012940141000000
B0949584239251N02444264EA012990139900000
B0950034239253N02444220EA012870140200000
B0950494239282N02443774EA012280127800000
B0950544239284N02443723EA012220126800000
B0951224239288N02443462EA011740121300000
B0951274239292N02443413EA011660120800000
B0951534239303N02443175EA011260116800000
B0951584239308N02443134EA011180116100000
B0952524239305N02442589EA010100104500000
B0952574239303N02442524EA009990102500000
B0953414239351N02442146EA009190095500000
B0953464239356N02442111EA009130095400000
B0954114239399N02441906EA008690089900000
B0954164239409N02441866EA008620088800000
B0954414239439N02441680EA008410087700000
B0954464239447N02441656EA008450089500000
B0954524239455N02441618EA008390087200000
B0954574239454N02441582EA008350086600000
B0955224239530N02441426EA008090084300000
B0955524239618N02441235EA008000083800000
B0956234239583N02441071EA007860083000000
B0956284239573N02441052EA007790081400000
B0956514239586N02441088EA007310076200000
B0956534239589N02441087EA007270076100000
B0956554239585N02441076EA007210075100000
B0956564239583N02441070EA007180074800000
B0956574239581N02441064EA007110074500000
B0956584239572N02441052EA007090074800000
B0957224239569N02441093EA006580067900000
B0957234239567N02441088EA006570067700000
B0957244239565N02441082EA006500067700000
B0957254239562N02441078EA006390067600000
B0957264239560N02441076EA006330067600000
B0957274239556N02441077EA006330067500000
B0957284239548N02441077EA006340067200000
B0957294239542N02441078EA006310067100000
B0957304239542N02441077EA006210067000000
B0957314239543N02441075EA006140066900000
B0957324239549N02441070EA006080066600000
B0957334239554N02441067EA006080066500000
B0957344239554N02441053EA006110066000000
B0957354239557N02441045EA006100065500000
B0957364239557N02441043EA006070065300000
B0957374239549N02441037EA006050064900000
B0957384239548N02441030EA006020064500000
B0957394239548N02441022EA005980064200000
B0957404239551N02441015EA005970063700000
B0957414239552N02441009EA005950063400000
B0957424239552N02441003EA005900063300000
B0957434239550N02441003EA005830063100000
B0957444239548N02441002EA005800063000000
B0957454239545N02441005EA005790062900000
B0957464239543N02441022EA005790062800000
B0957474239544N02441028EA005780062700000
B0957484239546N02441035EA005760062500000
B0957494239546N02441040EA005720062400000
B0957504239544N02441046EA005670062300000
B0957514239539N02441056EA005630061700000
B0957524239535N02441064EA005600061400000
B0957534239531N02441070EA005570061200000
B0957544239526N02441068EA005540060600000
B0957554239523N02441062EA005530060100000
B0957564239524N02441052EA005520059500000
B0957574239522N02441049EA005510058900000
B0957584239520N02441047EA005500058600000
B0957594239517N02441044EA005480058400000
B0958004239514N02441046EA005470058300000
B0958014239511N02441048EA005460058200000
B0958024239509N02441050EA005460057800000
B0958034239507N02441050EA005450057600000
B0958044239504N02441050EA005440057400000
B0958054239501N02441052EA005430057200000
B0958064239497N02441052EA005420057100000
B0958074239494N02441055EA005430057200000
B0958084239492N02441057EA005440057200000
B0958094239491N02441059EA005450057200000
B0958104239489N02441061EA005450057300000
B0958114239488N02441062EA005460057100000
B0958124239486N02441063EA005460057100000
B0958134239483N02441064EA005460057100000
B0958144239481N02441065EA005470057100000
B0958154239480N02441068EA005480057200000
B0958164239479N02441070EA005490057200000
B0958174239477N02441072EA005490057200000
B0958184239476N02441074EA005500057200000
B0958194239475N02441075EA005500057100000
B0958204239473N02441077EA005490056900000
B0958214239472N02441079EA005450056700000
B0958224239467N02441085EA005410056700000
B0958234239464N02441088EA005370056500000
B0958244239462N02441090EA005350056300000
B0958254239461N02441093EA005340056000000
B0958264239459N02441095EA005330056000000
B0958274239457N02441098EA005300055900000
B0958324239445N02441114EA005150053900000
B0958374239438N02441141EA005040052600000
B0958424239437N02441169EA004930051100000
B0958474239427N02441163EA004810050000000
B0958524239450N02441141EA004680047800000
B0958574239476N02441126EA004640047200000
B0959024239501N02441102EA004550046600000
B0959074239504N02441070EA004420045400000
B0959124239491N02441050EA004350044200000
B0959174239473N02441045EA004310043800000
B0959184239469N02441046EA004280043500000
B0959194239467N02441045EA004260043600000
B0959204239464N02441044EA004260043600000
B0959214239463N02441044EA004270043600000
B0959224239463N02441044EA004270043500000
B0959234239461N02441043EA004280043500000
B0959244239459N02441043EA004280043400000
B0959254239459N02441043EA004290043300000
B0959264239458N02441042EA004290043300000
B0959274239458N02441042EA004290043300000
B0959284239458N02441042EA004280043300000
B0959294239458N02441042EA004280043300000
B0959304239458N02441042EA004280043300000
B0959314239458N02441042EA004280043300000
B0959324239458N02441042EA004280043300000
B0959334239458N02441042EA004280043300000
B0959344239458N02441042EA004280043300000
B0959354239458N02441042EA004280043300000
B0959364239458N02441042EA004280043300000
B0959374239458N02441042EA004280043300000
B0959384239458N02441042EA004280043300000
B0959394239458N02441042EA004280043300000
B0959404239458N02441042EA004280043300000
B0959414239458N02441042EA004280043300000
B0959424239458N02441042EA004280043300000
B0959434239458N02441043EA004280043300000
B0959444239458N02441043EA004280043300000
B0959494239458N02441043EA004280043200000
B0959544239458N02441043EA004280043200000
B0959594239458N02441043EA004280043300000
B1000044239458N02441044EA004280043200000
B1000094239458N02441046EA004290043200000
B1000144239458N02441047EA004280043100000
B1000194239459N02441047EA004280043100000
B1000244239458N02441047EA004280043100000
B1000294239459N02441047EA004280043000000
B1000344239458N02441047EA004290043000000
B1000394239457N02441046EA004280042900000
B1000444239455N02441045EA004280042800000
B1000494239452N02441044EA004280042800000
B1000544239450N02441041EA004280042600000
B1000594239448N02441040EA004280042500000
B1001044239445N02441038EA004280042600000
B1001094239443N02441038EA004280042600000
B1001144239440N02441039EA004280042700000
B1001194239438N02441037EA004280042700000
B1001244239437N02441037EA004280042600000
B1001294239438N02441037EA004280042600000
B1001344239438N02441037EA004280042600000
B1001394239438N02441037EA004280042700000
B1001444239438N02441037EA004280042700000
B1001494239438N02441037EA004280042700000
B1001544239438N02441037EA004280042600000
B1001594239438N02441037EA004280042600000
B1002044239438N02441037EA004280042700000
B1002094239438N02441036EA004280042700000
B1002144239438N02441036EA004270042600000
B1002194239438N02441036EA004280042500000
B1002244239438N02441036EA004280042500000
B1002294239438N02441036EA004270042500000
B1002344239438N02441036EA004270042500000
B1002394239438N02441036EA004270042500000
B1002444239438N02441036EA004270042500000
B1002494239438N02441036EA004270042500000
B1002544239438N02441036EA004270042500000
B1002594239438N02441036EA004280042500000
B1003044239438N02441036EA004270042500000
B1003094239438N02441036EA004270042500000
B1003144239438N02441036EA004270042500000
B1003194239438N02441036EA004270042500000
B1003244239438N02441036EA004270042500000
B1003294239438N02441036EA004270042500000
B1003344239438N02441036EA004280042500000
B1003394239438N02441036EA004270042500000
B1003444239438N02441036EA004270042500000
B1003494239438N02441036EA004270042500000
B1003544239438N02441036EA004270042500000
B1003594239438N02441036EA004280042500000
B1004044239438N02441036EA004270042500000
B1004094239438N02441036EA004270042500000
B1004144239438N02441036EA004270042500000
B1004194239438N02441036EA004270042500000
B1004244239438N02441036EA004270042500000
B1004294239438N02441036EA004270042500000
B1004344239438N02441036EA004270042500000
B1004394239438N02441036EA004270042500000
B1004444239438N02441036EA004270042500000
B1004494239438N02441036EA004270042500000
B1004544239438N02441036EA004270042500000
B1004594239438N02441036EA004270042500000
B1005044239438N02441036EA004280042500000
B1005094239438N02441036EA004280042500000
B1005144239438N02441036EA004270042500000
B1005194239438N02441036EA004280042500000
B1005244239438N02441036EA004270042500000
B1005294239438N02441036EA004270042500000
B1005344239438N02441036EA004270042500000
B1005394239438N02441036EA004270042500000
B1005444239438N02441036EA004270042500000
B1005494239438N02441036EA004270042500000
B1005544239438N02441036EA004270042500000
B1005594239438N02441036EA004270042500000
B1006044239438N02441036EA004270042500000
B1006094239438N02441036EA004270042500000
B1006144239438N02441036EA004270042500000
B1006194239438N02441036EA004270042500000
B1006244239438N02441036EA004270042500000
B1006294239438N02441036EA004270042500000
B1006344239438N02441036EA004270042500000
B1006394239438N02441036EA004270042500000
B1006444239438N02441036EA004270042500000
B1006494239438N02441036EA004270042500000
B1006544239438N02441036EA004270042500000
B1006594239438N02441036EA004270042500000
B1007044239438N02441036EA004270042500000
B1007094239438N02441036EA004270042500000
B1007144239438N02441036EA004270042500000
B1007194239438N02441036EA004270042500000
B1007244239438N02441036EA004270042500000
B1007294239438N02441036EA004270042500000
B1007344239438N02441036EA004270042500000
B1007394239438N02441036EA004260042500000
B1007444239438N02441036EA004270042500000
B1007494239438N02441036EA004260042500000
B1007544239438N02441036EA004270042500000
B1007594239438N02441036EA004270042500000
B1008044239438N02441036EA004270042500000
B1008094239438N02441036EA004260042500000
B1008144239438N02441036EA004260042500000
B1008194239438N02441036EA004270042500000
B1008244239438N02441036EA004260042500000
B1008294239438N02441036EA004260042500000
B1008344239438N02441036EA004260042500000
B1008394239438N02441036EA004260042500000
B1008444239438N02441036EA004260042500000
B1008494239438N02441036EA004270042500000
B1008544239438N02441036EA004260042500000
B1008594239438N02441036EA004260042500000
B1009044239438N02441036EA004260042500000
B1009094239438N02441036EA004260042500000
B1009144239438N02441036EA004260042500000
B1009194239438N02441036EA004260042500000
B1009244239438N02441036EA004260042500000
B1009294239438N02441036EA004270042500000
B1009344239438N02441036EA004260042500000
B1009394239438N02441036EA004260042500000
B1009444239438N02441036EA004260042500000
B1009494239438N02441036EA004260042500000
B1009544239438N02441036EA004260042500000
B1009594239438N02441036EA004260042500000
B1010044239438N02441036EA004260042500000
B1010094239438N02441036EA004260042500000
B1010144239438N02441036EA004260042500000
B1010194239438N02441036EA004260042500000
B1010244239438N02441036EA004260042500000
B1010294239438N02441036EA004260042500000
B1010344239438N02441036EA004260042500000
B1010394239438N02441036EA004260042500000
B1010444239438N02441036EA004260042500000
B1010494239438N02441036EA004260042500000
B1010544239438N02441036EA004260042500000
B1010594239438N02441036EA004260042500000
B1011044239438N02441036EA004260042500000
B1011094239438N02441036EA004260042500000
B1011144239438N02441036EA004250042500000
B1011194239438N02441036EA004260042500000
B1011244239438N02441036EA004260042500000
B1011294239438N02441036EA004260042500000
B1011344239438N02441036EA004250042500000
B1011394239438N02441036EA004260042500000
B1011444239438N02441036EA004260042500000
B1011494239438N02441036EA004260042500000
B1011544239438N02441036EA004260042500000
B1011594239438N02441036EA004260042500000
B1012044239438N02441036EA004260042500000
B1012094239438N02441036EA004260042500000
B1012144239438N02441036EA004260042500000
B1012194239438N02441036EA004250042500000
B1012244239438N02441036EA004260042500000
B1012294239438N02441036EA004260042500000
B1012344239438N02441036EA004250042500000
B1012394239438N02441036EA004260042500000
B1012444239438N02441036EA004260042500000
B1012494239438N02441036EA004260042500000
B1012544239438N02441036EA004250042500000
B1012594239438N02441036EA004250042500000
B1013044239438N02441036EA004250042500000
B1013094239438N02441036EA004250042500000
B1013144239438N02441036EA004250042500000
B1013194239438N02441036EA004250042500000
B1013244239438N02441036EA004260042500000
B1013294239438N02441036EA004250042500000
B1013344239438N02441036EA004250042500000
B1013394239438N02441036EA004250042500000
B1013444239438N02441036EA004260042500000
B1013494239438N02441036EA004250042500000
B1013544239438N02441036EA004260042500000
B1013594239438N02441036EA004250042500000
B1014044239438N02441036EA004260042500000
B1014094239438N02441036EA004260042500000
B1014144239438N02441036EA004260042500000
B1014194239438N02441036EA004260042500000
B1014244239438N02441036EA004260042500000
B1014294239438N02441036EA004260042500000
B1014344239438N02441036EA004250042500000
B1014394239438N02441036EA004260042500000
B1014444239438N02441036EA004250042500000
B1014494239438N02441036EA004250042500000
B1014544239438N02441036EA004250042500000
B1014594239438N02441036EA004250042500000
B1015044239438N02441036EA004250042500000
B1015094239438N02441036EA004260042500000
B1015144239438N02441036EA004260042500000
B1015194239438N02441036EA004260042500000
B1015244239438N02441036EA004260042500000
B1015294239438N02441036EA004260042500000
B1015344239438N02441036EA004260042500000
B1015394239438N02441036EA004260042500000
B1015444239438N02441036EA004260042500000
B1015494239438N02441036EA004260042500000
B1015544239438N02441036EA004260042500000
B1015594239438N02441036EA004260042500000
B1016044239438N02441036EA004260042500000
B1016094239438N02441036EA004260042500000
B1016144239438N02441036EA004260042500000
B1016194239438N02441036EA004260042500000
B1016244239438N02441036EA004260042500000
B1016294239438N02441036EA004260042500000
B1016344239438N02441036EA004260042500000
B1016394239438N02441036EA004260042500000
B1016444239438N02441036EA004260042500000
B1016494239438N02441036EA004260042500000
B1016544239438N02441036EA004260042500000
B1016594239438N02441036EA004260042500000
B1017044239438N02441036EA004260042500000
B1017094239438N02441036EA004260042500000
B1017144239438N02441036EA004260042500000
B1017194239438N02441036EA004260042500000
B1017244239438N02441036EA004260042500000
B1017294239438N02441036EA004260042500000
B1017344239438N02441036EA004260042500000
B1017394239438N02441036EA004260042500000
B1017444239438N02441036EA004250042500000
B1017494239438N02441036EA004250042500000
B1017544239438N02441036EA004250042500000
B1017594239438N02441036EA004260042500000
B1018044239438N02441036EA004260042500000
B1018094239438N02441036EA004250042500000
B1018144239438N02441036EA004250042500000
B1018194239438N02441036EA004250042500000
B1018244239438N02441036EA004260042500000
B1018294239438N02441036EA004260042500000
B1018344239438N02441036EA004260042500000
B1018394239438N02441036EA004260042500000
B1018444239438N02441036EA004260042500000
B1018494239438N02441036EA004260042500000
B1018544239438N02441036EA004260042500000
B1018594239438N02441036EA004260042500000
B1019044239438N02441036EA004260042500000
B1019094239438N02441036EA004250042500000
B1019144239438N02441036EA004260042500000
B1019194239438N02441036EA004260042500000
B1019244239438N02441036EA004260042500000
B1019294239438N02441036EA004260042500000
B1019344239438N02441036EA004260042500000
B1019394239438N02441036EA004260042500000
B1019444239438N02441036EA004250042500000
B1019494239438N02441036EA004250042500000
B1019544239438N02441036EA004260042500000
B1019594239438N02441036EA004260042500000
B1020044239438N02441036EA004260042500000
B1020094239438N02441036EA004250042500000
B1020144239438N02441036EA004250042500000
B1020194239438N02441036EA004250042500000
B1020244239438N02441036EA004250042500000
B1020294239438N02441036EA004250042500000
B1020344239438N02441036EA004250042500000
B1020394239438N02441036EA004250042500000
B1020444239438N02441036EA004250042500000
B1020494239438N02441036EA004250042500000
B1020544239438N02441036EA004260042500000
Gbe9a6968c7ebbc0a
Gb2d830e07a740a49
G8edcbf5e77427651
Gada56ab200727a7b
Gdbf9bd4e94c622e6
G377e16ef5718c464
Ge1e8a0c168f89bdd
G3016d8b29e75a184
