AXCSAAA
HFDTE170515
HFFXA050
HFPLTPILOTINCHARGE:JOSH COHN
HFGTYGLIDERTYPE:ENZO 2
HFGIDGLIDERID:ENZO 2
HFCIDCOMPETITIONID:121
HFFTYFRTYPE:XCSOAR,XCSOAR Android 6.8_alpha1 Apr 14 2015
HFGPS:Internal GPS (Android)
HFDTM100DATUM:WGS-1984
I023638FXA3940SIU
C170515210317000000000005
C0000000N00000000ETAKEOFF
C3645916N11905906WDNLNCH
C3643790N11908069WGRNY
C3646886N11907285W49917
C3641889N11918328W63LZ
C3648024N11921581WTIVYMT
C3647403N11918463WELWOOD
C3647403N11918463WELWOOD
C0000000N00000000ELANDING
F210317
B2103173840053N12237678WA012630128600000
B2103223840052N12237679WA012630128500000
B2103273840052N12237682WA012610128500000
B2103333840053N12237683WA012610128300000
B2103383840053N12237685WA012610128300000
B2103433840053N12237685WA012610128300000
B2103483840053N12237685WA012600128300000
B2103533840053N12237685WA012610128300000
B2103583840053N12237685WA012610128300000
B2104033840053N12237685WA012610128300000
B2104083840053N12237684WA012610128200000
B2104133840053N12237686WA012600128000000
B2104183840051N12237686WA012600127800000
B2104233840051N12237685WA012590127800000
B2104283840051N12237685WA012590127800000
B2104333840051N12237685WA012590127800000
B2104383840051N12237687WA012580127700000
B2104433840050N12237688WA012580127600000
B2104483840050N12237687WA012570127500000
B2104533840050N12237687WA012580127500000
B2104583840050N12237687WA012570127500000
B2105033840050N12237687WA012570127500000
B2105083840050N12237687WA012570127500000
B2105133840050N12237687WA012570127500000
B2105183840050N12237687WA012570127500000
B2105233840050N12237687WA012570127500000
B2105283840050N12237687WA012570127500000
B2105333840050N12237687WA012570127500000
B2105383840050N12237687WA012580127500000
B2105433840045N12237692WA012490127300000
B2105483840032N12237712WA012490127100000
B2105533840024N12237728WA012500127100000
B2105583840018N12237746WA012450126600000
B2106033840014N12237761WA012430126300000
B2106083840007N12237787WA012390126100000
B2106133840006N12237803WA012430126300000
B2106183840006N12237819WA012410126200000
B2106233840004N12237831WA012410126000000
B2106283839996N12237852WA012330125800000
B2106333839992N12237868WA012330125200000
B2106383839980N12237887WA012300125200000
B2106433839970N12237903WA012260124700000
B2106483839965N12237918WA012290125000000
B2106533839961N12237930WA012300124900000
B2106583839963N12237950WA012270124700000
B2107033839966N12237975WA012250124400000
B2107083839967N12237999WA012230124100000
B2107133839971N12238020WA012250124400000
B2107183839960N12238029WA012210124100000
B2107233839956N12237995WA012190123900000
B2107283839970N12237965WA012220124100000
B2107333839962N12237941WA012150123400000
B2107383839952N12237956WA012170123700000
B2107433839946N12237971WA012140123500000
B2107483839941N12237987WA012110123000000
B2107533839939N12238006WA012050122600000
B2107583839942N12238025WA012000122200000
B2108033839941N12238046WA011940122200000
B2108083839938N12238063WA011980122300000
B2108133839936N12238079WA012020122500000
B2108183839926N12238095WA012030122700000
B2108233839907N12238069WA011980122200000
B2108283839898N12238035WA011950121900000
B2108333839905N12237999WA011900121200000
B2108383839927N12237984WA011860120800000
B2108433839951N12237970WA011810120700000
B2108483839971N12237947WA011800120200000
B2108533839987N12237922WA011800120100000
B2108583840002N12237893WA011840120400000
B2109033839999N12237860WA011730119600000
B2109083839981N12237869WA011730119300000
B2109133839973N12237889WA011720119200000
B2109153839972N12237899WA011730119300000
B2109163839971N12237903WA011730119300000
B2109173839970N12237907WA011740119400000
B2109183839970N12237911WA011730119300000
B2109193839968N12237915WA011720119300000
B2109203839969N12237920WA011720119300000
B2109213839968N12237925WA011710119200000
B2109223839966N12237931WA011720119200000
B2109233839965N12237935WA011720119100000
B2109243839964N12237939WA011720119200000
B2109253839963N12237943WA011720119300000
B2109263839962N12237947WA011720119300000
B2109273839960N12237952WA011740119500000
B2109283839960N12237955WA011760119700000
B2109293839960N12237958WA011770119800000
B2109343839953N12237979WA011760119700000
B2109393839953N12237999WA011750119700000
B2109443839960N12238022WA011790120100000
B2109493839959N12238041WA011810120100000
B2109543839958N12238054WA011830120000000
B2109593839954N12238068WA011810120000000
B2110043839944N12238076WA011800119900000
B2110093839931N12238085WA011700119000000
B2110143839914N12238093WA011600118300000
B2110193839908N12238116WA011520117500000
B2110243839908N12238140WA011530117600000
B2110293839911N12238158WA011490117200000
B2110343839924N12238169WA011600118200000
B2110393839916N12238184WA011540117500000
B2110443839911N12238152WA011570117500000
B2110493839917N12238118WA011580117400000
B2110523839905N12238122WA011590117700000
B2110533839906N12238127WA011590117700000
B2110543839909N12238132WA011590117800000
B2110553839912N12238134WA011610118000000
B2110563839915N12238137WA011620118100000
B2110573839918N12238138WA011630118100000
B2110583839920N12238140WA011630118100000
B2110593839922N12238143WA011630118100000
B2111003839923N12238147WA011630118100000
B2111013839922N12238152WA011620118000000
B2111023839920N12238156WA011610118100000
B2111033839916N12238158WA011600118000000
B2111043839911N12238156WA011580117800000
B2111053839906N12238151WA011570117800000
B2111063839903N12238143WA011560117700000
B2111073839902N12238136WA011560117700000
B2111083839902N12238127WA011560117700000
B2111093839906N12238121WA011560117600000
B2111103839912N12238115WA011560117600000
B2111113839914N12238109WA011560117600000
B2111123839917N12238103WA011560117600000
B2111133839918N12238095WA011540117600000
B2111143839919N12238086WA011530117400000
B2111153839920N12238078WA011530117500000
B2111163839920N12238070WA011530117500000
B2111173839918N12238063WA011530117400000
B2111183839913N12238058WA011520117200000
B2111193839908N12238058WA011500116900000
B2111203839903N12238058WA011480116800000
B2111213839898N12238059WA011460116700000
B2111223839898N12238066WA011460116800000
B2111233839897N12238069WA011460116700000
B2111243839896N12238071WA011460116700000
B2111253839895N12238075WA011460116800000
B2111263839894N12238078WA011470117000000
B2111273839893N12238081WA011490117100000
B2111283839893N12238083WA011500117300000
B2111293839894N12238085WA011520117300000
B2111303839895N12238088WA011530117300000
B2111313839897N12238092WA011520117300000
B2111323839901N12238095WA011520117400000
B2111333839907N12238094WA011520117400000
B2111343839912N12238091WA011510117200000
B2111353839916N12238085WA011500117100000
B2111363839919N12238078WA011490116900000
B2111373839921N12238069WA011470116700000
B2111383839921N12238061WA011450116600000
B2111393839921N12238053WA011440116500000
B2111403839920N12238046WA011440116500000
B2111413839917N12238039WA011440116400000
B2111423839913N12238034WA011440116400000
B2111433839909N12238031WA011440116400000
B2111443839905N12238029WA011440116300000
B2111453839902N12238029WA011430116200000
B2111463839899N12238032WA011420116100000
B2111473839896N12238035WA011400115900000
B2111483839895N12238040WA011390115900000
B2111493839894N12238045WA011390115900000
B2111503839895N12238048WA011390116000000
B2111513839896N12238051WA011400116100000
B2111523839896N12238053WA011410116000000
B2111533839896N12238057WA011410115900000
B2111543839895N12238060WA011410116000000
B2111553839894N12238064WA011420116100000
B2111563839894N12238067WA011440116100000
B2111573839892N12238068WA011450116400000
B2111583839891N12238071WA011460116400000
B2111593839889N12238073WA011470116500000
B2112003839887N12238076WA011470116600000
B2112013839886N12238079WA011480116700000
B2112023839885N12238081WA011490116700000
B2112033839884N12238083WA011490116700000
B2112083839879N12238100WA011440116500000
B2112133839875N12238114WA011500117000000
B2112183839875N12238130WA011530117400000
B2112233839893N12238131WA011470116900000
B2112283839893N12238095WA011370115700000
B2112333839872N12238086WA011330115300000
B2112343839869N12238087WA011340115400000
B2112353839865N12238090WA011350115500000
B2112363839862N12238090WA011360115500000
B2112373839860N12238091WA011370115500000
B2112383839858N12238092WA011360115400000
B2112393839857N12238096WA011340115300000
B2112403839856N12238100WA011310115000000
B2112413839855N12238104WA011290114900000
B2112423839855N12238109WA011270114800000
B2112433839854N12238113WA011260114800000
B2112453839855N12238122WA011220114600000
B2112463839855N12238126WA011220114500000
B2112473839857N12238132WA011210114500000
B2112483839858N12238136WA011210114500000
B2112493839859N12238140WA011200114300000
B2112503839860N12238144WA011200114200000
B2112513839860N12238149WA011180114200000
B2112523839862N12238152WA011170114000000
B2112533839864N12238156WA011160113900000
B2112543839866N12238161WA011140113800000
B2112553839867N12238166WA011130113800000
B2112563839869N12238171WA011130113800000
B2112573839870N12238174WA011130113800000
B2113003839874N12238187WA011130113700000
B2113013839876N12238190WA011130113800000
B2113063839886N12238208WA011070113100000
B2113113839896N12238232WA011010112600000
B2113163839910N12238253WA010970112100000
B2113213839925N12238275WA010920111500000
B2113263839939N12238295WA010870111000000
B2113313839949N12238319WA010820110800000
B2113363839962N12238341WA010930111600000
B2113413839977N12238328WA010880111100000
B2113483839963N12238306WA010960112900000
B2113513839951N12238306WA010970111800000
B2113523839949N12238311WA010940111600000
B2113533839954N12238319WA010930111500000
B2113543839958N12238326WA010920111400000
B2113553839963N12238332WA010930111400000
B2113563839971N12238323WA010950111500000
B2113573839976N12238321WA010970111500000
B2113583839981N12238317WA010980111500000
B2113593839984N12238312WA010990111400000
B2114003839983N12238306WA010990111300000
B2114013839981N12238300WA010980111100000
B2114023839977N12238295WA010960111100000
B2114033839972N12238292WA010960111200000
B2114043839968N12238292WA010980111300000
B2114053839965N12238293WA011000111400000
B2114063839962N12238295WA011020111600000
B2114073839961N12238296WA011030111600000
B2114083839958N12238297WA011030111600000
B2114093839955N12238298WA011030111400000
B2114103839952N12238300WA011020111400000
B2114113839950N12238302WA011010111400000
B2114123839947N12238305WA011000111400000
B2114133839945N12238309WA011000111400000
B2114143839945N12238313WA011000111400000
B2114153839944N12238319WA011000111300000
B2114163839948N12238324WA010990111300000
B2114173839952N12238330WA010990111300000
B2114183839957N12238333WA010990111300000
B2114193839964N12238331WA011000111400000
B2114203839971N12238328WA011000111400000
B2114213839977N12238325WA011000111500000
B2114223839982N12238323WA011010111500000
B2114233839987N12238323WA011000111500000
B2114243839994N12238323WA010990111500000
B2114253840000N12238324WA010990111500000
B2114263840005N12238326WA010990111600000
B2114273840010N12238329WA010990111700000
B2114283840015N12238332WA010990111600000
B2114293840018N12238337WA010990111500000
B2114303840020N12238343WA010980111600000
B2114313840021N12238349WA010980111600000
B2114323840022N12238353WA010980111700000
B2114353840022N12238365WA010990111600000
B2114363840022N12238369WA010980111500000
B2114373840022N12238373WA010980111500000
B2114383840021N12238376WA010970111500000
B2114393840021N12238380WA010970111500000
B2114403840021N12238384WA010980111700000
B2114413840022N12238389WA010990111800000
B2114423840022N12238393WA011020112200000
B2114433840023N12238396WA011050112500000
B2114443840022N12238400WA011070112500000
B2114453840021N12238403WA011080112500000
B2114463840018N12238406WA011080112500000
B2114473840016N12238409WA011080112400000
B2114483840012N12238405WA011090112600000
B2114493840009N12238402WA011090112700000
B2114503840007N12238398WA011100112700000
B2114513840012N12238388WA011110112600000
B2114523840017N12238381WA011110112900000
B2114533840023N12238376WA011120113000000
B2114543840030N12238372WA011140113100000
B2114553840038N12238375WA011150113000000
B2114563840044N12238378WA011160113300000
B2114573840046N12238385WA011180113500000
B2114583840046N12238390WA011200113800000
B2114593840045N12238395WA011220113800000
B2115003840042N12238399WA011250113800000
B2115013840038N12238402WA011260113900000
B2115023840035N12238402WA011270114100000
B2115033840031N12238404WA011270114100000
B2115043840029N12238397WA011250113900000
B2115053840028N12238391WA011240114000000
B2115063840027N12238385WA011230113900000
B2115073840035N12238376WA011230114100000
B2115083840038N12238369WA011250114200000
B2115093840045N12238372WA011260114300000
B2115103840052N12238372WA011260114200000
B2115113840058N12238376WA011250114200000
B2115123840064N12238383WA011240114100000
B2115133840063N12238392WA011230114000000
B2115143840061N12238398WA011210113900000
B2115153840059N12238404WA011200113800000
B2115163840058N12238408WA011200113800000
B2115173840057N12238408WA011200113700000
B2115183840054N12238400WA011200113800000
B2115193840052N12238399WA011210113800000
B2115203840050N12238397WA011210113800000
B2115213840048N12238397WA011210113800000
B2115223840046N12238396WA011210113700000
B2115233840044N12238395WA011210113700000
B2115243840042N12238394WA011200113600000
B2115253840039N12238392WA011190113500000
B2115263840036N12238391WA011170113300000
B2115273840033N12238390WA011160113300000
B2115283840029N12238390WA011150113400000
B2115293840025N12238390WA011140113200000
B2115303840021N12238390WA011120112900000
B2115313840017N12238391WA011100112700000
B2115353840003N12238402WA010990112400000
B2115363840000N12238407WA010960112100000
B2115373839997N12238411WA010930111900000
B2115383839995N12238414WA010910111900000
B2115393839993N12238418WA010890111600000
B2115403839990N12238421WA010880111400000
B2115413839987N12238424WA010870111300000
B2115423839984N12238428WA010840111100000
B2115433839982N12238436WA010830110700000
B2115463839975N12238450WA010830110500000
B2115473839973N12238453WA010830110400000
B2115523839961N12238468WA010800110000000
B2115573839948N12238484WA010730109200000
B2116023839932N12238508WA010630108500000
B2116073839918N12238537WA010600108200000
B2116123839911N12238558WA010640108400000
B2116173839904N12238573WA010640108200000
B2116223839894N12238587WA010670108600000
B2116273839881N12238594WA010650108400000
B2116333839865N12238605WA010740109200000
B2116383839859N12238622WA010800109800000
B2116433839846N12238608WA010790109900000
B2116483839864N12238585WA010810109900000
B2116533839890N12238597WA010850110600000
B2116553839895N12238606WA010870110700000
B2116563839895N12238610WA010880110800000
B2116573839894N12238616WA010890110900000
B2116583839892N12238621WA010900111200000
B2116593839889N12238624WA010920111400000
B2117003839885N12238625WA010960111700000
B2117013839882N12238625WA010990111800000
B2117043839870N12238615WA011070112200000
B2117053839867N12238608WA011090112400000
B2117063839871N12238600WA011120112900000
B2117073839876N12238594WA011160113100000
B2117083839881N12238589WA011170113300000
B2117093839887N12238588WA011170113100000
B2117103839894N12238589WA011160113100000
B2117113839900N12238594WA011150113200000
B2117123839905N12238598WA011140113200000
B2117133839908N12238604WA011160113200000
B2117143839910N12238612WA011200113300000
B2117153839910N12238617WA011240113700000
B2117163839910N12238620WA011270113800000
B2117173839907N12238624WA011290113900000
B2117183839904N12238627WA011300114100000
B2117193839898N12238628WA011300114300000
B2117203839893N12238626WA011320114600000
B2117213839889N12238623WA011350114700000
B2117223839885N12238615WA011380114800000
B2117233839883N12238608WA011420114900000
B2117243839886N12238602WA011440114900000
B2117253839898N12238596WA011470115300000
B2117263839904N12238592WA011490115600000
B2117273839909N12238594WA011500115900000
B2117283839915N12238597WA011510116200000
B2117293839919N12238603WA011520116200000
B2117303839922N12238609WA011540116100000
B2117313839921N12238618WA011560116300000
B2117323839916N12238621WA011580116600000
B2117333839911N12238624WA011600116700000
B2117343839906N12238625WA011600116800000
B2117353839902N12238623WA011610117000000
B2117363839898N12238620WA011620117300000
B2117373839894N12238614WA011650117400000
B2117383839891N12238607WA011670117500000
B2117393839890N12238601WA011710117700000
B2117403839892N12238593WA011750118000000
B2117433839907N12238585WA011830118700000
B2117443839913N12238587WA011850118900000
B2117453839917N12238591WA011870119200000
B2117463839919N12238596WA011870119400000
B2117473839919N12238602WA011890119600000
B2117483839916N12238607WA011900119700000
B2117493839913N12238612WA011890119800000
B2117503839907N12238612WA011880119900000
B2117513839901N12238612WA011880119800000
B2117523839896N12238607WA011880120000000
B2117533839892N12238601WA011900120500000
B2117543839889N12238596WA011950120900000
B2117563839885N12238584WA012050121500000
B2117573839887N12238577WA012060121500000
B2117583839890N12238568WA012070121700000
B2117593839893N12238560WA012080121800000
B2118003839900N12238555WA012100122000000
B2118013839905N12238558WA012130122600000
B2118023839909N12238561WA012160122800000
B2118033839911N12238567WA012190123200000
B2118043839911N12238572WA012220123400000
B2118053839910N12238577WA012240123700000
B2118063839907N12238581WA012260123900000
B2118073839903N12238584WA012260123900000
B2118083839897N12238582WA012250123900000
B2118093839891N12238576WA012250123900000
B2118103839885N12238570WA012260124000000
B2118113839880N12238563WA012290124000000
B2118123839877N12238555WA012330124000000
B2118133839879N12238550WA012370124100000
B2118143839884N12238543WA012400124600000
B2118153839889N12238538WA012430124800000
B2118163839894N12238534WA012440124900000
B2118173839900N12238532WA012450125400000
B2118183839906N12238533WA012470125500000
B2118193839908N12238538WA012500126000000
B2118203839908N12238542WA012530126600000
B2118213839907N12238547WA012560126900000
B2118223839906N12238551WA012590127200000
B2118233839900N12238554WA012610127400000
B2118243839893N12238552WA012620127500000
B2118253839888N12238548WA012630127600000
B2118263839884N12238541WA012630127600000
B2118273839883N12238533WA012630127800000
B2118283839884N12238524WA012640128000000
B2118293839888N12238517WA012660128500000
B2118303839892N12238511WA012690128700000
B2118313839899N12238508WA012710129000000
B2118323839905N12238509WA012750129200000
B2118333839910N12238511WA012780129500000
B2118343839912N12238516WA012820129800000
B2118353839913N12238521WA012850130200000
B2118363839910N12238525WA012880130400000
B2118373839904N12238527WA012900130400000
B2118383839897N12238524WA012910130500000
B2118393839890N12238519WA012920130600000
B2118403839886N12238512WA012940130700000
B2118413839889N12238502WA012960131100000
B2118423839890N12238493WA012990131300000
B2118433839892N12238485WA013000131300000
B2118443839896N12238477WA013020131400000
B2118453839900N12238471WA013030131500000
B2118463839909N12238471WA013060131500000
B2118473839913N12238477WA013080132100000
B2118483839916N12238482WA013100132400000
B2118493839918N12238487WA013130132800000
B2118503839917N12238492WA013150133000000
B2118513839914N12238495WA013160133200000
B2118523839909N12238496WA013160133100000
B2118533839904N12238494WA013150133100000
B2118543839897N12238490WA013150133200000
B2118553839892N12238483WA013160133500000
B2118563839889N12238476WA013190133900000
B2118573839888N12238468WA013230134200000
B2118583839889N12238460WA013250134300000
B2118593839891N12238453WA013270134200000
B2119003839893N12238445WA013280134200000
B2119013839900N12238440WA013280134400000
B2119023839905N12238436WA013290134400000
B2119033839910N12238436WA013280134500000
B2119043839915N12238438WA013290134500000
B2119053839919N12238440WA013290134500000
B2119063839921N12238443WA013310134600000
B2119073839920N12238450WA013330134600000
B2119083839918N12238455WA013350134700000
B2119093839910N12238452WA013360134800000
B2119103839906N12238451WA013370134800000
B2119113839902N12238443WA013370134900000
B2119123839900N12238435WA013370135200000
B2119133839898N12238428WA013390135200000
B2119143839898N12238420WA013410135300000
B2119153839900N12238412WA013430135500000
B2119163839902N12238405WA013430135500000
B2119173839907N12238399WA013420135400000
B2119183839912N12238395WA013410135600000
B2119193839917N12238391WA013400135500000
B2119203839922N12238395WA013390135500000
B2119213839925N12238398WA013380135500000
B2119223839927N12238404WA013390135500000
B2119233839927N12238408WA013390135700000
B2119243839926N12238412WA013410135800000
B2119253839924N12238414WA013420135800000
B2119263839922N12238415WA013430135900000
B2119273839920N12238417WA013440136000000
B2119283839917N12238419WA013450136100000
B2119293839913N12238419WA013450136100000
B2119303839908N12238416WA013440136000000
B2119313839903N12238411WA013430135800000
B2119323839900N12238403WA013410135800000
B2119343839898N12238385WA013410136100000
B2119353839900N12238375WA013430136400000
B2119363839902N12238367WA013470136800000
B2119373839904N12238360WA013510136900000
B2119383839906N12238354WA013520136900000
B2119393839911N12238349WA013520136800000
B2119403839916N12238345WA013490136600000
B2119413839922N12238345WA013470136500000
B2119423839926N12238348WA013450136600000
B2119433839928N12238353WA013430136500000
B2119443839927N12238358WA013440136600000
B2119453839925N12238362WA013450136900000
B2119463839923N12238364WA013480137100000
B2119473839921N12238365WA013500137200000
B2119483839919N12238365WA013510137100000
B2119493839915N12238365WA013500137000000
B2119503839910N12238363WA013480136800000
B2119513839904N12238357WA013470136800000
B2119523839899N12238351WA013460136800000
B2119533839893N12238343WA013470136800000
B2119543839890N12238333WA013470136700000
B2119553839895N12238322WA013470136600000
B2119563839899N12238312WA013470136700000
B2119573839904N12238305WA013480136900000
B2119583839911N12238301WA013480136900000
B2119593839915N12238302WA013480136900000
B2120003839919N12238304WA013460136700000
B2120013839921N12238308WA013450136600000
B2120023839924N12238311WA013440136600000
B2120033839925N12238313WA013450136700000
B2120043839926N12238315WA013460136900000
B2120053839928N12238316WA013460136800000
B2120063839929N12238318WA013460136700000
B2120073839929N12238320WA013450136400000
B2120083839928N12238323WA013430136100000
B2120093839925N12238325WA013410135900000
B2120103839922N12238327WA013390135800000
B2120113839918N12238327WA013380135700000
B2120123839913N12238323WA013380135600000
B2120133839909N12238317WA013370135300000
B2120143839905N12238309WA013360135200000
B2120153839906N12238297WA013340135100000
B2120163839907N12238287WA013320134900000
B2120173839910N12238276WA013310135000000
B2120183839915N12238265WA013320134900000
B2120193839918N12238255WA013320134900000
B2120203839920N12238247WA013330135100000
B2120213839923N12238243WA013320134700000
B2120223839925N12238238WA013290134400000
B2120233839929N12238231WA013260134200000
B2120243839933N12238224WA013230134000000
B2120253839936N12238217WA013200134100000
B2120263839940N12238210WA013190134100000
B2120273839944N12238204WA013180133900000
B2120283839948N12238198WA013160133600000
B2120293839951N12238192WA013120133200000
B2120303839954N12238184WA013090132800000
B2120313839958N12238176WA013040132500000
B2120323839961N12238168WA013020132300000
B2120333839963N12238160WA012990132200000
B2120343839964N12238152WA012980132000000
B2120353839966N12238144WA012970131900000
B2120403839974N12238106WA012920131400000
B2120453839968N12238066WA012940131600000
B2120503839966N12238032WA012950131700000
B2120553839966N12237999WA012960131700000
B2121003839966N12237966WA013030131900000
B2121053839952N12237950WA013040132100000
B2121103839946N12237963WA013120132900000
B2121153839967N12237971WA013190133600000
B2121173839978N12237961WA013210133900000
B2121183839982N12237955WA013230134000000
B2121193839984N12237947WA013230134100000
B2121203839985N12237938WA013240134000000
B2121213839984N12237929WA013240134100000
B2121223839982N12237921WA013250134300000
B2121233839980N12237916WA013260134300000
B2121243839975N12237913WA013280134400000
B2121253839971N12237913WA013280134500000
B2121283839963N12237916WA013320134900000
B2121293839962N12237918WA013330135200000
B2121303839962N12237921WA013340135200000
B2121313839963N12237925WA013360135300000
B2121323839965N12237929WA013370135500000
B2121333839968N12237932WA013380135500000
B2121343839971N12237934WA013390135500000
B2121353839974N12237934WA013400135500000
B2121363839980N12237932WA013410135500000
B2121373839987N12237928WA013430135600000
B2121383839988N12237915WA013440135600000
B2121393839988N12237906WA013460135700000
B2121403839987N12237897WA013460135800000
B2121413839984N12237890WA013470135900000
B2121433839977N12237882WA013490136200000
B2121443839974N12237881WA013510136300000
B2121453839971N12237881WA013520136400000
B2121463839969N12237883WA013540136600000
B2121473839968N12237885WA013550136700000
B2121483839967N12237887WA013560136800000
B2121493839969N12237892WA013560136800000
B2121503839970N12237894WA013570136900000
B2121513839973N12237895WA013570137000000
B2121523839977N12237897WA013570137000000
B2121533839984N12237895WA013580137100000
B2121543839990N12237890WA013590137300000
B2121553839995N12237885WA013600137500000
B2121563839999N12237878WA013620137800000
B2121573840002N12237869WA013630137800000
B2121583840001N12237859WA013630137700000
B2121593839999N12237850WA013630137700000
B2122003839996N12237843WA013640137900000
B2122013839991N12237839WA013640138000000
B2122023839987N12237838WA013650138100000
B2122033839983N12237838WA013650138200000
B2122043839980N12237840WA013660138300000
B2122063839978N12237844WA013670138500000
B2122073839980N12237846WA013670138500000
B2122083839981N12237848WA013660138400000
B2122093839982N12237852WA013660138300000
B2122103839982N12237856WA013660138300000
B2122113839984N12237859WA013670138400000
B2122123839985N12237862WA013680138500000
B2122133839986N12237864WA013700138600000
B2122143839988N12237866WA013710138700000
B2122153839989N12237869WA013710138600000
B2122163839991N12237872WA013710138600000
B2122173839993N12237875WA013710138600000
B2122183839994N12237878WA013710138600000
B2122193839995N12237882WA013700138600000
B2122203839997N12237887WA013690138500000
B2122213839998N12237893WA013680138500000
B2122223840000N12237898WA013690138400000
B2122233840000N12237902WA013710138700000
B2122243840001N12237906WA013720138800000
B2122253840001N12237909WA013740138800000
B2122263840001N12237913WA013750138900000
B2122273840001N12237916WA013750138900000
B2122283840001N12237920WA013750138900000
B2122293840002N12237924WA013750139000000
B2122303840003N12237929WA013740139000000
B2122313840004N12237934WA013740139000000
B2122323840006N12237939WA013740139100000
B2122333840007N12237944WA013740139200000
B2122343840009N12237948WA013740139200000
B2122353840010N12237952WA013750139200000
B2122363840011N12237955WA013760139300000
B2122373840013N12237958WA013760139300000
B2122383840014N12237962WA013760139300000
B2122393840015N12237967WA013750139200000
B2122403840016N12237970WA013730139100000
B2122413840017N12237974WA013720138800000
B2122423840018N12237978WA013700138600000
B2122433840020N12237982WA013680138600000
B2122443840021N12237985WA013660138500000
B2122453840022N12237989WA013640138500000
B2122503840024N12238009WA013570138100000
B2122553840026N12238034WA013460137600000
B2123003840030N12238062WA013340137100000
B2123053840033N12238087WA013280136300000
B2123103840031N12238111WA013140135200000
B2123153840021N12238133WA013140134400000
B2123203840004N12238146WA013100133400000
B2123253839985N12238156WA013060132800000
B2123303839971N12238169WA012920131200000
B2123353839965N12238198WA012740129700000
B2123403839972N12238224WA012700129000000
B2123453839982N12238249WA012740129000000
B2123503839995N12238270WA012680128700000
B2123553840006N12238297WA012650128600000
B2124013840026N12238316WA012630128100000
B2124063840046N12238330WA012620127900000
B2124113840054N12238348WA012590127500000
B2124163840055N12238368WA012580127400000
B2124213840053N12238392WA012620127600000
B2124263840048N12238413WA012660128200000
B2124313840034N12238416WA012690128500000
B2124363840018N12238428WA012720129100000
B2124413840032N12238445WA012760129000000
B2124463840034N12238413WA012810129300000
B2124513840020N12238419WA012880130200000
B2124563840005N12238402WA012950130800000
B2125013840017N12238375WA013050131600000
B2125063840040N12238378WA013120132200000
B2125113840022N12238392WA013220133100000
B2125123840017N12238387WA013240133200000
B2125133840015N12238380WA013260133700000
B2125143840013N12238374WA013280133900000
B2125153840012N12238369WA013300134000000
B2125163840011N12238363WA013310134100000
B2125173840012N12238356WA013320134100000
B2125183840014N12238349WA013330134300000
B2125193840020N12238344WA013330134500000
B2125203840025N12238341WA013330134500000
B2125213840032N12238339WA013340134700000
B2125223840037N12238339WA013340134800000
B2125233840041N12238343WA013350135000000
B2125243840044N12238346WA013360134900000
B2125253840047N12238350WA013380135100000
B2125263840049N12238354WA013410135600000
B2125273840051N12238358WA013430135700000
B2125283840050N12238361WA013440135900000
B2125313840039N12238371WA013440136100000
B2125323840034N12238367WA013450136300000
B2125333840031N12238362WA013460136400000
B2125343840027N12238357WA013480136500000
B2125353840027N12238350WA013490136500000
B2125363840027N12238344WA013490136600000
B2125373840027N12238336WA013500136800000
B2125383840028N12238329WA013510136900000
B2125393840030N12238323WA013520136900000
B2125403840035N12238317WA013530137000000
B2125413840040N12238311WA013540137000000
B2125423840044N12238307WA013550137100000
B2125433840050N12238305WA013550137000000
B2125443840056N12238305WA013550137100000
B2125453840060N12238307WA013550137000000
B2125463840065N12238309WA013560136900000
B2125473840065N12238314WA013580137000000
B2125483840067N12238319WA013590137000000
B2125493840066N12238323WA013610137200000
B2125503840064N12238326WA013620137300000
B2125513840061N12238328WA013620137400000
B2125523840056N12238328WA013620137400000
B2125533840052N12238325WA013620137300000
B2125543840048N12238321WA013620137400000
B2125553840047N12238314WA013620137500000
B2125563840044N12238307WA013620137600000
B2125573840045N12238298WA013630137800000
B2125583840045N12238290WA013650137900000
B2125593840046N12238282WA013670138000000
B2126003840048N12238276WA013690138100000
B2126013840055N12238270WA013710138200000
B2126023840060N12238266WA013710138200000
B2126033840066N12238262WA013710138300000
B2126043840072N12238261WA013700138300000
B2126053840076N12238264WA013680138300000
B2126063840081N12238265WA013670138200000
B2126073840081N12238271WA013660138000000
B2126083840081N12238276WA013660138000000
B2126093840081N12238279WA013660138100000
B2126103840079N12238282WA013660138100000
B2126113840078N12238286WA013670138300000
B2126143840072N12238291WA013710138400000
B2126153840069N12238290WA013710138500000
B2126163840065N12238286WA013700138300000
B2126173840062N12238280WA013680138200000
B2126183840060N12238271WA013670138100000
B2126193840061N12238262WA013660138400000
B2126203840063N12238255WA013670138500000
B2126213840066N12238248WA013690138800000
B2126223840070N12238243WA013700138900000
B2126233840074N12238237WA013720139000000
B2126243840077N12238232WA013730139100000
B2126253840082N12238228WA013740139100000
B2126263840086N12238226WA013730139100000
B2126273840092N12238226WA013720139100000
B2126283840097N12238228WA013710139000000
B2126293840101N12238230WA013710139200000
B2126303840105N12238233WA013710139200000
B2126313840108N12238237WA013710139000000
B2126323840110N12238242WA013710139000000
B2126333840111N12238247WA013700138900000
B2126343840109N12238250WA013690138500000
B2126353840105N12238252WA013680138400000
B2126363840100N12238252WA013670138400000
B2126373840096N12238249WA013670138600000
B2126383840093N12238244WA013680138700000
B2126393840091N12238240WA013680138600000
B2126403840089N12238236WA013690138500000
B2126413840086N12238232WA013680138500000
B2126423840083N12238228WA013670138400000
B2126433840080N12238222WA013670138400000
B2126443840077N12238218WA013670138300000
B2126453840075N12238214WA013670138400000
B2126463840072N12238211WA013670138400000
B2126473840069N12238208WA013660138300000
B2126483840065N12238208WA013640138300000
B2126493840063N12238214WA013620138100000
B2126503840063N12238219WA013610138200000
B2126513840063N12238223WA013620138300000
B2126523840066N12238226WA013630138300000
B2126533840069N12238228WA013630138000000
B2126543840072N12238229WA013620137900000
B2126553840076N12238232WA013590137600000
B2126563840079N12238235WA013570137600000
B2126573840082N12238239WA013570137700000
B2126583840084N12238242WA013580137900000
B2126593840086N12238245WA013600138000000
B2127013840088N12238251WA013640138200000
B2127023840088N12238255WA013650138300000
B2127033840089N12238259WA013660138400000
B2127043840089N12238263WA013670138300000
B2127053840089N12238268WA013680138500000
B2127063840088N12238272WA013690138700000
B2127073840088N12238276WA013700138700000
B2127083840088N12238280WA013710138700000
B2127093840088N12238283WA013710138600000
B2127103840087N12238288WA013710138700000
B2127113840087N12238292WA013700138700000
B2127123840086N12238296WA013700138800000
B2127133840086N12238300WA013710138800000
B2127143840085N12238304WA013710138700000
B2127153840086N12238308WA013710138700000
B2127163840087N12238313WA013710138800000
B2127173840088N12238318WA013720138800000
B2127223840086N12238341WA013660138100000
B2127273840078N12238368WA013560137300000
B2127323840069N12238391WA013530136900000
B2127373840062N12238418WA013470136400000
B2127423840059N12238448WA013390135600000
B2127473840052N12238479WA013380135400000
B2127523840045N12238510WA013330135000000
B2127573840041N12238537WA013370135200000
B2128023840037N12238556WA013340134700000
B2128073840030N12238573WA013330134600000
B2128123840027N12238589WA013350135000000
B2128173840025N12238609WA013470136300000
B2128223840034N12238627WA013550136800000
B2128273840043N12238596WA013610137100000
B2128323840025N12238593WA013670137900000
B2128353840033N12238606WA013690138200000
B2128363840037N12238608WA013700138300000
B2128373840043N12238602WA013710138400000
B2128383840048N12238597WA013720138500000
B2128393840048N12238589WA013720138600000
B2128403840048N12238582WA013720138600000
B2128413840046N12238573WA013730138600000
B2128423840042N12238567WA013730138500000
B2128433840038N12238563WA013730138600000
B2128453840028N12238562WA013760138900000
B2128463840026N12238565WA013770139200000
B2128473840024N12238567WA013770139400000
B2128483840023N12238571WA013780139500000
B2128493840021N12238575WA013780139500000
B2128503840020N12238580WA013790139600000
B2128513840019N12238584WA013790139600000
B2128523840022N12238590WA013790139600000
B2128533840026N12238593WA013790139400000
B2128543840031N12238595WA013790139400000
B2128553840037N12238592WA013780139300000
B2128563840042N12238588WA013780139200000
B2128573840045N12238582WA013770139300000
B2128583840047N12238574WA013770139300000
B2128593840048N12238567WA013760139400000
B2129003840047N12238560WA013750139300000
B2129013840044N12238555WA013740139100000
B2129023840040N12238550WA013730139200000
B2129033840034N12238548WA013730139100000
B2129043840029N12238548WA013730139100000
B2129053840025N12238549WA013740139100000
B2129063840021N12238552WA013750139200000
B2129073840019N12238555WA013760139300000
B2129083840016N12238557WA013770139400000
B2129093840015N12238561WA013780139600000
B2129103840014N12238565WA013790139600000
B2129113840015N12238569WA013790139600000
B2129123840016N12238573WA013790139600000
B2129133840017N12238576WA013780139500000
B2129143840019N12238580WA013760139300000
B2129153840020N12238585WA013740139200000
B2129163840021N12238592WA013710138900000
B2129173840021N12238598WA013690138800000
B2129183840021N12238605WA013680138800000
B2129193840021N12238612WA013680138700000
B2129203840022N12238618WA013670138600000
B2129213840023N12238626WA013660138300000
B2129223840024N12238634WA013650138200000
B2129233840023N12238641WA013630138100000
B2129243840022N12238648WA013630138200000
B2129263840023N12238659WA013640138200000
B2129313840023N12238685WA013560137800000
B2129363840018N12238714WA013430136900000
B2129443840018N12238780WA013230134600000
B2129493840012N12238813WA013180133500000
B2129543840005N12238839WA013200133400000
B2129593839997N12238860WA013160133100000
B2130043839989N12238884WA013080132300000
B2130093839983N12238911WA013050131900000
B2130143839980N12238938WA013020131600000
B2130203839976N12238970WA012920130800000
B2130253839975N12239002WA012810129800000
B2130303839969N12239037WA012770129600000
B2130363839957N12239009WA012590128500000
B2130413839970N12238977WA012580128200000
B2130463839987N12238949WA012520127800000
B2130513840004N12238923WA012570128000000
B2130563840009N12238888WA012520127400000
B2131013839994N12238892WA012510127300000
B2131063839993N12238909WA012540127300000
B2131103840001N12238927WA012550127500000
B2131113840005N12238930WA012560127400000
B2131123840010N12238934WA012550127300000
B2131133840016N12238935WA012520127300000
B2131143840022N12238937WA012500127200000
B2131153840029N12238931WA012480127300000
B2131163840035N12238925WA012480127200000
B2131173840041N12238917WA012480127300000
B2131183840042N12238910WA012480127300000
B2131193840044N12238903WA012480127100000
B2131203840045N12238896WA012470126900000
B2131213840047N12238889WA012450126700000
B2131223840048N12238882WA012440126600000
B2131233840048N12238875WA012430126400000
B2131253840047N12238860WA012410126300000
B2131263840045N12238854WA012410126200000
B2131273840043N12238848WA012410126200000
B2131283840042N12238843WA012410126200000
B2131293840039N12238839WA012420126200000
B2131303840036N12238836WA012410126100000
B2131313840034N12238833WA012410126100000
B2131323840030N12238829WA012400125900000
B2131333840026N12238828WA012400125900000
B2131343840023N12238828WA012390125800000
B2131353840020N12238828WA012390125800000
B2131363840018N12238830WA012380125700000
B2131373840017N12238832WA012370125400000
B2131383840016N12238836WA012340125200000
B2131393840015N12238840WA012330125000000
B2131403840015N12238845WA012310124800000
B2131413840014N12238850WA012290124500000
B2131423840013N12238855WA012270124200000
B2131433840012N12238860WA012240124000000
B2131443840010N12238866WA012210123900000
B2131453840007N12238872WA012200124100000
B2131463840004N12238877WA012210124300000
B2131473840001N12238882WA012240124300000
B2131483840000N12238884WA012270124800000
B2131493839998N12238885WA012310124900000
B2131503839996N12238887WA012330124900000
B2131513839995N12238888WA012330124900000
B2131523839992N12238891WA012330124800000
B2131533839989N12238892WA012330124900000
B2131543839986N12238894WA012330125000000
B2131553839982N12238893WA012330125100000
B2131563839979N12238892WA012340125100000
B2131573839975N12238891WA012340125000000
B2131583839971N12238890WA012330124800000
B2131593839966N12238890WA012320124600000
B2132003839961N12238890WA012300124400000
B2132013839956N12238890WA012270123900000
B2132023839950N12238891WA012220123500000
B2132033839944N12238891WA012160123100000
B2132043839937N12238892WA012130122900000
B2132053839930N12238892WA012110122800000
B2132063839924N12238892WA012100122800000
B2132073839918N12238891WA012100122800000
B2132083839912N12238891WA012100122600000
B2132093839906N12238891WA012090122600000
B2132143839880N12238904WA012030122100000
B2132193839856N12238928WA011970121600000
B2132243839840N12238949WA011980121500000
B2132293839820N12238970WA011930121000000
B2132343839805N12238994WA011930121000000
B2132393839788N12239013WA011870120100000
B2132443839772N12239033WA011830119600000
B2132493839755N12239052WA011790119200000
B2132543839736N12239070WA011750118800000
B2132593839720N12239085WA011730118500000
B2133043839703N12239101WA011680118200000
B2133093839689N12239115WA011660118100000
B2133143839670N12239129WA011590117500000
B2133193839652N12239144WA011590117400000
B2133243839634N12239161WA011630117900000
B2133293839618N12239170WA011660118000000
B2133343839605N12239185WA011660118100000
B2133393839594N12239202WA011660118000000
B2133443839583N12239220WA011630117700000
B2133493839569N12239237WA011550116700000
B2133543839549N12239267WA011420115600000
B2133593839531N12239299WA011320114600000
B2134043839510N12239330WA011230113700000
B2134093839489N12239360WA011160113200000
B2134143839467N12239391WA011050111800000
B2134193839449N12239422WA010960111000000
B2134243839433N12239448WA010950110600000
B2134293839418N12239473WA010900110300000
B2134343839404N12239495WA010840109700000
B2134393839396N12239516WA010740108600000
B2134443839385N12239533WA010670107900000
B2134493839373N12239555WA010470106100000
B2134543839361N12239573WA010430105600000
B2134593839348N12239591WA010360104900000
B2135043839336N12239613WA010340104600000
B2135093839322N12239635WA010340104700000
B2135143839312N12239645WA010460105800000
B2135193839308N12239656WA010470106000000
B2135243839305N12239667WA010520106400000
B2135293839303N12239674WA010540106400000
B2135343839317N12239698WA010520106200000
B2135393839344N12239695WA010620106500000
B2135443839368N12239668WA010650107300000
B2135463839372N12239655WA010680107500000
B2135473839374N12239648WA010690107600000
B2135483839377N12239640WA010690107700000
B2135493839379N12239632WA010680107800000
B2135503839380N12239623WA010680107800000
B2135513839379N12239614WA010690107900000
B2135523839378N12239606WA010700107900000
B2135533839375N12239600WA010700107900000
B2135543839371N12239596WA010700108000000
B2135553839367N12239594WA010700108000000
B2135563839364N12239593WA010700108100000
B2135573839362N12239594WA010710108200000
B2135583839361N12239596WA010710108200000
B2135593839361N12239599WA010700108200000
B2136003839364N12239604WA010690108000000
B2136013839366N12239608WA010680108000000
B2136023839369N12239610WA010680107900000
B2136033839373N12239613WA010670107800000
B2136043839377N12239615WA010670107800000
B2136053839382N12239617WA010660107800000
B2136063839387N12239617WA010660107800000
B2136073839392N12239617WA010660107800000
B2136083839398N12239614WA010660107700000
B2136093839404N12239612WA010660107700000
B2136103839409N12239608WA010660107700000
B2136113839413N12239602WA010670107800000
B2136123839418N12239595WA010680107900000
B2136133839420N12239588WA010680107900000
B2136143839422N12239580WA010680108000000
B2136153839423N12239571WA010690108000000
B2136163839423N12239562WA010690108100000
B2136173839422N12239554WA010690108100000
B2136183839421N12239546WA010690108100000
B2136193839418N12239539WA010680108000000
B2136203839413N12239535WA010670107900000
B2136213839409N12239531WA010660107900000
B2136223839404N12239530WA010660107900000
B2136233839401N12239530WA010660108100000
B2136243839400N12239530WA010670108100000
B2136253839398N12239531WA010670108000000
B2136263839397N12239532WA010660107800000
B2136273839396N12239535WA010640107700000
B2136283839394N12239538WA010620107600000
B2136293839393N12239542WA010600107500000
B2136303839392N12239546WA010590107400000
B2136313839391N12239551WA010590107500000
B2136323839390N12239555WA010600107700000
B2136333839389N12239558WA010620107700000
B2136343839389N12239560WA010650107900000
B2136353839389N12239561WA010670108100000
B2136363839390N12239564WA010680108100000
B2136373839391N12239567WA010680108100000
B2136383839393N12239571WA010680108100000
B2136393839397N12239575WA010680108300000
B2136403839399N12239577WA010690108600000
B2136413839401N12239579WA010710108700000
B2136423839403N12239580WA010730108700000
B2136433839406N12239581WA010740108700000
B2136443839410N12239583WA010730108600000
B2136453839416N12239583WA010720108500000
B2136463839422N12239580WA010710108500000
B2136473839427N12239574WA010710108400000
B2136483839432N12239565WA010710108400000
B2136493839434N12239556WA010710108500000
B2136503839435N12239547WA010710108600000
B2136513839434N12239539WA010720108700000
B2136523839433N12239532WA010720108700000
B2136533839430N12239527WA010730108600000
B2136543839426N12239523WA010730108700000
B2136553839423N12239521WA010730108700000
B2136563839420N12239519WA010740108800000
B2136573839418N12239519WA010740108700000
B2136583839416N12239519WA010750108700000
B2136593839413N12239520WA010740108600000
B2137003839411N12239522WA010740108600000
B2137013839410N12239524WA010740108600000
B2137023839409N12239527WA010740108700000
B2137033839410N12239531WA010740108700000
B2137053839414N12239537WA010760108900000
B2137063839416N12239540WA010760108900000
B2137073839419N12239542WA010770109000000
B2137083839423N12239543WA010780109000000
B2137093839427N12239545WA010780109100000
B2137103839433N12239543WA010770109000000
B2137113839439N12239541WA010760108900000
B2137123839444N12239534WA010740108800000
B2137133839448N12239526WA010740108800000
B2137143839450N12239517WA010740108800000
B2137153839450N12239509WA010740108800000
B2137163839449N12239501WA010740108800000
B2137173839447N12239494WA010740108800000
B2137183839444N12239488WA010740108800000
B2137193839441N12239484WA010740108800000
B2137203839437N12239482WA010730108600000
B2137213839433N12239482WA010720108400000
B2137223839429N12239483WA010710108400000
B2137233839427N12239485WA010710108500000
B2137243839426N12239486WA010710108600000
B2137253839424N12239487WA010720108500000
B2137263839423N12239489WA010710108400000
B2137273839421N12239491WA010700108200000
B2137283839419N12239494WA010690108100000
B2137293839418N12239497WA010680108100000
B2137303839417N12239501WA010670108000000
B2137313839417N12239505WA010660107900000
B2137323839416N12239509WA010640107700000
B2137333839414N12239514WA010620107400000
B2137343839413N12239519WA010600107300000
B2137353839411N12239523WA010580107300000
B2137363839409N12239526WA010570107100000
B2137373839408N12239530WA010560107000000
B2137383839406N12239536WA010540106700000
B2137393839404N12239541WA010530106500000
B2137403839403N12239548WA010510106400000
B2137413839402N12239554WA010500106300000
B2137423839401N12239560WA010500106400000
B2137433839400N12239565WA010500106400000
B2137443839399N12239571WA010500106200000
B2137493839395N12239598WA010460105900000
B2137543839397N12239618WA010480105800000
B2137593839396N12239647WA010330104600000
B2138043839393N12239677WA010220103300000
B2138093839390N12239706WA010170102700000
B2138143839387N12239740WA010050102600000
B2138193839385N12239757WA010190103000000
B2138243839387N12239777WA010220103400000
B2138293839387N12239796WA010240103500000
B2138343839386N12239818WA010080101700000
B2138393839376N12239853WA009960101100000
B2138443839370N12239882WA009930100600000
B2138493839363N12239902WA009990101000000
B2138543839360N12239920WA009970100800000
B2138593839350N12239941WA009890100200000
B2139043839342N12239963WA009830099800000
B2139093839330N12239990WA009760099000000
B2139143839323N12240009WA009930100700000
B2139193839340N12240019WA010030101200000
B2139243839335N12239995WA010150102100000
B2139293839357N12240009WA010300103700000
B2139313839364N12239995WA010370104400000
B2139323839362N12239988WA010390104400000
B2139333839360N12239983WA010400104500000
B2139343839356N12239980WA010430104500000
B2139353839349N12239981WA010450104600000
B2139363839344N12239984WA010490104800000
B2139373839351N12239997WA010520105200000
B2139383839354N12240001WA010560105600000
B2139393839359N12240004WA010600106000000
B2139403839366N12240005WA010630106300000
B2139413839373N12240002WA010660106600000
B2139423839378N12239999WA010680106800000
B2139433839381N12239992WA010700107100000
B2139443839382N12239984WA010710107100000
B2139453839380N12239976WA010720107400000
B2139463839376N12239971WA010740107700000
B2139473839372N12239970WA010780108100000
B2139483839369N12239971WA010830108600000
B2139493839368N12239975WA010850108900000
B2139503839369N12239980WA010890109200000
B2139513839373N12239985WA010910109600000
B2139523839379N12239988WA010950109900000
B2139533839385N12239988WA010970110000000
B2139543839391N12239984WA010980110100000
B2139553839396N12239978WA010990110100000
B2139563839399N12239969WA010990110300000
B2139573839397N12239960WA011000110600000
B2139583839396N12239953WA011020111000000
B2139593839393N12239948WA011050111200000
B2140003839390N12239946WA011070111400000
B2140013839387N12239946WA011100111600000
B2140023839385N12239948WA011120111800000
B2140033839385N12239953WA011150112100000
B2140043839387N12239957WA011170112200000
B2140053839392N12239960WA011200112300000
B2140063839400N12239956WA011220112700000
B2140073839408N12239951WA011250113000000
B2140083839414N12239943WA011270113200000
B2140093839416N12239933WA011290113400000
B2140103839417N12239924WA011300113600000
B2140113839415N12239916WA011310113800000
B2140123839413N12239911WA011330114000000
B2140133839411N12239907WA011350114200000
B2140143839408N12239905WA011370114300000
B2140153839406N12239906WA011380114400000
B2140163839404N12239908WA011390114500000
B2140173839404N12239912WA011400114800000
B2140183839407N12239916WA011410114900000
B2140193839410N12239920WA011430115100000
B2140203839416N12239922WA011440115100000
B2140213839423N12239921WA011450115200000
B2140223839430N12239919WA011470115500000
B2140233839436N12239916WA011490115800000
B2140253839443N12239902WA011520115700000
B2140263839444N12239893WA011520115700000
B2140273839443N12239883WA011510115600000
B2140283839441N12239876WA011510115700000
B2140293839438N12239870WA011510115800000
B2140303839433N12239869WA011520115900000
B2140313839431N12239872WA011530116000000
B2140323839429N12239874WA011550116300000
B2140333839428N12239876WA011570116600000
B2140343839428N12239878WA011600116800000
B2140353839428N12239880WA011620117000000
B2140363839430N12239882WA011630117100000
B2140373839432N12239885WA011640117100000
B2140383839435N12239887WA011650117200000
B2140393839441N12239889WA011660117300000
B2140403839449N12239884WA011680117600000
B2140413839455N12239880WA011700117800000
B2140423839460N12239873WA011710117800000
B2140433839463N12239864WA011710117800000
B2140443839463N12239854WA011710117800000
B2140453839461N12239844WA011710117800000
B2140463839458N12239838WA011700117800000
B2140473839454N12239832WA011700117800000
B2140483839450N12239828WA011710117800000
B2140493839447N12239829WA011710117800000
B2140503839446N12239830WA011720117900000
B2140513839445N12239832WA011720117800000
B2140523839443N12239835WA011720117800000
B2140533839441N12239839WA011730118200000
B2140543839439N12239843WA011770118600000
B2140553839439N12239847WA011810119100000
B2140563839439N12239850WA011850119500000
B2140573839438N12239852WA011890119800000
B2140583839438N12239855WA011920120100000
B2140593839438N12239859WA011960120500000
B2141003839436N12239862WA011990120800000
B2141013839435N12239865WA012020121100000
B2141023839432N12239867WA012040121300000
B2141033839431N12239869WA012060121500000
B2141043839430N12239872WA012080121800000
B2141053839431N12239875WA012110121800000
B2141063839433N12239879WA012130121900000
B2141073839438N12239882WA012130121800000
B2141083839446N12239880WA012140122000000
B2141093839454N12239877WA012150122200000
B2141103839463N12239874WA012170122100000
B2141113839461N12239862WA012190122700000
B2141123839461N12239853WA012230123000000
B2141133839458N12239847WA012250123200000
B2141143839455N12239843WA012270123200000
B2141153839451N12239841WA012280123300000
B2141163839449N12239844WA012290123500000
B2141173839447N12239848WA012300123800000
B2141183839448N12239852WA012330124200000
B2141193839450N12239856WA012360124400000
B2141213839458N12239861WA012390124800000
B2141223839462N12239863WA012410124900000
B2141233839468N12239863WA012440125200000
B2141243839474N12239862WA012450125400000
B2141253839479N12239860WA012470125400000
B2141263839484N12239854WA012480125400000
B2141273839488N12239845WA012500125800000
B2141283839490N12239837WA012520126100000
B2141293839489N12239829WA012550126200000
B2141303839487N12239823WA012570126500000
B2141313839484N12239818WA012590126500000
B2141323839481N12239814WA012600126600000
B2141333839477N12239814WA012630126900000
B2141343839473N12239814WA012650127300000
B2141353839471N12239815WA012680127500000
B2141363839470N12239817WA012700127700000
B2141373839470N12239820WA012730127900000
B2141383839470N12239824WA012750128000000
B2141403839474N12239831WA012780128600000
B2141413839478N12239833WA012800128700000
B2141423839483N12239835WA012810128800000
B2141433839489N12239835WA012820128700000
B2141443839496N12239833WA012830129000000
B2141453839501N12239830WA012850129200000
B2141463839506N12239826WA012870129500000
B2141473839510N12239820WA012890129800000
B2141483839513N12239813WA012910129900000
B2141493839515N12239805WA012920130100000
B2141503839515N12239798WA012940130200000
B2141513839514N12239791WA012950130400000
B2141523839511N12239786WA012950130400000
B2141533839508N12239782WA012960130500000
B2141543839505N12239780WA012960130700000
B2141553839501N12239779WA012970130700000
B2141563839497N12239779WA012980130900000
B2141573839494N12239780WA012990131200000
B2141583839492N12239783WA013000131400000
B2141593839491N12239787WA013030131500000
B2142013839493N12239796WA013060131800000
B2142023839496N12239800WA013070132000000
B2142033839499N12239803WA013090132100000
B2142043839504N12239805WA013110132200000
B2142063839515N12239808WA013130132200000
B2142073839520N12239807WA013150132500000
B2142083839525N12239804WA013160132600000
B2142093839530N12239801WA013170132500000
B2142103839534N12239797WA013180132600000
B2142113839537N12239790WA013190132900000
B2142123839539N12239783WA013190132900000
B2142133839539N12239776WA013190133000000
B2142143839538N12239770WA013190133000000
B2142153839534N12239765WA013190133000000
B2142163839532N12239760WA013200133100000
B2142173839528N12239760WA013200133100000
B2142183839524N12239759WA013200133100000
B2142203839518N12239764WA013200133200000
B2142213839517N12239767WA013200133200000
B2142223839516N12239772WA013210133200000
B2142233839517N12239776WA013210133300000
B2142243839517N12239780WA013220133300000
B2142253839518N12239784WA013230133400000
B2142263839521N12239789WA013240133400000
B2142273839524N12239792WA013250133400000
B2142283839528N12239795WA013250133400000
B2142293839532N12239797WA013230133300000
B2142303839536N12239800WA013220133300000
B2142313839542N12239802WA013220133200000
B2142323839547N12239803WA013220133400000
B2142333839552N12239801WA013230133400000
B2142343839556N12239798WA013240133500000
B2142353839560N12239793WA013250133600000
B2142363839562N12239788WA013260133600000
B2142373839564N12239782WA013260133700000
B2142383839568N12239775WA013250133800000
B2142393839571N12239770WA013260133800000
B2142403839574N12239764WA013260133900000
B2142413839577N12239758WA013260134100000
B2142423839580N12239753WA013270134100000
B2142433839583N12239748WA013280134000000
B2142443839587N12239742WA013280134100000
B2142453839590N12239736WA013290134200000
B2142463839594N12239729WA013290134300000
B2142473839598N12239723WA013290134400000
B2142483839601N12239716WA013300134600000
B2142493839605N12239708WA013300134800000
B2142543839620N12239678WA013330134700000
B2142593839633N12239644WA013260133900000
B2143043839644N12239606WA013110132600000
B2143093839657N12239567WA012930131100000
B2143143839672N12239531WA012790129700000
B2143193839686N12239488WA012650128500000
B2143243839700N12239442WA012520127300000
B2143293839710N12239397WA012420126200000
B2143343839718N12239349WA012350125600000
B2143413839719N12239283WA012350125300000
B2143463839716N12239237WA012340124800000
B2143513839721N12239191WA012280124200000
B2143563839745N12239168WA012230124200000
B2144013839759N12239186WA012200124000000
B2144063839747N12239209WA012150123200000
B2144083839741N12239221WA012150123100000
B2144093839738N12239225WA012150123100000
B2144103839737N12239230WA012160123200000
B2144113839734N12239234WA012150123100000
B2144123839732N12239239WA012150123000000
B2144133839729N12239244WA012140122800000
B2144153839722N12239253WA012130122700000
B2144163839719N12239257WA012140122800000
B2144173839716N12239261WA012140122700000
B2144183839712N12239266WA012130122600000
B2144193839709N12239269WA012130122400000
B2144203839706N12239273WA012120122300000
B2144213839702N12239276WA012110122200000
B2144223839697N12239278WA012090122000000
B2144233839693N12239278WA012070121800000
B2144243839688N12239280WA012030121600000
B2144253839683N12239280WA012010121500000
B2144263839677N12239279WA012000121400000
B2144273839672N12239277WA011980121200000
B2144283839667N12239274WA011960121100000
B2144293839661N12239272WA011940120900000
B2144303839656N12239271WA011930120800000
B2144313839650N12239268WA011910120700000
B2144323839645N12239266WA011900120500000
B2144333839640N12239263WA011880120300000
B2144343839634N12239259WA011870120100000
B2144353839629N12239255WA011850119900000
B2144363839623N12239253WA011840119700000
B2144373839617N12239251WA011830119500000
B2144383839612N12239248WA011820119500000
B2144393839607N12239246WA011810119400000
B2144443839577N12239235WA011760118900000
B2144493839552N12239241WA011670118800000
B2144543839531N12239261WA011600117500000
B2144593839519N12239283WA011590117300000
B2145043839511N12239312WA011550116900000
B2145093839507N12239337WA011490116000000
B2145143839502N12239359WA011480115700000
B2145193839493N12239387WA011450115700000
B2145243839490N12239403WA011520116200000
B2145293839487N12239432WA011430115600000
B2145343839482N12239458WA011350114700000
B2145393839480N12239487WA011270114200000
B2145443839481N12239514WA011180114100000
B2145493839478N12239548WA011070113400000
B2145543839481N12239577WA010960112800000
B2145593839480N12239609WA010910111500000
B2146043839478N12239638WA010880110800000
B2146093839479N12239667WA010760109600000
B2146143839478N12239696WA010700108700000
B2146193839479N12239725WA010630107900000
B2146243839477N12239756WA010520107300000
B2146293839469N12239785WA010460106400000
B2146343839460N12239814WA010410105300000
B2146393839452N12239841WA010400105100000
B2146443839443N12239865WA010390105000000
B2146493839435N12239889WA010330104600000
B2146553839431N12239918WA010230103700000
B2147003839426N12239943WA010160103000000
B2147053839423N12239969WA010080102300000
B2147103839421N12239995WA010020101700000
B2147153839416N12240010WA010070101300000
B2147203839407N12240025WA009950100400000
B2147253839399N12240048WA009900100300000
B2147303839397N12240072WA010020101200000
B2147363839397N12240089WA010020101400000
B2147413839397N12240109WA010050101600000
B2147463839398N12240132WA010040101500000
B2147513839395N12240155WA010020101300000
B2147563839392N12240177WA010080101700000
B2148013839389N12240194WA010060101700000
B2148063839387N12240210WA010070101700000
B2148113839389N12240227WA010100101800000
B2148163839392N12240245WA010070101300000
B2148213839390N12240262WA010030101100000
B2148263839388N12240286WA009940100800000
B2148313839405N12240308WA009900100500000
B2148363839444N12240291WA009830100100000
B2148413839477N12240261WA009790099100000
B2148463839504N12240238WA009880099700000
B2148513839531N12240217WA009860099600000
B2148563839557N12240197WA009870099600000
B2149013839590N12240178WA009920100200000
B2149063839621N12240171WA009990100900000
B2149113839643N12240147WA010120102000000
B2149163839638N12240151WA010220102900000
B2149213839667N12240149WA010350103500000
B2149253839666N12240126WA010430103800000
B2149263839662N12240126WA010440104000000
B2149273839658N12240128WA010450104200000
B2149283839658N12240132WA010470104600000
B2149293839658N12240136WA010510105000000
B2149303839659N12240139WA010540105200000
B2149313839662N12240142WA010560105300000
B2149323839667N12240146WA010570105200000
B2149333839674N12240149WA010570105300000
B2149343839681N12240150WA010580105500000
B2149353839689N12240149WA010590105900000
B2149363839696N12240147WA010630105900000
B2149373839702N12240139WA010660106500000
B2149383839705N12240131WA010700106700000
B2149393839707N12240122WA010720107000000
B2149403839707N12240115WA010740107200000
B2149413839706N12240108WA010760107300000
B2149423839703N12240106WA010770107300000
B2149433839700N12240105WA010760107200000
B2149443839697N12240109WA010760107400000
B2149453839695N12240113WA010760107400000
B2149463839695N12240118WA010780107900000
B2149473839695N12240122WA010810108300000
B2149483839697N12240125WA010840108500000
B2149493839700N12240128WA010870108800000
B2149503839705N12240131WA010880108800000
B2149513839712N12240133WA010890109000000
B2149523839720N12240134WA010910109000000
B2149533839726N12240131WA010950109100000
B2149543839733N12240126WA010990109400000
B2149553839738N12240118WA011010109500000
B2149563839741N12240109WA011030109600000
B2149573839735N12240101WA011040109700000
B2149583839733N12240096WA011040109600000
B2149593839732N12240092WA011030109700000
B2150003839728N12240093WA011020109600000
B2150023839723N12240098WA011020110100000
B2150033839721N12240100WA011030110300000
B2150043839720N12240102WA011060110500000
B2150053839720N12240104WA011070110700000
B2150063839719N12240107WA011090110800000
B2150073839720N12240111WA011100110900000
B2150083839722N12240116WA011110110900000
B2150093839725N12240120WA011120110800000
B2150103839734N12240123WA011130111000000
B2150123839748N12240122WA011190111700000
B2150133839752N12240117WA011220112200000
B2150143839757N12240112WA011260112600000
B2150153839760N12240106WA011300112900000
B2150163839764N12240101WA011310113100000
B2150173839767N12240095WA011310113200000
B2150183839769N12240089WA011310113100000
B2150193839771N12240082WA011300113100000
B2150203839773N12240076WA011290113100000
B2150213839773N12240069WA011270113100000
B2150223839770N12240064WA011250112800000
B2150233839768N12240060WA011230112700000
B2150243839764N12240057WA011230112800000
B2150253839759N12240058WA011230112800000
B2150263839756N12240059WA011240112800000
B2150273839755N12240063WA011250112900000
B2150283839754N12240067WA011260112900000
B2150293839754N12240072WA011270113000000
B2150303839755N12240077WA011270113000000
B2150313839759N12240081WA011280113100000
B2150323839763N12240085WA011280113200000
B2150333839769N12240088WA011280113000000
B2150343839774N12240090WA011290113100000
B2150353839779N12240092WA011300113200000
B2150363839784N12240095WA011310113200000
B2150373839790N12240097WA011330113300000
B2150383839794N12240098WA011350113400000
B2150393839799N12240098WA011360113700000
B2150403839805N12240101WA011370113700000
B2150413839810N12240104WA011370113900000
B2150423839814N12240106WA011380113900000
B2150433839818N12240110WA011380114000000
B2150443839824N12240114WA011390114000000
B2150453839830N12240117WA011400114200000
B2150463839837N12240120WA011420114400000
B2150473839843N12240123WA011450114500000
B2150483839849N12240125WA011490114800000
B2150493839853N12240128WA011530114800000
B2150543839878N12240142WA011700116000000
B2150593839900N12240154WA011840117400000
B2151043839924N12240162WA011950118300000
B2151093839925N12240134WA012060119700000
B2151143839911N12240161WA012180121700000
B2151193839923N12240182WA012290123200000
B2151213839934N12240179WA012340123900000
B2151223839937N12240176WA012370124300000
B2151233839941N12240174WA012400124400000
B2151243839944N12240171WA012430124600000
B2151253839948N12240166WA012450124800000
B2151263839949N12240160WA012460124900000
B2151273839948N12240154WA012470125000000
B2151283839943N12240150WA012490125100000
B2151293839937N12240149WA012510125300000
B2151303839931N12240151WA012520125500000
B2151313839925N12240154WA012530125600000
B2151323839925N12240163WA012550125800000
B2151333839924N12240170WA012550125900000
B2151343839927N12240174WA012560126100000
B2151353839929N12240178WA012570126200000
B2151363839933N12240181WA012570126400000
B2151373839937N12240183WA012580126300000
B2151383839942N12240184WA012580126400000
B2151393839946N12240183WA012590126600000
B2151403839951N12240183WA012610126900000
B2151413839954N12240184WA012630127100000
B2151423839958N12240184WA012650127200000
B2151433839963N12240184WA012670127200000
B2151443839968N12240182WA012660127200000
B2151453839970N12240174WA012640126800000
B2151463839970N12240165WA012600126700000
B2151473839970N12240158WA012610127100000
B2151483839971N12240152WA012640127300000
B2151493839972N12240148WA012690127800000
B2151503839972N12240145WA012730127900000
B2151513839971N12240141WA012730127600000
B2151523839966N12240136WA012730127700000
B2151533839961N12240133WA012730128000000
B2151543839956N12240133WA012750128000000
B2151553839953N12240137WA012770127900000
B2151563839952N12240143WA012770128000000
B2151573839950N12240147WA012770128000000
B2151583839949N12240152WA012780128200000
B2151593839947N12240155WA012790128300000
B2152003839946N12240159WA012790128200000
B2152013839945N12240164WA012790128100000
B2152023839946N12240170WA012770128000000
B2152033839948N12240175WA012760128000000
B2152053839959N12240178WA012770128000000
B2152063839963N12240178WA012770128100000
B2152073839967N12240174WA012750128100000
B2152083839971N12240167WA012730128100000
B2152093839973N12240161WA012720128200000
B2152103839975N12240156WA012730128300000
B2152113839979N12240154WA012740128400000
B2152123839980N12240151WA012750128500000
B2152133839982N12240146WA012750128400000
B2152143839984N12240139WA012740128300000
B2152153839986N12240131WA012730128500000
B2152163839987N12240124WA012730128700000
B2152173839988N12240118WA012750128900000
B2152183839988N12240113WA012770129000000
B2152193839988N12240108WA012780128900000
B2152203839988N12240101WA012770128900000
B2152213839987N12240094WA012770128600000
B2152223839986N12240088WA012770128600000
B2152233839985N12240081WA012790129100000
B2152243839984N12240077WA012820129400000
B2152253839982N12240073WA012860129600000
B2152263839980N12240071WA012870129500000
B2152273839976N12240071WA012870129300000
B2152283839974N12240073WA012860129300000
B2152293839971N12240077WA012840129200000
B2152303839969N12240081WA012820129200000
B2152313839967N12240085WA012820129100000
B2152323839965N12240090WA012810129000000
B2152333839964N12240095WA012790128900000
B2152343839962N12240101WA012780128700000
B2152353839960N12240107WA012760128600000
B2152363839958N12240113WA012740128300000
B2152373839956N12240118WA012720128200000
B2152393839955N12240129WA012690127800000
B2152403839953N12240138WA012660127500000
B2152413839950N12240146WA012620127400000
B2152423839948N12240153WA012600127300000
B2152433839946N12240158WA012590127200000
B2152443839944N12240164WA012590127100000
B2152453839942N12240169WA012580126700000
B2152463839939N12240174WA012560126400000
B2152473839934N12240181WA012540126200000
B2152483839931N12240187WA012510126100000
B2152493839927N12240193WA012490126200000
B2152503839924N12240198WA012500126200000
B2152553839905N12240228WA012410125100000
B2153003839892N12240264WA012370124800000
B2153053839884N12240297WA012310124500000
B2153103839870N12240330WA012220123500000
B2153153839859N12240361WA012160123100000
B2153203839850N12240394WA012160122700000
B2153253839839N12240429WA012090122100000
B2153303839829N12240463WA012060121900000
B2153353839814N12240499WA011970120900000
B2153403839800N12240535WA011890119600000
B2153453839787N12240571WA011840119200000
B2153503839776N12240603WA011840118800000
B2153553839762N12240638WA011700117600000
B2154003839752N12240674WA011690117300000
B2154053839741N12240712WA011650117000000
B2154103839734N12240753WA011570116500000
B2154153839730N12240787WA011570116200000
B2154213839726N12240832WA011470115700000
B2154263839723N12240872WA011410115400000
B2154313839719N12240908WA011340114900000
B2154363839715N12240944WA011270114200000
B2154413839714N12240981WA011170113300000
B2154463839713N12241019WA011120112800000
B2154513839711N12241056WA011030111800000
B2154583839706N12241110WA010940110700000
B2155033839704N12241148WA010900110400000
B2155083839703N12241184WA010830109400000
B2155133839700N12241223WA010770108900000
B2155183839696N12241263WA010690108000000
B2155233839694N12241301WA010600107300000
B2155283839686N12241339WA010540106800000
B2155333839675N12241368WA010500106100000
B2155383839665N12241396WA010410105200000
B2155433839654N12241425WA010300104000000
B2155483839643N12241453WA010210103000000
B2155533839632N12241483WA010130102200000
B2155583839624N12241515WA010030101200000
B2156033839617N12241541WA010030101200000
B2156103839610N12241581WA009990100600000
B2156153839603N12241610WA009950100300000
B2156203839597N12241640WA009900099700000
B2156253839589N12241672WA009880099500000
B2156303839578N12241703WA009880099500000
B2156353839572N12241723WA009880099100000
B2156403839563N12241743WA009830098800000
B2156453839544N12241753WA009720098100000
B2156503839525N12241760WA009700098200000
B2156553839504N12241773WA009650098000000
B2157003839487N12241787WA009650097800000
B2157053839468N12241799WA009610097400000
B2157103839452N12241811WA009550096900000
B2157153839432N12241820WA009500096500000
B2157203839412N12241831WA009440095900000
B2157263839389N12241846WA009400095300000
B2157313839373N12241859WA009410095200000
B2157363839361N12241871WA009400095300000
B2157413839352N12241878WA009370095000000
B2157463839339N12241888WA009290094100000
B2157513839324N12241903WA009250093500000
B2157563839308N12241920WA009200093100000
B2158013839292N12241936WA009140092300000
B2158063839272N12241946WA009080092000000
B2158113839249N12241948WA009000091400000
B2158163839231N12241943WA008920090600000
B2158213839213N12241920WA008780089300000
B2158263839196N12241895WA008700088100000
B2158313839182N12241864WA008650087500000
B2158363839170N12241834WA008550086500000
B2158413839174N12241794WA008490085900000
B2158463839186N12241753WA008450085600000
B2158513839199N12241711WA008390085100000
B2158563839206N12241678WA008440085300000
B2159013839205N12241646WA008360085200000
B2159063839186N12241624WA008290084300000
B2159113839172N12241602WA008320084400000
B2159163839157N12241580WA008310084400000
B2159213839143N12241556WA008270084000000
B2159263839128N12241532WA008220083500000
B2159313839114N12241510WA008180082700000
B2159363839101N12241485WA008160082600000
B2159413839088N12241459WA008120082200000
B2159463839075N12241434WA008090081900000
B2159513839064N12241412WA008120082300000
B2159563839056N12241394WA008070081600000
B2200013839040N12241385WA008010081300000
B2200063839024N12241372WA007950080700000
B2200113839011N12241360WA007930080300000
B2200163838997N12241345WA007870079800000
B2200213838982N12241329WA007830079400000
B2200263838967N12241312WA007820079300000
B2200313838952N12241301WA007810079000000
B2200363838937N12241285WA007750078400000
B2200413838921N12241270WA007700077800000
B2200463838905N12241253WA007630077200000
B2200513838890N12241241WA007590076900000
B2200563838873N12241230WA007530076400000
B2201013838859N12241216WA007430075400000
B2201063838846N12241195WA007350074500000
B2201113838835N12241163WA007260073900000
B2201163838825N12241132WA007210073300000
B2201213838815N12241107WA007150072500000
B2201263838806N12241077WA007090072100000
B2201313838796N12241048WA007050071600000
B2201363838786N12241020WA007030071400000
B2201413838775N12240997WA007030071400000
B2201463838762N12240977WA007000071200000
B2201513838749N12240962WA006980070800000
B2201563838736N12240948WA006970070800000
B2202013838722N12240935WA006900070100000
B2202063838713N12240921WA006880069800000
B2202113838701N12240907WA006840069300000
B2202163838689N12240893WA006770068700000
B2202213838680N12240871WA006680067900000
B2202263838672N12240847WA006630067400000
B2202313838670N12240813WA006650067300000
B2202363838672N12240799WA006740067900000
B2202413838689N12240775WA006720068000000
B2202463838719N12240776WA006770068200000
B2202513838738N12240804WA006800068700000
B2202523838739N12240809WA006810068900000
B2202533838738N12240815WA006810068900000
B2202543838736N12240819WA006810068900000
B2202553838734N12240822WA006820069000000
B2202563838732N12240823WA006830069100000
B2202573838730N12240822WA006840069300000
B2202583838729N12240820WA006840069300000
B2202593838728N12240818WA006840069300000
B2203003838727N12240816WA006840069200000
B2203013838726N12240812WA006830069100000
B2203023838727N12240807WA006820069000000
B2203033838730N12240801WA006820069000000
B2203043838733N12240795WA006810069000000
B2203053838736N12240790WA006810069000000
B2203063838741N12240784WA006800069000000
B2203073838746N12240780WA006790068800000
B2203083838752N12240776WA006790068800000
B2203093838758N12240773WA006790068800000
B2203103838764N12240771WA006790068800000
B2203113838771N12240772WA006800069000000
B2203123838777N12240774WA006810069100000
B2203133838783N12240778WA006800069100000
B2203143838787N12240784WA006800069000000
B2203153838791N12240791WA006800069000000
B2203163838791N12240797WA006810069200000
B2203173838791N12240802WA006820069200000
B2203183838790N12240808WA006840069300000
B2203193838789N12240811WA006850069400000
B2203203838787N12240814WA006850069400000
B2203213838785N12240815WA006850069400000
B2203223838783N12240815WA006850069400000
B2203233838781N12240813WA006840069200000
B2203243838780N12240810WA006840069200000
B2203253838779N12240806WA006830069200000
B2203263838780N12240801WA006820069200000
B2203273838782N12240797WA006810069000000
B2203283838785N12240791WA006800068900000
B2203293838788N12240784WA006790068800000
B2203303838793N12240778WA006780068900000
B2203313838799N12240773WA006770068900000
B2203323838806N12240770WA006770068900000
B2203333838812N12240768WA006770068800000
B2203343838819N12240768WA006770068800000
B2203353838825N12240768WA006780068800000
B2203363838831N12240770WA006780068800000
B2203373838837N12240773WA006780068700000
B2203383838842N12240778WA006770068700000
B2203393838847N12240783WA006770068800000
B2203403838850N12240789WA006770068800000
B2203413838852N12240795WA006770068800000
B2203423838852N12240800WA006770068700000
B2203433838851N12240805WA006760068700000
B2203443838849N12240808WA006750068700000
B2203453838847N12240808WA006750068600000
B2203463838844N12240805WA006750068600000
B2203473838843N12240802WA006740068600000
B2203483838841N12240799WA006730068400000
B2203493838838N12240796WA006710068200000
B2203503838835N12240792WA006700068200000
B2203513838832N12240788WA006700068200000
B2203523838830N12240784WA006700068200000
B2203533838828N12240781WA006700068200000
B2203543838826N12240778WA006690068000000
B2203553838824N12240774WA006680067900000
B2203563838822N12240770WA006660067800000
B2203573838820N12240765WA006650067700000
B2203583838818N12240761WA006630067400000
B2203593838815N12240757WA006610067200000
B2204003838812N12240752WA006590067100000
B2204013838810N12240746WA006590067200000
B2204023838809N12240741WA006590067200000
B2204033838807N12240737WA006590067100000
B2204043838806N12240733WA006590066900000
B2204053838804N12240728WA006570066600000
B2204063838802N12240722WA006540066400000
B2204073838800N12240716WA006520066200000
B2204083838798N12240711WA006500066200000
B2204133838789N12240684WA006480065700000
B2204183838780N12240659WA006470065800000
B2204233838773N12240634WA006430065300000
B2204283838761N12240607WA006420065300000
B2204333838748N12240594WA006370064900000
B2204383838733N12240583WA006380065000000
B2204433838722N12240574WA006440065600000
B2204483838720N12240569WA006470065600000
B2204533838712N12240562WA006490066000000
B2204583838703N12240558WA006480066200000
B2205033838698N12240557WA006560066700000
B2205083838706N12240579WA006580067200000
B2205133838740N12240589WA006630067500000
B2205183838772N12240571WA006670068000000
B2205193838775N12240566WA006680068100000
B2205203838776N12240561WA006690068100000
B2205213838776N12240556WA006690068100000
B2205223838776N12240552WA006680068100000
B2205233838774N12240550WA006680068100000
B2205243838772N12240549WA006680068100000
B2205253838771N12240548WA006680068200000
B2205263838769N12240546WA006690068300000
B2205273838768N12240546WA006700068300000
B2205283838766N12240545WA006710068400000
B2205293838765N12240545WA006720068500000
B2205303838764N12240545WA006730068600000
B2205313838764N12240545WA006750068700000
B2205323838763N12240545WA006750068800000
B2205333838762N12240546WA006760068900000
B2205343838761N12240548WA006760068800000
B2205353838763N12240557WA006760068800000
B2205363838767N12240563WA006750068800000
B2205373838771N12240568WA006760068900000
B2205383838776N12240572WA006770068900000
B2205393838784N12240573WA006780068900000
B2205403838791N12240574WA006800069000000
B2205413838798N12240573WA006810069000000
B2205433838811N12240569WA006800069000000
B2205443838817N12240563WA006790069000000
B2205453838821N12240557WA006790069100000
B2205463838824N12240550WA006800069300000
B2205473838825N12240545WA006810069400000
B2205483838824N12240540WA006820069400000
B2205493838824N12240536WA006830069400000
B2205503838822N12240534WA006820069400000
B2205513838821N12240532WA006820069400000
B2205523838819N12240532WA006820069400000
B2205533838818N12240530WA006830069500000
B2205543838816N12240529WA006840069500000
B2205553838815N12240528WA006840069500000
B2205563838813N12240527WA006840069500000
B2205573838812N12240527WA006850069600000
B2205583838811N12240526WA006850069600000
B2205593838810N12240524WA006850069600000
B2206003838809N12240523WA006850069600000
B2206013838808N12240522WA006850069600000
B2206023838807N12240521WA006850069500000
B2206033838805N12240520WA006840069600000
B2206043838803N12240519WA006840069600000
B2206053838801N12240518WA006840069500000
B2206063838800N12240517WA006830069300000
B2206073838798N12240516WA006810069100000
B2206123838780N12240514WA006710068400000
B2206173838767N12240513WA006680068200000
B2206223838757N12240514WA006630067400000
B2206273838741N12240513WA006620067400000
B2206323838727N12240512WA006620067300000
B2206373838716N12240513WA006520066000000
B2206423838697N12240513WA006430065600000
B2206473838678N12240516WA006390065500000
B2206523838660N12240516WA006350065000000
B2206573838645N12240519WA006320064600000
B2207023838630N12240517WA006290064700000
B2207073838613N12240522WA006230064100000
B2207123838598N12240521WA006230064000000
B2207173838581N12240524WA006160063500000
B2207223838564N12240530WA006070062600000
B2207273838550N12240535WA006020061700000
B2207323838528N12240534WA005920060800000
B2207373838509N12240534WA005830059900000
B2207423838490N12240534WA005750058800000
B2207473838472N12240535WA005660057900000
B2207523838453N12240535WA005630058000000
B2207573838449N12240533WA005820059300000
B2208023838446N12240535WA005860059700000
B2208073838453N12240550WA005880059900000
B2208123838484N12240542WA005960060200000
B2208173838489N12240513WA006000060900000
B2208193838488N12240510WA006010060800000
B2208203838487N12240508WA006010060900000
B2208213838487N12240508WA006010061000000
B2208223838486N12240508WA006010060900000
B2208233838486N12240511WA006010060900000
B2208243838487N12240515WA006000060900000
B2208253838490N12240520WA006000060800000
B2208263838494N12240525WA006000060900000
B2208273838499N12240529WA006010061000000
B2208283838505N12240531WA006020061100000
B2208293838512N12240531WA006020061100000
B2208303838520N12240531WA006020061100000
B2208313838528N12240529WA006020061200000
B2208323838536N12240526WA006030061400000
B2208333838542N12240521WA006040061500000
B2208343838548N12240515WA006050061500000
B2208353838552N12240509WA006060061600000
B2208363838556N12240502WA006060061600000
B2208373838558N12240496WA006060061600000
B2208383838559N12240491WA006050061500000
B2208393838558N12240485WA006040061500000
B2208403838555N12240486WA006040061600000
B2208413838552N12240487WA006040061700000
B2208423838551N12240488WA006050061700000
B2208433838550N12240489WA006060061700000
B2208443838550N12240489WA006070061700000
B2208453838550N12240491WA006070061700000
B2208463838551N12240493WA006070061700000
B2208473838553N12240497WA006060061600000
B2208483838555N12240501WA006050061500000
B2208493838557N12240505WA006050061600000
B2208503838559N12240509WA006050061500000
B2208513838560N12240511WA006050061500000
B2208523838560N12240515WA006040061300000
B2208533838560N12240518WA006030061200000
B2208543838559N12240521WA006020061200000
B2208553838558N12240525WA006010061100000
B2208563838556N12240528WA006000061100000
B2208573838555N12240531WA006000061100000
B2208583838554N12240534WA006000061100000
B2208593838553N12240536WA006010061100000
B2209003838552N12240539WA006020061100000
B2209013838550N12240542WA006020061100000
B2209023838549N12240544WA006030061300000
B2209073838543N12240553WA006090061800000
B2209123838541N12240563WA006170062700000
B2209173838541N12240569WA006230063400000
B2209223838538N12240582WA006230063400000
B2209273838528N12240595WA006280063900000
B2209323838519N12240609WA006260063800000
B2209373838511N12240624WA006310064500000
B2209423838512N12240640WA006370064700000
B2209473838505N12240653WA006350064700000
B2209523838509N12240633WA006360064600000
B2209573838537N12240613WA006380065000000
B2210013838562N12240622WA006380064900000
B2210023838568N12240626WA006370064900000
B2210033838572N12240632WA006360065000000
B2210043838577N12240637WA006340064900000
B2210053838575N12240644WA006310064900000
B2210063838576N12240648WA006290064900000
B2210073838571N12240648WA006280064900000
B2210083838569N12240649WA006280064900000
B2210093838568N12240649WA006290064800000
B2210103838568N12240649WA006300064900000
B2210113838567N12240650WA006300064900000
B2210143838562N12240652WA006300064700000
B2210153838561N12240653WA006300064700000
B2210163838560N12240654WA006300064600000
B2210173838559N12240655WA006290064400000
B2210183838557N12240657WA006280064200000
B2210193838556N12240658WA006270064000000
B2210203838555N12240659WA006240063900000
B2210213838553N12240660WA006210063600000
B2210223838547N12240659WA006180063400000
B2210233838543N12240660WA006170063400000
B2210243838540N12240660WA006170063500000
B2210253838537N12240659WA006180063500000
B2210263838534N12240658WA006200063500000
B2210273838533N12240657WA006200063400000
B2210283838530N12240656WA006190063100000
B2210293838527N12240654WA006170063000000
B2210303838523N12240652WA006160063100000
B2210313838518N12240650WA006160063200000
B2210323838515N12240649WA006180063500000
B2210333838512N12240647WA006210063700000
B2210343838511N12240646WA006230063700000
B2210353838509N12240645WA006250063800000
B2210363838507N12240643WA006250063900000
B2210373838505N12240643WA006260063900000
B2210383838504N12240641WA006270064000000
B2210393838502N12240639WA006270063900000
B2210403838501N12240637WA006270063900000
B2210413838499N12240636WA006270064000000
B2210423838496N12240635WA006280064000000
B2210433838494N12240633WA006280064100000
B2210443838493N12240631WA006290064200000
B2210493838486N12240622WA006330064500000
B2210543838479N12240614WA006310064100000
B2211023838460N12240599WA006260063500000
B2211073838446N12240588WA006210062900000
B2211123838425N12240580WA006070061800000
B2211173838400N12240573WA005980061100000
B2211223838381N12240563WA005930060200000
B2211273838355N12240556WA005870059800000
B2211323838331N12240545WA005790058900000
B2211373838307N12240538WA005730058200000
B2211423838283N12240529WA005650057300000
B2211473838261N12240519WA005540056400000
B2211523838242N12240510WA005450055400000
B2211573838220N12240502WA005360054700000
B2212023838199N12240501WA005320054100000
B2212073838182N12240490WA005240053200000
B2212123838161N12240482WA005180052700000
B2212173838145N12240474WA005160052300000
B2212223838125N12240470WA005120051800000
B2212273838108N12240469WA005100051600000
B2212323838090N12240465WA005050051200000
B2212373838074N12240464WA005030050900000
B2212423838059N12240464WA004950050200000
B2212473838042N12240468WA004870049700000
B2212523838025N12240472WA004800049000000
B2212573838010N12240475WA004740048400000
B2213023837991N12240478WA004650047500000
B2213073837971N12240488WA004600047000000
B2213133837947N12240501WA004470046100000
B2213183837931N12240506WA004410045500000
B2213233837916N12240507WA004330044700000
B2213283837899N12240504WA004230043900000
B2213333837882N12240503WA004150043000000
B2213383837864N12240502WA004090042400000
B2213433837848N12240502WA004010041400000
B2213483837834N12240502WA003940040800000
B2213533837821N12240499WA003890040100000
B2213583837811N12240495WA003860039800000
B2214033837798N12240497WA003770039000000
B2214083837784N12240501WA003710038300000
B2214133837768N12240505WA003650037500000
B2214183837755N12240511WA003590037100000
B2214233837742N12240512WA003550036600000
B2214283837728N12240510WA003500036000000
B2214333837713N12240505WA003440035500000
B2214383837699N12240500WA003390034900000
B2214433837686N12240487WA003330034400000
B2214483837676N12240472WA003290033800000
B2214533837667N12240455WA003230033300000
B2214583837658N12240440WA003160032600000
B2215033837649N12240427WA003090032100000
B2215083837644N12240417WA003040031400000
B2215133837644N12240425WA002980030800000
B2215183837638N12240434WA002880030100000
B2215233837639N12240461WA002720028600000
B2215283837663N12240441WA002650027100000
B2215333837684N12240410WA002530026100000
B2215383837724N12240431WA002360025400000
B2215433837731N12240407WA002340025400000
B2215483837743N12240381WA002250024200000
B2215533837786N12240377WA002240024100000
B2215583837816N12240401WA002170023400000
B2216033837818N12240419WA002110022500000
B2216043837816N12240417WA002100022200000
B2216053837816N12240414WA002080022000000
B2216063837815N12240412WA002070021900000
B2216073837815N12240411WA002050021900000
B2216083837813N12240416WA002020021800000
B2216093837811N12240420WA002010021900000
B2216103837810N12240421WA002010021900000
B2216113837810N12240416WA002010021700000
B2216123837810N12240412WA002010021700000
B2216133837810N12240409WA002000021600000
B2216143837810N12240408WA001990021600000
B2216153837808N12240410WA001950021500000
B2216163837809N12240419WA001930021400000
B2216173837809N12240424WA001920021400000
B2216183837811N12240427WA001920021300000
B2216193837812N12240430WA001920021100000
B2216203837812N12240434WA001900020800000
B2216213837811N12240437WA001880020500000
B2216223837809N12240440WA001840020100000
B2216233837807N12240443WA001820020000000
B2216243837806N12240445WA001820020100000
B2216253837806N12240447WA001830020100000
B2216263837806N12240449WA001820019900000
B2216273837805N12240452WA001820019700000
B2216283837804N12240456WA001810019800000
B2216293837804N12240459WA001810019800000
B2216303837806N12240463WA001800019600000
B2216313837806N12240467WA001790019400000
B2216323837806N12240470WA001770019100000
B2216333837805N12240472WA001740018900000
B2216343837802N12240471WA001710018700000
B2216353837800N12240469WA001700018600000
B2216363837800N12240466WA001690018600000
B2216373837801N12240462WA001690018500000
B2216383837802N12240459WA001690018500000
B2216393837802N12240456WA001670018400000
B2216403837799N12240460WA001650017700000
B2216413837797N12240463WA001600017400000
B2216423837797N12240471WA001590017700000
B2216433837798N12240476WA001600017700000
B2216443837797N12240479WA001610017500000
B2216453837797N12240483WA001610017300000
B2216463837798N12240488WA001590017000000
B2216473837796N12240493WA001560016800000
B2216483837795N12240499WA001520016700000
B2216493837793N12240504WA001500016600000
B2216503837790N12240507WA001490016500000
B2216513837788N12240509WA001500016500000
B2216523837787N12240510WA001510016600000
B2216533837786N12240513WA001510016400000
B2216543837785N12240514WA001500016400000
B2216553837785N12240515WA001500016500000
B2216563837786N12240515WA001510016600000
B2216573837786N12240514WA001510016600000
B2216583837786N12240515WA001510016600000
B2216593837786N12240515WA001510016500000
B2217003837786N12240516WA001510016500000
B2217013837786N12240516WA001510016500000
B2217023837786N12240517WA001510016600000
B2217033837786N12240517WA001510016500000
B2217043837786N12240517WA001520016500000
B2217053837786N12240517WA001520016500000
B2217063837786N12240517WA001520016500000
B2217073837786N12240517WA001510016500000
B2217083837786N12240517WA001510016600000
B2217093837786N12240517WA001510016600000
B2217103837786N12240518WA001510016500000
B2217113837786N12240518WA001510016500000
B2217123837786N12240518WA001510016600000
B2217133837786N12240518WA001520016600000
B2217143837785N12240518WA001520016700000
B2217153837785N12240518WA001510016700000
B2217163837786N12240518WA001510016700000
B2217173837786N12240518WA001510016700000
B2217183837785N12240518WA001510016700000
B2217193837785N12240518WA001510016700000
B2217203837785N12240518WA001510016700000
B2217213837785N12240518WA001510016700000
B2217223837785N12240518WA001520016700000
B2217233837785N12240518WA001520016700000
B2217243837786N12240518WA001520016600000
B2217293837786N12240518WA001510016600000
B2217343837785N12240518WA001520016600000
B2217393837786N12240517WA001510016600000
B2217443837786N12240517WA001510016700000
B2217493837786N12240517WA001510016700000
B2217543837786N12240517WA001520016700000
B2217593837786N12240517WA001510016700000
B2218043837786N12240517WA001510016700000
B2218093837786N12240517WA001510016700000
B2218143837786N12240517WA001510016700000
B2218193837786N12240517WA001510016700000
B2218243837787N12240516WA001510016500000
B2218293837787N12240517WA001510016300000
B2218343837788N12240516WA001510016200000
B2218393837787N12240517WA001510016200000
B2218443837787N12240517WA001500016200000
B2218493837787N12240517WA001500016200000
B2218543837786N12240517WA001500016200000
B2218593837786N12240518WA001510016300000
B2219043837785N12240520WA001510016300000
B2219093837785N12240520WA001510016400000
B2219143837783N12240523WA001500016300000
B2219193837780N12240527WA001490016100000
B2219243837778N12240530WA001490016200000
B2219293837775N12240533WA001500016100000
B2219343837772N12240535WA001500016200000
B2219393837770N12240538WA001500016200000
B2219443837767N12240541WA001500016100000
B2219493837764N12240543WA001500016100000
B2219543837762N12240546WA001490016000000
B2219593837760N12240548WA001490015900000
B2220043837760N12240548WA001500016100000
B2220093837760N12240548WA001490016000000
B2220143837758N12240550WA001490015900000
B2220193837755N12240553WA001490015800000
B2220243837753N12240556WA001490015900000
B2220293837751N12240559WA001490015900000
B2220343837748N12240562WA001490016000000
B2220393837746N12240565WA001490015900000
B2220443837744N12240569WA001490015800000
B2220493837741N12240572WA001490015700000
B2220543837738N12240575WA001490015700000
B2220593837736N12240578WA001490015800000
B2221043837733N12240581WA001490015800000
B2221093837732N12240583WA001490016000000
B2221143837733N12240582WA001490016000000
B2221193837732N12240583WA001490015900000
B2221243837732N12240583WA001490015900000
B2221293837732N12240583WA001490015900000
B2221343837732N12240583WA001490015900000
B2221393837732N12240583WA001490015900000
B2221443837732N12240583WA001490015900000
B2221493837732N12240583WA001490015900000
B2221543837732N12240583WA001490015900000
B2221593837732N12240583WA001490015900000
B2222043837732N12240583WA001490015900000
B2222093837732N12240583WA001490015900000
B2222143837732N12240583WA001490015900000
Gb29d8b8b72080cbe
Gbc402f6e53df8632
G77243ab6adb0148a
G7dd3fc0c1f3efc73
G3a863a456bf2cc5b
Gcba173648b1df23a
Ge1bd00ef38ad2111
G8ee41ec3069070cd
