AXCSAAA
HFDTE120415
HFFXA050
HFPLTPILOTINCHARGE:JOSH COHN
HFGTYGLIDERTYPE:ENZO 2
HFGIDGLIDERID:ENZO 2
HFCIDCOMPETITIONID:121
HFFTYFRTYPE:XCSOAR,XCSOAR Android 6.8_preview8 Mar  5 2015
HFGPS:Internal GPS (Android)
HFDTM100DATUM:WGS-1984
I023638FXA3940SIU
F225456
B2254563730824N12152969WA007080071900000
B2255013730824N12152969WA007080071900000
B2255063730824N12152969WA007080071900000
B2255113730823N12152969WA007080071900000
B2255163730823N12152969WA007080071900000
B2255213730824N12152969WA007080071900000
B2255263730824N12152969WA007080071900000
B2255313730824N12152969WA007080071900000
B2255363730824N12152969WA007070071900000
B2255413730824N12152969WA007070072000000
B2255463730824N12152969WA007070072100000
B2255513730824N12152969WA007060072100000
B2255563730824N12152969WA007060072100000
B2256013730824N12152969WA007060072100000
B2256063730824N12152969WA007060072100000
B2256113730824N12152969WA007060072100000
B2256163730824N12152969WA007060072100000
B2256213730824N12152969WA007060072100000
B2256263730824N12152969WA007060072100000
B2256313730824N12152969WA007060072100000
B2256363730824N12152969WA007060072100000
B2256413730824N12152969WA007060072100000
B2256463730824N12152969WA007060072100000
B2256513730824N12152969WA007060072100000
B2256563730824N12152969WA007060072100000
B2257013730824N12152969WA007060072100000
B2257063730824N12152969WA007060072100000
B2257113730824N12152969WA007060072100000
B2257163730824N12152969WA007060072100000
B2257213730824N12152969WA007060072100000
B2257263730824N12152969WA007060072100000
B2257313730824N12152969WA007060072100000
B2257363730824N12152969WA007060072100000
B2257413730824N12152969WA007060072100000
B2257463730824N12152969WA007060072100000
B2257513730824N12152969WA007060072100000
B2257563730824N12152969WA007060072100000
B2258013730824N12152969WA007060072100000
B2258063730824N12152969WA007060072100000
B2258113730824N12152969WA007060072100000
B2258163730824N12152969WA007060072100000
B2258213730824N12152969WA007060072100000
B2258263730824N12152969WA007060072100000
B2258313730824N12152969WA007060072100000
B2258363730824N12152969WA007060072100000
B2258413730824N12152969WA007060072100000
B2258463730824N12152969WA007060072100000
B2258513730824N12152969WA007060072100000
B2258563730831N12152972WA007030071600000
B2259013730843N12152969WA007070068700000
B2259063730854N12152960WA007120071700000
B2259113730867N12152950WA007060071500000
B2259163730882N12152948WA007100072000000
B2259213730894N12152952WA007050071400000
B2259263730907N12152959WA007090071900000
B2259313730919N12152968WA007040071700000
B2259363730930N12152977WA007040071300000
B2259413730942N12152990WA007020071300000
B2259463730951N12153003WA007040071400000
B2259513730961N12153015WA007020071300000
B2259563730970N12153030WA006960070900000
B2300013730980N12153048WA006940070700000
B2300063730991N12153066WA006880070100000
B2300113731001N12153085WA006880069800000
B2300163731010N12153100WA006850069500000
B2300213731019N12153113WA006880069600000
B2300263731025N12153131WA006880069800000
B2300313731032N12153153WA006840069500000
B2300363731037N12153171WA006840069100000
B2300413731039N12153210WA006660067800000
B2300463731017N12153247WA006590067100000
B2300513730984N12153274WA006530066800000
B2300563730966N12153296WA006600067000000
B2301013730952N12153323WA006560066900000
B2301063730932N12153341WA006530066600000
B2301113730913N12153365WA006460066200000
B2301163730889N12153386WA006430065800000
B2301213730861N12153406WA006410065600000
B2301263730836N12153430WA006310064700000
B2301313730813N12153450WA006270064300000
B2301363730786N12153474WA006160063500000
B2301413730754N12153497WA006130063000000
B2301463730727N12153516WA006190063300000
B2301513730726N12153539WA006170063400000
B2301563730721N12153504WA006230063900000
B2302013730689N12153509WA006270064000000
B2302043730691N12153527WA006260064400000
B2302053730693N12153525WA006290064600000
B2302063730694N12153522WA006310064600000
B2302073730696N12153518WA006330064700000
B2302083730697N12153513WA006330064700000
B2302093730697N12153507WA006330064600000
B2302103730695N12153499WA006330064500000
B2302113730693N12153490WA006320064500000
B2302123730687N12153482WA006330063100000
B2302133730680N12153478WA006340063700000
B2302153730666N12153478WA006380064100000
B2302163730660N12153483WA006370064000000
B2302173730657N12153490WA006350064000000
B2302183730657N12153497WA006330063900000
B2302193730660N12153502WA006310064000000
B2302203730664N12153503WA006310064500000
B2302213730666N12153502WA006350064800000
B2302223730666N12153501WA006390065000000
B2302233730667N12153497WA006420065100000
B2302243730669N12153493WA006420065000000
B2302253730672N12153488WA006420065100000
B2302263730673N12153482WA006430065200000
B2302273730672N12153474WA006440065400000
B2302283730669N12153466WA006450065500000
B2302293730663N12153461WA006460065600000
B2302303730657N12153457WA006470065800000
B2302313730650N12153454WA006490065900000
B2302323730644N12153454WA006500066000000
B2302333730637N12153456WA006500065800000
B2302343730631N12153461WA006470065700000
B2302353730627N12153468WA006450065400000
B2302363730628N12153476WA006410065300000
B2302373730632N12153481WA006400065300000
B2302383730636N12153484WA006410065400000
B2302393730640N12153486WA006440065500000
B2302403730640N12153480WA006500066000000
B2302413730641N12153478WA006530066100000
B2302423730642N12153476WA006560066000000
B2302433730643N12153476WA006560066000000
B2302443730646N12153476WA006540066000000
B2302453730648N12153475WA006530066300000
B2302463730650N12153474WA006540066600000
B2302473730652N12153474WA006560066800000
B2302483730653N12153474WA006580066900000
B2302493730655N12153474WA006570066600000
B2302503730657N12153475WA006550066500000
B2302513730660N12153476WA006530066400000
B2302523730661N12153479WA006520066600000
B2302533730663N12153481WA006530066600000
B2302543730664N12153483WA006540066700000
B2302553730665N12153483WA006550066800000
B2302563730666N12153484WA006560066700000
B2302573730668N12153485WA006560066800000
B2302583730670N12153483WA006550066600000
B2302593730673N12153477WA006550066400000
B2303003730673N12153471WA006540066300000
B2303013730670N12153462WA006530066400000
B2303023730665N12153456WA006530066400000
B2303033730658N12153451WA006530066400000
B2303043730650N12153449WA006530066500000
B2303053730642N12153448WA006530066600000
B2303063730635N12153450WA006540066800000
B2303073730629N12153451WA006550067000000
B2303083730623N12153451WA006570067200000
B2303093730616N12153451WA006580067200000
B2303103730609N12153451WA006570067200000
B2303113730602N12153452WA006560067200000
B2303123730595N12153454WA006560067100000
B2303133730588N12153455WA006560067200000
B2303143730580N12153456WA006570067300000
B2303153730573N12153457WA006580067300000
B2303163730566N12153457WA006590067500000
B2303173730559N12153457WA006600067500000
B2303183730552N12153458WA006610067500000
B2303193730545N12153458WA006600067500000
B2303243730508N12153458WA006570067100000
B2303293730469N12153458WA006540066900000
B2303343730443N12153477WA006470066200000
B2303393730450N12153491WA006380065400000
B2303443730464N12153507WA006270064200000
B2303493730479N12153519WA006240063700000
B2303543730496N12153530WA006210063200000
B2303593730510N12153536WA006200063100000
B2304043730523N12153540WA006230063600000
B2304093730526N12153543WA006300064000000
B2304143730526N12153519WA006270064000000
B2304193730507N12153483WA006330064400000
B2304243730474N12153475WA006370064800000
B2304263730464N12153482WA006380064700000
B2304273730462N12153486WA006380064700000
B2304283730462N12153490WA006380064700000
B2304293730463N12153492WA006380064700000
B2304303730464N12153493WA006380065000000
B2304313730466N12153493WA006410065300000
B2304323730467N12153492WA006430065400000
B2304333730467N12153490WA006440065500000
B2304343730469N12153487WA006440065200000
B2304353730470N12153481WA006430065000000
B2304363730469N12153473WA006430065100000
B2304373730467N12153465WA006430065300000
B2304383730464N12153457WA006480065600000
B2304413730448N12153442WA006510066000000
B2304423730442N12153439WA006530066100000
B2304433730435N12153437WA006530066200000
B2304443730426N12153439WA006530066000000
B2304453730420N12153441WA006530066100000
B2304463730415N12153444WA006530066200000
B2304473730413N12153449WA006540066400000
B2304483730412N12153452WA006550066500000
B2304493730412N12153455WA006550066500000
B2304503730412N12153459WA006570066800000
B2304513730411N12153463WA006580066900000
B2304523730410N12153467WA006590066900000
B2304533730409N12153470WA006600067000000
B2304543730409N12153472WA006590066800000
B2304553730411N12153473WA006590066700000
B2304563730413N12153472WA006580066700000
B2304573730414N12153467WA006570066700000
B2304583730413N12153461WA006570066700000
B2304593730412N12153456WA006580066700000
B2305003730409N12153451WA006580066600000
B2305013730405N12153444WA006580066400000
B2305023730400N12153438WA006560066200000
B2305033730393N12153432WA006540066100000
B2305043730385N12153427WA006530066100000
B2305053730378N12153422WA006530066100000
B2305063730369N12153420WA006530066200000
B2305073730361N12153420WA006550066200000
B2305083730353N12153422WA006570066300000
B2305093730352N12153428WA006590066600000
B2305103730348N12153431WA006610066700000
B2305113730344N12153435WA006620061000000
B2305123730340N12153440WA006630062400000
B2305133730338N12153444WA006620063200000
B2305143730338N12153449WA006610064100000
B2305153730338N12153452WA006610064600000
B2305163730340N12153454WA006610064900000
B2305173730341N12153454WA006610065300000
B2305183730342N12153450WA006610065500000
B2305193730343N12153447WA006610065900000
B2305203730341N12153441WA006610066000000
B2305213730339N12153435WA006610066100000
B2305223730336N12153429WA006600066100000
B2305233730332N12153421WA006590066100000
B2305243730328N12153414WA006580066200000
B2305253730321N12153407WA006570066300000
B2305263730314N12153403WA006570066200000
B2305273730307N12153401WA006570066300000
B2305283730299N12153399WA006570066300000
B2305293730290N12153400WA006570066300000
B2305303730286N12153407WA006580066400000
B2305313730283N12153411WA006580066300000
B2305323730281N12153415WA006580066400000
B2305333730280N12153419WA006570066500000
B2305343730280N12153424WA006570066500000
B2305353730279N12153428WA006570066700000
B2305363730279N12153430WA006580066600000
B2305373730279N12153432WA006590066600000
B2305383730278N12153435WA006590066600000
B2305393730279N12153435WA006590066500000
B2305403730281N12153435WA006580066400000
B2305413730282N12153431WA006560066300000
B2305423730283N12153426WA006550066300000
B2305433730281N12153417WA006540066200000
B2305443730279N12153409WA006530066100000
B2305453730275N12153401WA006530066100000
B2305463730269N12153394WA006530066100000
B2305473730263N12153389WA006530066100000
B2305483730255N12153385WA006530065900000
B2305493730248N12153381WA006530065900000
B2305503730241N12153379WA006530065900000
B2305513730234N12153379WA006520065900000
B2305523730231N12153386WA006520065800000
B2305533730226N12153392WA006510065800000
B2305543730223N12153397WA006510065700000
B2305553730221N12153402WA006500065700000
B2305563730220N12153405WA006490065700000
B2305573730220N12153409WA006490065700000
B2305583730220N12153413WA006490065600000
B2305593730219N12153416WA006490065700000
B2306003730220N12153419WA006480065600000
B2306013730220N12153423WA006470065500000
B2306023730221N12153425WA006460065500000
B2306033730221N12153428WA006460065600000
B2306043730221N12153431WA006460065600000
B2306053730222N12153432WA006470065600000
B2306063730223N12153434WA006470065500000
B2306073730224N12153435WA006470065400000
B2306083730226N12153437WA006460065200000
B2306093730227N12153438WA006450065300000
B2306103730228N12153440WA006450065400000
B2306113730229N12153442WA006460065600000
B2306123730229N12153445WA006480065800000
B2306133730229N12153447WA006500065800000
B2306143730229N12153449WA006500065700000
B2306153730229N12153451WA006500065600000
B2306163730230N12153453WA006500065500000
B2306173730231N12153455WA006500065600000
B2306183730232N12153457WA006500065500000
B2306193730232N12153459WA006500065400000
B2306203730233N12153462WA006490065400000
B2306213730234N12153465WA006480065400000
B2306223730235N12153467WA006470065300000
B2306233730236N12153470WA006470065200000
B2306243730237N12153472WA006470065200000
B2306253730238N12153475WA006470065100000
B2306303730245N12153483WA006380064300000
B2306353730254N12153498WA006330063900000
B2306403730262N12153510WA006320064000000
B2306453730268N12153520WA006340064000000
B2306503730276N12153529WA006300063800000
B2306553730288N12153540WA006260063400000
B2307003730302N12153548WA006190063000000
B2307053730319N12153546WA006170062700000
B2307103730336N12153544WA006100061800000
B2307153730355N12153553WA006040061700000
B2307203730369N12153563WA006000060900000
B2307253730385N12153558WA005910060300000
B2307303730394N12153521WA005860059800000
B2307353730383N12153483WA005880059600000
B2307393730355N12153467WA005800058800000
B2307403730345N12153467WA005770058600000
B2307413730338N12153470WA005740058700000
B2307423730331N12153472WA005740058900000
B2307433730326N12153474WA005760059000000
B2307443730321N12153476WA005780059000000
B2307453730316N12153477WA005780058900000
B2307463730310N12153480WA005770058700000
B2307473730305N12153483WA005750058500000
B2307483730299N12153486WA005740058500000
B2307493730295N12153491WA005730058500000
B2307503730292N12153497WA005720058300000
B2307513730291N12153502WA005710058400000
B2307523730292N12153505WA005690058300000
B2307533730294N12153508WA005680058100000
B2307543730296N12153511WA005660058000000
B2307553730298N12153513WA005650057800000
B2307563730300N12153515WA005630057700000
B2307573730302N12153517WA005620057600000
B2307583730305N12153519WA005600057500000
B2307593730308N12153521WA005600057400000
B2308003730310N12153522WA005600057400000
B2308013730313N12153524WA005600057400000
B2308023730315N12153525WA005620057500000
B2308033730318N12153526WA005630057500000
B2308043730320N12153526WA005650057600000
B2308053730323N12153527WA005660057600000
B2308063730326N12153525WA005660057700000
B2308073730329N12153524WA005680057700000
B2308083730330N12153522WA005710058100000
B2308093730331N12153520WA005730058300000
B2308103730332N12153516WA005750058300000
B2308113730333N12153511WA005750058200000
B2308123730335N12153505WA005750058100000
B2308133730337N12153498WA005750058300000
B2308143730337N12153491WA005760058500000
B2308153730336N12153483WA005780058600000
B2308163730333N12153478WA005780058500000
B2308173730328N12153472WA005780058400000
B2308183730324N12153465WA005770058400000
B2308193730315N12153465WA005750058300000
B2308213730305N12153472WA005740058500000
B2308223730302N12153475WA005750058700000
B2308233730302N12153478WA005780058900000
B2308243730301N12153479WA005800059000000
B2308253730301N12153480WA005810059000000
B2308263730302N12153481WA005820059100000
B2308273730304N12153480WA005820059100000
B2308283730306N12153477WA005810059200000
B2308293730309N12153470WA005810059200000
B2308303730309N12153461WA005810059300000
B2308313730307N12153453WA005820059300000
B2308323730302N12153446WA005830059300000
B2308333730296N12153442WA005830059100000
B2308343730289N12153439WA005810059000000
B2308353730282N12153440WA005800059100000
B2308363730275N12153441WA005810059400000
B2308373730269N12153442WA005830059500000
B2308383730268N12153445WA005850059700000
B2308393730267N12153448WA005860059600000
B2308403730267N12153452WA005860059700000
B2308413730267N12153455WA005870059800000
B2308423730269N12153455WA005890060000000
B2308433730271N12153452WA005910060100000
B2308443730273N12153448WA005920060100000
B2308453730274N12153440WA005920060100000
B2308463730274N12153433WA005920060200000
B2308473730272N12153426WA005930060300000
B2308483730266N12153419WA005930060100000
B2308493730258N12153414WA005910060000000
B2308503730250N12153413WA005900060100000
B2308513730242N12153411WA005900060100000
B2308523730235N12153412WA005920060200000
B2308533730235N12153417WA005940060300000
B2308543730231N12153420WA005960060400000
B2308553730230N12153423WA005970060400000
B2308563730231N12153426WA005980060500000
B2308573730232N12153427WA005990060600000
B2308583730233N12153426WA006000060700000
B2308593730235N12153424WA006000060600000
B2309003730236N12153420WA005990060500000
B2309013730237N12153414WA005980060400000
B2309023730236N12153407WA005980060300000
B2309033730233N12153399WA005970060300000
B2309043730228N12153393WA005970060300000
B2309053730222N12153388WA005970060200000
B2309063730215N12153384WA005970060200000
B2309073730207N12153383WA005990060300000
B2309083730200N12153382WA005990060400000
B2309093730195N12153383WA006020060600000
B2309103730190N12153384WA006030061000000
B2309113730186N12153386WA006060061200000
B2309123730181N12153388WA006070061400000
B2309133730177N12153391WA006080061600000
B2309143730173N12153393WA006100061700000
B2309153730171N12153396WA006110061900000
B2309163730170N12153399WA006120061900000
B2309173730171N12153400WA006120061900000
B2309183730172N12153400WA006120062000000
B2309193730173N12153399WA006130062000000
B2309203730175N12153397WA006140062200000
B2309213730176N12153393WA006150062300000
B2309223730175N12153387WA006160062400000
B2309233730174N12153380WA006160062300000
B2309243730171N12153372WA006150062200000
B2309253730166N12153365WA006150062300000
B2309263730159N12153359WA006150062400000
B2309273730151N12153356WA006150062400000
B2309283730141N12153354WA006150062500000
B2309293730132N12153352WA006160062500000
B2309303730123N12153351WA006180062500000
B2309313730121N12153355WA006210062700000
B2309323730117N12153358WA006220062700000
B2309333730117N12153362WA006200062400000
B2309343730119N12153366WA006180062500000
B2309353730119N12153367WA006180062600000
B2309363730121N12153366WA006190062500000
B2309373730122N12153362WA006200062600000
B2309383730123N12153358WA006200062700000
B2309393730123N12153352WA006210062700000
B2309403730123N12153346WA006210062600000
B2309413730122N12153339WA006210062700000
B2309423730123N12153332WA006210062600000
B2309433730123N12153327WA006210062700000
B2309443730123N12153322WA006220062800000
B2309453730123N12153317WA006220062800000
B2309463730123N12153312WA006230062900000
B2309473730124N12153308WA006230062900000
B2309483730124N12153304WA006230063000000
B2309493730126N12153300WA006230062900000
B2309503730127N12153296WA006230063000000
B2309513730128N12153292WA006230063100000
B2309523730130N12153288WA006240063300000
B2309533730130N12153284WA006240063300000
B2309583730137N12153268WA006200063000000
B2310033730147N12153251WA006180063000000
B2310083730158N12153245WA006160062800000
B2310133730167N12153246WA006140062400000
B2310183730176N12153251WA006080062100000
B2310233730183N12153259WA006050061700000
B2310283730193N12153262WA006010061400000
B2310333730203N12153261WA006000061200000
B2310383730215N12153240WA005970061200000
B2310433730230N12153232WA005950060900000
B2310483730246N12153225WA005950061300000
B2310533730261N12153214WA006010061600000
B2310583730272N12153207WA006060062200000
B2311033730287N12153197WA006020061700000
B2311083730305N12153189WA006010061500000
B2311133730321N12153181WA005960061000000
B2311183730340N12153175WA005910060200000
B2311233730362N12153169WA005890060000000
B2311283730384N12153162WA005960060300000
B2311333730403N12153160WA006000060800000
B2311383730413N12153155WA006060061300000
B2311433730428N12153143WA006020061300000
B2311483730441N12153127WA006010061400000
B2311533730454N12153109WA006010061100000
B2311583730466N12153110WA005970061100000
B2312033730460N12153120WA006050061500000
B2312083730452N12153136WA006070061700000
B2312133730456N12153146WA006200063100000
B2312183730449N12153108WA006240063500000
B2312233730441N12153121WA006360064700000
B2312253730448N12153109WA006390064500000
B2312263730447N12153099WA006390064500000
B2312273730444N12153089WA006380064600000
B2312283730437N12153083WA006380064700000
B2312293730429N12153082WA006390065100000
B2312303730422N12153085WA006410065400000
B2312313730419N12153089WA006440065500000
B2312323730420N12153093WA006460065700000
B2312333730423N12153095WA006480065800000
B2312343730426N12153095WA006510066000000
B2312353730429N12153092WA006530066100000
B2312363730431N12153087WA006530066000000
B2312373730433N12153080WA006530066000000
B2312383730432N12153069WA006530066000000
B2312393730431N12153059WA006520065900000
B2312403730428N12153052WA006520066100000
B2312413730416N12153053WA006540066000000
B2312423730411N12153054WA006550066100000
B2312433730407N12153059WA006550066300000
B2312443730409N12153064WA006550066300000
B2312453730413N12153065WA006560066300000
B2312463730418N12153064WA006580066500000
B2312473730422N12153059WA006590066800000
B2312483730425N12153052WA006610066900000
B2312493730425N12153043WA006620067000000
B2312503730424N12153034WA006630067100000
B2312513730421N12153026WA006640067100000
B2312523730417N12153019WA006660067300000
B2312533730411N12153014WA006680067400000
B2312543730405N12153012WA006680067400000
B2312553730399N12153014WA006670067300000
B2312563730395N12153019WA006670067300000
B2312573730393N12153023WA006670067400000
B2312583730394N12153027WA006680067600000
B2312593730395N12153028WA006700067800000
B2313003730396N12153030WA006710067900000
B2313013730397N12153034WA006720068000000
B2313023730399N12153035WA006730068100000
B2313033730403N12153038WA006740068000000
B2313043730407N12153038WA006740068100000
B2313053730412N12153034WA006750068300000
B2313063730416N12153027WA006760068400000
B2313073730418N12153019WA006770068300000
B2313083730416N12153009WA006780068300000
B2313093730412N12153001WA006780068300000
B2313103730406N12152995WA006780068300000
B2313113730399N12152994WA006780068500000
B2313123730393N12152993WA006790068500000
B2313133730393N12153001WA006800068700000
B2313143730394N12153006WA006810068900000
B2313153730397N12153008WA006830069100000
B2313163730402N12153008WA006850069300000
B2313173730407N12153004WA006860069300000
B2313183730410N12152996WA006870069300000
B2313193730411N12152988WA006880069500000
B2313203730411N12152979WA006880069600000
B2313213730408N12152970WA006890069600000
B2313223730403N12152964WA006890069600000
B2313233730398N12152958WA006880069600000
B2313243730394N12152959WA006880069500000
B2313253730388N12152962WA006880069700000
B2313263730387N12152966WA006880070000000
B2313273730387N12152971WA006890070200000
B2313283730388N12152974WA006920070600000
B2313293730389N12152976WA006940070800000
B2313303730390N12152977WA006970070800000
B2313313730393N12152979WA006980070700000
B2313323730396N12152980WA006980070500000
B2313333730400N12152980WA006970070500000
B2313343730405N12152977WA006960070600000
B2313353730408N12152971WA006970070700000
B2313363730410N12152964WA006970070600000
B2313373730409N12152956WA006980070700000
B2313383730408N12152948WA006990070700000
B2313393730403N12152943WA007000070700000
B2313403730397N12152939WA007010070800000
B2313413730392N12152935WA007030071000000
B2313423730387N12152935WA007040071200000
B2313433730383N12152935WA007060071400000
B2313443730380N12152938WA007070071500000
B2313453730380N12152942WA007070071400000
B2313463730379N12152945WA007070071400000
B2313473730379N12152950WA007060071300000
B2313483730383N12152956WA007060071500000
B2313493730389N12152953WA007080071700000
B2313503730392N12152950WA007090071900000
B2313513730396N12152946WA007110072100000
B2313523730399N12152941WA007120072200000
B2313533730401N12152934WA007140072300000
B2313543730401N12152926WA007150072400000
B2313553730400N12152919WA007160072400000
B2313563730398N12152911WA007180072500000
B2313573730391N12152907WA007190072600000
B2313583730385N12152904WA007190072800000
B2313593730380N12152904WA007200072900000
B2314003730374N12152903WA007200072900000
B2314013730371N12152910WA007210073000000
B2314023730371N12152914WA007220073300000
B2314033730371N12152919WA007230073500000
B2314043730372N12152923WA007250073600000
B2314053730373N12152926WA007270073900000
B2314063730375N12152928WA007280074000000
B2314073730377N12152930WA007300074000000
B2314083730381N12152929WA007300074200000
B2314093730385N12152927WA007310074400000
B2314103730388N12152922WA007310074500000
B2314113730389N12152913WA007320074600000
B2314123730390N12152905WA007330074600000
B2314133730386N12152898WA007340074600000
B2314143730381N12152891WA007350074800000
B2314153730377N12152883WA007370074900000
B2314163730373N12152883WA007390075000000
B2314173730368N12152883WA007400075100000
B2314183730364N12152883WA007400075000000
B2314193730360N12152890WA007390075000000
B2314203730358N12152896WA007380075100000
B2314213730359N12152901WA007380075300000
B2314223730360N12152905WA007390075500000
B2314233730362N12152908WA007410075600000
B2314243730364N12152912WA007430075700000
B2314253730366N12152915WA007450075800000
B2314263730368N12152917WA007460075900000
B2314273730371N12152916WA007470075900000
B2314283730375N12152914WA007480075900000
B2314293730379N12152910WA007480076100000
B2314303730382N12152904WA007510076300000
B2314313730382N12152896WA007530076500000
B2314323730382N12152888WA007550076600000
B2314333730377N12152880WA007570076900000
B2314343730372N12152875WA007590076800000
B2314353730366N12152873WA007590076800000
B2314363730360N12152873WA007590076800000
B2314373730355N12152877WA007580076900000
B2314383730353N12152881WA007590077000000
B2314393730353N12152886WA007600077200000
B2314403730355N12152890WA007610077300000
B2314413730357N12152894WA007630077700000
B2314423730359N12152897WA007660077900000
B2314433730360N12152899WA007690078500000
B2314443730362N12152900WA007730078700000
B2314453730363N12152902WA007760078900000
B2314463730365N12152903WA007780079000000
B2314473730368N12152902WA007790079200000
B2314483730370N12152899WA007810079500000
B2314493730372N12152893WA007820079800000
B2314503730372N12152885WA007840079900000
B2314513730369N12152878WA007840080000000
B2314523730364N12152873WA007870080100000
B2314533730358N12152872WA007890080200000
B2314543730352N12152876WA007900080300000
B2314553730348N12152881WA007910080500000
B2314563730346N12152887WA007940080700000
B2314573730346N12152892WA007960081000000
B2314583730348N12152897WA007990081100000
B2314593730352N12152897WA008010081300000
B2315003730356N12152895WA008030081600000
B2315013730359N12152891WA008050081700000
B2315023730361N12152883WA008070081900000
B2315033730360N12152876WA008090082300000
B2315043730357N12152870WA008120082600000
B2315053730354N12152866WA008150082700000
B2315063730349N12152863WA008180082900000
B2315073730344N12152860WA008190083100000
B2315083730337N12152862WA008220083300000
B2315093730332N12152864WA008230083400000
B2315103730328N12152868WA008240083400000
B2315113730324N12152874WA008240083400000
B2315123730326N12152881WA008250083800000
B2315133730328N12152887WA008260084100000
B2315143730331N12152891WA008310084600000
B2315153730332N12152892WA008350085100000
B2315163730334N12152894WA008400085400000
B2315173730337N12152895WA008430085700000
B2315183730339N12152895WA008460085900000
B2315193730342N12152895WA008470086000000
B2315203730345N12152894WA008490086100000
B2315213730348N12152890WA008500086300000
B2315223730348N12152885WA008520086400000
B2315233730347N12152879WA008530086400000
B2315243730344N12152874WA008540086600000
B2315253730338N12152871WA008560087000000
B2315263730332N12152871WA008590087400000
B2315273730327N12152874WA008610087600000
B2315283730322N12152879WA008630087800000
B2315293730318N12152887WA008640088000000
B2315303730317N12152895WA008650088300000
B2315313730317N12152901WA008670088800000
B2315323730319N12152905WA008710089000000
B2315333730322N12152908WA008730089100000
B2315343730325N12152907WA008750089100000
B2315353730329N12152905WA008770089400000
B2315363730332N12152902WA008790089600000
B2315373730334N12152897WA008810089700000
B2315383730334N12152891WA008820089700000
B2315393730333N12152885WA008830089800000
B2315403730332N12152878WA008850090000000
B2315413730330N12152872WA008870090100000
B2315423730319N12152873WA008900090300000
B2315433730314N12152874WA008930090600000
B2315443730308N12152877WA008940090800000
B2315453730302N12152881WA008960090900000
B2315463730298N12152886WA008980091100000
B2315473730294N12152893WA008990091100000
B2315483730294N12152902WA008990091300000
B2315493730296N12152910WA008990091500000
B2315503730298N12152916WA009010091800000
B2315513730302N12152919WA009040092200000
B2315523730305N12152919WA009080092400000
B2315533730308N12152918WA009100092700000
B2315543730311N12152916WA009120092900000
B2315553730314N12152914WA009130093000000
B2315563730317N12152911WA009150093200000
B2315573730319N12152907WA009160093200000
B2315583730319N12152901WA009170093200000
B2315593730317N12152895WA009170093200000
B2316003730314N12152890WA009170093400000
B2316013730309N12152886WA009180093500000
B2316023730303N12152887WA009190093700000
B2316033730298N12152890WA009210093900000
B2316043730293N12152892WA009220093800000
B2316053730290N12152899WA009230094000000
B2316063730287N12152906WA009240094200000
B2316073730288N12152915WA009250094200000
B2316083730290N12152921WA009260094400000
B2316093730292N12152925WA009280094300000
B2316103730296N12152925WA009300094400000
B2316113730299N12152925WA009320094700000
B2316123730302N12152921WA009340094800000
B2316133730303N12152917WA009360094800000
B2316143730304N12152912WA009360094700000
B2316153730303N12152906WA009360094700000
B2316163730302N12152900WA009360094700000
B2316173730300N12152894WA009360094900000
B2316183730298N12152890WA009370095000000
B2316193730295N12152888WA009380095100000
B2316203730291N12152887WA009380094900000
B2316213730287N12152886WA009360094600000
B2316223730282N12152887WA009330094500000
B2316233730276N12152891WA009300094200000
B2316243730271N12152895WA009270094200000
B2316253730268N12152902WA009260094100000
B2316263730265N12152910WA009250093900000
B2316273730265N12152919WA009230094000000
B2316283730266N12152927WA009240094300000
B2316293730264N12152934WA009300094800000
B2316303730263N12152939WA009330095200000
B2316313730262N12152944WA009380095300000
B2316323730261N12152951WA009400095200000
B2316333730261N12152957WA009400095200000
B2316343730267N12152958WA009380095100000
B2316353730272N12152956WA009360095100000
B2316363730273N12152952WA009350095100000
B2316373730272N12152947WA009360095200000
B2316383730268N12152944WA009380095500000
B2316393730264N12152941WA009410095600000
B2316403730257N12152945WA009430095800000
B2316413730251N12152947WA009460096000000
B2316423730245N12152949WA009470096100000
B2316463730229N12152977WA009470096300000
B2316473730232N12152982WA009480096500000
B2316483730235N12152984WA009500096500000
B2316503730241N12152978WA009500096600000
B2316513730241N12152973WA009510096600000
B2316523730239N12152969WA009510096600000
B2316533730237N12152966WA009510096700000
B2316543730228N12152966WA009520097000000
B2316553730222N12152967WA009540097200000
B2316563730217N12152969WA009560097300000
B2316573730211N12152972WA009580097200000
B2316583730205N12152978WA009580097000000
B2316593730201N12152987WA009560097100000
B2317003730199N12152997WA009560097100000
B2317013730199N12153003WA009560097300000
B2317023730200N12153007WA009560097200000
B2317033730203N12153007WA009550097000000
B2317043730206N12153006WA009540096800000
B2317053730209N12153003WA009520097000000
B2317063730211N12152999WA009510097100000
B2317073730211N12152996WA009520097000000
B2317083730209N12152992WA009520096900000
B2317093730205N12152989WA009500096600000
B2317103730200N12152986WA009490096500000
B2317113730195N12152984WA009480096500000
B2317123730191N12152983WA009470096500000
B2317133730186N12152984WA009470096500000
B2317143730181N12152984WA009470096400000
B2317153730175N12152985WA009450096300000
B2317163730168N12152987WA009430096300000
B2317173730162N12152989WA009410096300000
B2317183730156N12152994WA009410096300000
B2317193730151N12152999WA009410096300000
B2317203730148N12153004WA009410096300000
B2317213730147N12153010WA009410096300000
B2317223730147N12153016WA009410096200000
B2317233730148N12153020WA009400096100000
B2317243730150N12153023WA009400096000000
B2317253730153N12153024WA009390096000000
B2317263730156N12153024WA009390095900000
B2317273730159N12153024WA009380095700000
B2317283730162N12153022WA009380095800000
B2317293730164N12153020WA009380095800000
B2317303730166N12153015WA009380095500000
B2317313730168N12153010WA009350095400000
B2317323730169N12153003WA009330095300000
B2317333730166N12152996WA009300095000000
B2317343730162N12152991WA009290095100000
B2317353730155N12152988WA009290095100000
B2317363730147N12152986WA009290095100000
B2317373730140N12152985WA009290095100000
B2317383730132N12152987WA009300095200000
B2317393730125N12152989WA009310095200000
B2317403730118N12152992WA009310095200000
B2317413730111N12152994WA009320095200000
B2317423730104N12152994WA009320095200000
B2317433730097N12152994WA009320095100000
B2317443730091N12152993WA009310095000000
B2317453730084N12152992WA009300094900000
B2317463730076N12152990WA009280094900000
B2317473730068N12152990WA009270094900000
B2317483730060N12152991WA009280094900000
B2317493730052N12152993WA009290095000000
B2317503730046N12152994WA009290095000000
B2317513730041N12152995WA009300095000000
B2317523730035N12152996WA009300094900000
B2317573730004N12153004WA009280095000000
B2318023729970N12153013WA009250094600000
B2318073729937N12153020WA009230094200000
B2318123729898N12153030WA009150093700000
B2318173729864N12153042WA009110093000000
B2318223729827N12153055WA009040092300000
B2318273729791N12153067WA009000092000000
B2318323729756N12153070WA008970091800000
B2318373729723N12153075WA008950091500000
B2318423729689N12153080WA008890090800000
B2318473729652N12153084WA008850090500000
B2318523729615N12153087WA008790090000000
B2318573729582N12153090WA008740089200000
B2319023729545N12153109WA008640088500000
B2319073729509N12153126WA008590088100000
B2319123729475N12153143WA008520087000000
B2319173729440N12153159WA008460086600000
B2319223729398N12153170WA008410086400000
B2319273729357N12153179WA008380086000000
B2319323729314N12153183WA008290084900000
B2319373729271N12153187WA008200084100000
B2319423729230N12153190WA008140083200000
B2319473729188N12153188WA008020082000000
B2319523729146N12153184WA007930081100000
B2319573729108N12153175WA007860080600000
B2320023729072N12153166WA007800079700000
B2320073729030N12153156WA007760079500000
B2320123728996N12153140WA007850080100000
B2320173728967N12153117WA007870080100000
B2320223728972N12153100WA007920080700000
B2320273728964N12153122WA007870080700000
B2320323728931N12153132WA007930081000000
B2320333728924N12153130WA007930080900000
B2320343728917N12153127WA007920080900000
B2320353728909N12153121WA007920080900000
B2320363728903N12153115WA007910080900000
B2320373728896N12153108WA007920080800000
B2320383728894N12153101WA007930080900000
B2320393728893N12153094WA007930080700000
B2320403728894N12153088WA007920080700000
B2320413728896N12153085WA007920080800000
B2320423728898N12153084WA007930081000000
B2320433728899N12153086WA007940081000000
B2320443728899N12153089WA007950081000000
B2320453728899N12153093WA007950081000000
B2320463728898N12153099WA007950081100000
B2320473728896N12153105WA007940081100000
B2320483728893N12153111WA007950081200000
B2320493728887N12153116WA007940081200000
B2320503728880N12153119WA007950081300000
B2320513728873N12153121WA007950081300000
B2320523728865N12153121WA007960081300000
B2320533728858N12153120WA007960081400000
B2320543728850N12153118WA007970081300000
B2320553728842N12153114WA007970081300000
B2320563728835N12153109WA007960081200000
B2320573728829N12153102WA007960081100000
B2320583728825N12153094WA007950081100000
B2320593728824N12153086WA007940081000000
B2321003728824N12153079WA007920080900000
B2321013728825N12153074WA007920081000000
B2321023728826N12153071WA007920081100000
B2321033728825N12153070WA007930081200000
B2321043728827N12153071WA007940081000000
B2321053728828N12153072WA007940080800000
B2321063728829N12153074WA007930080800000
B2321073728831N12153075WA007930080800000
B2321083728832N12153078WA007930080900000
B2321093728833N12153082WA007930080800000
B2321103728833N12153086WA007930080700000
B2321113728831N12153092WA007930080700000
B2321123728826N12153099WA007920080600000
B2321133728820N12153106WA007910080600000
B2321143728814N12153111WA007890080500000
B2321153728805N12153114WA007880080300000
B2321163728797N12153114WA007860080300000
B2321173728788N12153113WA007840080200000
B2321183728780N12153109WA007830080100000
B2321193728772N12153104WA007820080100000
B2321203728765N12153100WA007820080200000
B2321213728758N12153096WA007830080100000
B2321223728750N12153091WA007840080000000
B2321233728743N12153086WA007830080000000
B2321243728734N12153081WA007830080000000
B2321253728726N12153077WA007830080000000
B2321263728718N12153072WA007830079900000
B2321273728710N12153068WA007830079900000
B2321283728701N12153063WA007830079900000
B2321293728693N12153058WA007830079900000
B2321303728685N12153052WA007830079900000
B2321313728677N12153047WA007820079800000
B2321323728669N12153041WA007810079700000
B2321373728632N12153013WA007790079400000
B2321423728596N12152990WA007750079100000
B2321473728561N12152967WA007710078300000
B2321523728516N12152947WA007550076900000
B2321573728470N12152920WA007470076200000
B2322023728429N12152894WA007470076000000
B2322073728386N12152872WA007390075400000
B2322123728342N12152850WA007320074700000
B2322173728299N12152833WA007280074400000
B2322223728264N12152825WA007240073800000
B2322273728224N12152817WA007180073300000
B2322323728182N12152810WA007140072800000
B2322373728141N12152803WA007090072500000
B2322423728101N12152795WA007070073600000
B2322473728060N12152791WA006980072100000
B2322523728021N12152786WA006960071300000
B2322573727979N12152786WA006810070000000
B2323023727936N12152779WA006740069100000
B2323073727894N12152767WA006710069200000
B2323123727850N12152750WA006670068700000
B2323173727812N12152727WA006680068400000
B2323223727776N12152704WA006590067300000
B2323273727739N12152683WA006550067100000
B2323323727700N12152667WA006510066500000
B2323373727662N12152645WA006440065800000
B2323423727623N12152621WA006400065600000
B2323473727586N12152605WA006370065300000
B2323523727547N12152588WA006320064700000
B2323573727506N12152567WA006200063300000
B2324023727463N12152533WA006080062100000
B2324073727422N12152500WA006060061800000
B2324123727387N12152467WA006040061700000
B2324173727353N12152440WA005990061000000
B2324223727319N12152415WA005960060700000
B2324273727286N12152386WA005910060000000
B2324323727251N12152357WA005870059800000
B2324373727216N12152332WA005870059800000
B2324423727183N12152307WA005850059600000
B2324473727151N12152282WA005830059400000
B2324523727113N12152256WA005730058700000
B2324573727079N12152234WA005810059100000
B2325023727045N12152210WA005720058900000
B2325073727007N12152191WA005720058800000
B2325123726968N12152170WA005650058300000
B2325173726932N12152151WA005610057700000
B2325223726893N12152132WA005550057200000
B2325273726854N12152116WA005520057100000
B2325323726817N12152099WA005530056900000
B2325373726779N12152084WA005530057000000
B2325423726740N12152065WA005500056600000
B2325473726696N12152037WA005470056100000
B2325523726652N12152011WA005440055900000
B2325573726612N12151991WA005450055900000
B2326023726571N12151968WA005430055700000
B2326073726533N12151945WA005460056000000
B2326123726505N12151951WA005430055800000
B2326173726509N12151952WA005370055100000
B2326223726503N12151911WA005350054800000
B2326273726491N12151870WA005360054200000
B2326323726472N12151827WA005330054000000
B2326373726453N12151785WA005320053700000
B2326423726434N12151741WA005280053200000
B2326473726406N12151694WA005240053100000
B2326523726376N12151657WA005280053200000
B2326573726350N12151620WA005260053000000
B2327023726321N12151580WA005230052800000
B2327073726299N12151534WA005240053100000
B2327123726275N12151494WA005180052300000
B2327173726249N12151446WA005150052500000
B2327223726229N12151403WA005160052300000
B2327273726209N12151359WA005130051700000
B2327323726186N12151313WA005150052200000
B2327373726156N12151284WA005090051600000
B2327423726148N12151300WA005030051100000
B2327473726163N12151289WA004970057500000
B2327523726183N12151273WA004970052100000
B2327573726199N12151265WA004970051000000
B2328023726206N12151270WA004950050600000
B2328073726195N12151282WA004900050100000
B2328123726179N12151293WA004820049400000
B2328173726161N12151302WA004800049000000
B2328223726144N12151310WA004840049400000
B2328273726135N12151319WA004850049600000
B2328323726141N12151318WA004830049300000
B2328373726153N12151321WA004790049000000
B2328423726160N12151330WA004760048700000
B2328473726165N12151339WA004710048300000
B2328523726149N12151351WA004660047600000
B2328573726113N12151341WA004590046900000
B2329023726078N12151337WA004510046000000
B2329073726046N12151337WA004470045600000
B2329123726017N12151337WA004430045000000
B2329173725985N12151339WA004350044400000
B2329223725950N12151347WA004230043600000
B2329273725924N12151366WA004180042800000
B2329323725899N12151385WA004110042100000
B2329373725876N12151398WA004140041900000
B2329423725853N12151411WA004070041400000
B2329473725836N12151432WA004000040900000
B2329523725823N12151451WA003930040200000
B2329573725808N12151471WA003870039800000
B2330023725796N12151489WA003830039600000
B2330073725789N12151508WA003800039500000
B2330123725784N12151525WA003830039600000
B2330173725784N12151530WA003990040800000
B2330223725788N12151495WA003890040100000
B2330273725766N12151496WA003930040000000
B2330323725776N12151472WA003980039800000
B2330333725774N12151462WA003970039800000
B2330343725770N12151452WA003980039900000
B2330353725764N12151445WA003980039800000
B2330363725757N12151441WA003980039800000
B2330373725750N12151439WA003980039900000
B2330383725744N12151441WA003990040000000
B2330393725741N12151444WA004000040000000
B2330403725741N12151448WA004020040200000
B2330413725742N12151450WA004030040400000
B2330423725744N12151450WA004040040400000
B2330433725749N12151449WA004040040400000
B2330443725752N12151443WA004050040600000
B2330453725754N12151435WA004070040600000
B2330463725753N12151424WA004070040600000
B2330473725750N12151414WA004060040600000
B2330483725742N12151408WA004060040700000
B2330493725734N12151404WA004070040800000
B2330503725728N12151402WA004080040800000
B2330513725723N12151403WA004100040900000
B2330523725718N12151407WA004110053300000
B2330533725715N12151412WA004130050300000
B2330543725715N12151416WA004150047700000
B2330553725718N12151418WA004170046300000
B2330563725721N12151419WA004180045300000
B2330573725725N12151418WA004190045200000
B2330583725729N12151410WA004190045100000
B2330593725731N12151402WA004200044700000
B2331003725730N12151392WA004220044300000
B2331013725728N12151382WA004230044000000
B2331023725721N12151375WA004220043700000
B2331033725713N12151370WA004220043600000
B2331043725707N12151368WA004230043500000
B2331053725701N12151367WA004230043500000
B2331063725695N12151369WA004250043600000
B2331073725692N12151372WA004270043700000
B2331083725690N12151375WA004290043700000
B2331093725690N12151378WA004310043700000
B2331103725691N12151381WA004320055500000
B2331113725693N12151383WA004330052300000
B2331123725698N12151380WA004340050100000
B2331133725701N12151376WA004350049000000
B2331143725703N12151369WA004360047900000
B2331153725704N12151360WA004370046800000
B2331163725702N12151351WA004370046300000
B2331173725696N12151344WA004380045800000
B2331183725690N12151340WA004380045700000
B2331193725683N12151338WA004390045400000
B2331203725677N12151339WA004400045600000
B2331213725672N12151341WA004430045500000
B2331223725671N12151344WA004460045700000
B2331233725670N12151347WA004500045900000
B2331243725670N12151349WA004520046200000
B2331253725670N12151352WA004530046300000
B2331263725672N12151355WA004550046400000
B2331273725675N12151354WA004560046300000
B2331283725679N12151352WA004580046400000
B2331293725682N12151346WA004580046300000
B2331303725684N12151337WA004590046400000
B2331313725683N12151327WA004590046400000
B2331323725681N12151318WA004610046500000
B2331333725674N12151313WA004610046500000
B2331343725666N12151311WA004610046600000
B2331353725660N12151310WA004620046500000
B2331363725654N12151309WA004620046600000
B2331373725650N12151315WA004620046800000
B2331383725645N12151319WA004640047000000
B2331393725645N12151323WA004670047100000
B2331403725647N12151325WA004700047100000
B2331413725650N12151327WA004710047100000
B2331423725654N12151328WA004730047100000
B2331433725658N12151325WA004740047200000
B2331443725661N12151315WA004760047300000
B2331453725662N12151306WA004770047300000
B2331463725661N12151297WA004780047400000
B2331473725658N12151289WA004790047500000
B2331483725653N12151281WA004800047700000
B2331493725647N12151277WA004810047900000
B2331503725640N12151276WA004810047900000
B2331513725634N12151277WA004820048000000
B2331523725629N12151281WA004860048200000
B2331563725628N12151295WA004910049000000
B2331573725632N12151294WA004920049100000
B2331583725636N12151293WA004920049100000
B2331593725638N12151284WA004930049100000
B2332003725639N12151276WA004930049200000
B2332013725637N12151267WA004940049300000
B2332023725634N12151259WA004960049400000
B2332033725628N12151253WA004970049500000
B2332043725622N12151249WA004990049700000
B2332053725617N12151247WA005010049800000
B2332063725611N12151247WA005010049900000
B2332073725606N12151250WA005010050000000
B2332083725602N12151254WA005020050100000
B2332093725599N12151258WA005030050300000
B2332103725598N12151262WA005050050500000
B2332113725598N12151264WA005080050700000
B2332123725599N12151266WA005080050700000
B2332133725600N12151268WA005090050700000
B2332143725602N12151268WA005090050600000
B2332153725606N12151267WA005080050600000
B2332163725609N12151264WA005070050500000
B2332173725611N12151257WA005060059400000
B2332183725612N12151248WA005060056900000
B2332193725611N12151239WA005070055100000
B2332203725610N12151231WA005090054300000
B2332213725608N12151223WA005110053900000
B2332223725603N12151216WA005120053500000
B2332233725598N12151210WA005130052900000
B2332243725591N12151205WA005140052700000
B2332253725585N12151202WA005140052600000
B2332263725578N12151199WA005150052500000
B2332273725573N12151202WA005160052600000
B2332283725567N12151204WA005170052500000
B2332293725566N12151208WA005180052500000
B2332303725563N12151211WA005190052500000
B2332313725565N12151214WA005200052600000
B2332323725567N12151215WA005210052700000
B2332333725569N12151214WA005220052700000
B2332343725572N12151211WA005230052700000
B2332353725574N12151205WA005230052600000
B2332363725576N12151198WA005240052700000
B2332373725576N12151190WA005240052800000
B2332383725575N12151180WA005240052700000
B2332393725574N12151171WA005240052600000
B2332403725571N12151162WA005250052600000
B2332413725565N12151156WA005260052700000
B2332423725559N12151150WA005270052700000
B2332433725552N12151147WA005280052800000
B2332443725546N12151145WA005290053000000
B2332453725540N12151144WA005300053200000
B2332463725535N12151146WA005310053300000
B2332473725531N12151148WA005330053400000
B2332483725529N12151151WA005340053500000
B2332493725527N12151155WA005340053400000
B2332503725528N12151158WA005340053400000
B2332513725530N12151159WA005350053600000
B2332523725533N12151158WA005350053700000
B2332533725536N12151152WA005350053600000
B2332543725538N12151143WA005350053700000
B2332553725538N12151134WA005340053800000
B2332563725536N12151124WA005340053800000
B2332573725532N12151115WA005340053900000
B2332583725527N12151108WA005350054100000
B2332593725521N12151102WA005370054300000
B2333003725516N12151097WA005380054400000
B2333013725510N12151093WA005400054500000
B2333023725503N12151089WA005410054500000
B2333033725496N12151090WA005410054500000
B2333043725490N12151091WA005410054500000
B2333053725485N12151093WA005420054600000
B2333063725485N12151102WA005420054500000
B2333073725485N12151106WA005430054400000
B2333083725487N12151109WA005440054400000
B2333093725490N12151110WA005440054400000
B2333103725492N12151106WA005440054600000
B2333113725494N12151101WA005440054500000
B2333123725494N12151093WA005440054500000
B2333133725493N12151085WA005430054400000
B2333143725491N12151075WA005420062800000
B2333153725489N12151065WA005410060400000
B2333163725486N12151057WA005420058900000
B2333173725481N12151049WA005430057700000
B2333183725475N12151043WA005450057000000
B2333193725467N12151040WA005460056800000
B2333203725461N12151037WA005480056300000
B2333213725454N12151036WA005490056100000
B2333223725448N12151038WA005500056200000
B2333233725444N12151042WA005500056200000
B2333243725443N12151045WA005510056300000
B2333253725443N12151048WA005520056100000
B2333263725445N12151049WA005520056000000
B2333273725447N12151049WA005530056000000
B2333283725450N12151044WA005520056000000
B2333293725452N12151039WA005520056100000
B2333303725454N12151035WA005520056100000
B2333313725456N12151029WA005520056200000
B2333323725457N12151023WA005530056200000
B2333333725458N12151015WA005530056200000
B2333343725457N12151007WA005540054900000
B2333353725455N12150999WA005540055100000
B2333363725450N12150992WA005540055300000
B2333373725444N12150986WA005540055400000
B2333383725437N12150981WA005550055600000
B2333393725430N12150978WA005550055800000
B2333403725423N12150976WA005570055900000
B2333413725418N12150978WA005580056100000
B2333423725413N12150981WA005580056100000
B2333433725409N12150985WA005590056200000
B2333443725407N12150988WA005590056300000
B2333453725407N12150992WA005590056400000
B2333463725408N12150994WA005600056500000
B2333473725410N12150994WA005600056600000
B2333483725412N12150994WA005610056600000
B2333493725415N12150992WA005610056600000
B2333503725417N12150989WA005600056500000
B2333513725419N12150983WA005600056500000
B2333523725421N12150976WA005600056500000
B2333533725421N12150968WA005590056500000
B2333543725419N12150958WA005600056600000
B2333553725417N12150950WA005610056700000
B2333563725413N12150943WA005630056800000
B2333573725408N12150938WA005640057000000
B2333583725403N12150933WA005650057000000
B2333593725396N12150928WA005660057000000
B2334003725390N12150925WA005660057000000
B2334013725382N12150922WA005650057000000
B2334023725377N12150922WA005650056800000
B2334033725374N12150933WA005640056700000
B2334043725372N12150937WA005640056800000
B2334053725371N12150940WA005640057000000
B2334063725369N12150942WA005660057100000
B2334073725369N12150943WA005670057200000
B2334083725369N12150944WA005680057200000
B2334093725370N12150945WA005680057100000
B2334103725371N12150945WA005670057100000
B2334113725374N12150944WA005670057000000
B2334123725376N12150943WA005660057000000
B2334133725378N12150937WA005650057000000
B2334143725380N12150929WA005640056900000
B2334153725381N12150920WA005620056900000
B2334163725379N12150910WA005630057100000
B2334173725377N12150902WA005640057100000
B2334183725373N12150894WA005650057100000
B2334193725367N12150888WA005670057200000
B2334203725362N12150882WA005680057300000
B2334213725356N12150878WA005680057200000
B2334223725349N12150874WA005680057100000
B2334233725343N12150870WA005670057100000
B2334243725336N12150869WA005670057200000
B2334253725331N12150872WA005660057200000
B2334263725326N12150874WA005660057300000
B2334273725323N12150876WA005670057400000
B2334283725320N12150880WA005670057500000
B2334293725318N12150884WA005670057500000
B2334303725318N12150887WA005680057500000
B2334313725320N12150890WA005680057400000
B2334323725322N12150889WA005690057400000
B2334333725326N12150887WA005710057700000
B2334343725327N12150886WA005730057800000
B2334353725328N12150884WA005740058000000
B2334363725329N12150880WA005740057800000
B2334373725329N12150873WA005730057700000
B2334383725329N12150866WA005720057600000
B2334393725329N12150856WA005700057600000
B2334403725325N12150847WA005700057700000
B2334413725320N12150840WA005710057800000
B2334423725314N12150835WA005720057900000
B2334433725308N12150831WA005730057900000
B2334443725302N12150828WA005730057900000
B2334453725295N12150824WA005730058000000
B2334463725290N12150826WA005740058100000
B2334473725285N12150829WA005740058200000
B2334483725282N12150832WA005740058200000
B2334493725281N12150837WA005740058300000
B2334503725282N12150840WA005750058400000
B2334513725284N12150843WA005770058500000
B2334523725286N12150842WA005780058500000
B2334533725287N12150840WA005790058600000
B2334543725289N12150837WA005800058600000
B2334553725291N12150831WA005810058700000
B2334563725293N12150825WA005810058600000
B2334573725292N12150817WA005810058600000
B2334583725290N12150809WA005800058600000
B2334593725287N12150800WA005800058600000
B2335003725280N12150794WA005810058600000
B2335013725275N12150788WA005820058800000
B2335023725269N12150784WA005830058800000
B2335033725263N12150780WA005840058800000
B2335043725256N12150777WA005840058800000
B2335053725252N12150781WA005840058800000
B2335063725249N12150787WA005840058900000
B2335073725249N12150791WA005830058900000
B2335083725250N12150794WA005830059000000
B2335093725250N12150795WA005840059200000
B2335103725251N12150796WA005850059500000
B2335113725251N12150797WA005870059700000
B2335123725252N12150797WA005890059800000
B2335133725252N12150797WA005910059800000
B2335143725253N12150797WA005920059700000
B2335153725256N12150795WA005910059700000
B2335163725259N12150789WA005890059700000
B2335173725261N12150781WA005870059600000
B2335183725259N12150770WA005860059700000
B2335193725256N12150759WA005860059600000
B2335203725249N12150752WA005870059800000
B2335213725243N12150747WA005890060000000
B2335223725235N12150744WA005930060200000
B2335233725230N12150741WA005940060300000
B2335243725225N12150743WA005960060300000
B2335253725221N12150745WA005960060200000
B2335263725217N12150750WA005960060300000
B2335273725216N12150753WA005960060300000
B2335283725217N12150755WA005960060300000
B2335293725220N12150755WA005960060500000
B2335303725222N12150755WA005970060500000
B2335313725225N12150750WA005970060400000
B2335323725227N12150746WA005970060400000
B2335333725229N12150739WA005980060500000
B2335343725229N12150731WA005990060500000
B2335353725229N12150722WA005990060600000
B2335363725227N12150713WA006000060600000
B2335373725223N12150705WA006010060700000
B2335383725218N12150698WA006010060700000
B2335393725213N12150691WA006020060700000
B2335403725207N12150685WA006030060800000
B2335413725201N12150680WA006040060900000
B2335423725193N12150675WA006040060900000
B2335433725187N12150675WA006030060900000
B2335443725182N12150677WA006030060900000
B2335453725178N12150682WA006030060700000
B2335463725173N12150685WA006020060700000
B2335473725171N12150690WA006010060500000
B2335483725171N12150694WA006000060500000
B2335493725172N12150697WA006000060700000
B2335503725174N12150697WA006000060800000
B2335513725176N12150697WA006010060800000
B2335523725177N12150696WA006030060900000
B2335533725178N12150696WA006040060900000
B2335543725179N12150694WA006040060900000
B2335553725181N12150690WA006050060900000
B2335563725184N12150686WA006040060800000
B2335573725186N12150679WA006030060800000
B2335583725187N12150671WA006030060900000
B2335593725185N12150662WA006040061000000
B2336003725182N12150654WA006050061000000
B2336013725177N12150646WA006060061100000
B2336023725171N12150639WA006060061200000
B2336033725165N12150634WA006070061300000
B2336043725158N12150629WA006080061500000
B2336053725152N12150627WA006080061500000
B2336063725147N12150626WA006080061600000
B2336073725142N12150626WA006080061400000
B2336083725137N12150628WA006070061400000
B2336093725133N12150630WA006060061400000
B2336103725129N12150633WA006050061200000
B2336113725127N12150636WA006040061200000
B2336123725126N12150639WA006020061000000
B2336133725127N12150641WA006010061100000
B2336143725129N12150643WA006020061300000
B2336153725129N12150645WA006030061300000
B2336163725130N12150645WA006050061400000
B2336173725131N12150644WA006070061400000
B2336183725132N12150643WA006070061400000
B2336193725133N12150641WA006070061200000
B2336203725135N12150637WA006050061100000
B2336213725137N12150631WA006040061100000
B2336223725138N12150621WA006030061100000
B2336233725137N12150611WA006020061200000
B2336243725133N12150602WA006030061200000
B2336253725129N12150594WA006040061300000
B2336263725124N12150586WA006060061400000
B2336283725114N12150573WA006080061500000
B2336293725108N12150567WA006090061400000
B2336303725102N12150561WA006090061300000
B2336313725097N12150556WA006080061300000
B2336323725090N12150551WA006070061100000
B2336333725081N12150547WA006060061100000
B2336343725075N12150542WA006060061200000
B2336353725068N12150537WA006060061200000
B2336363725062N12150531WA006060061200000
B2336373725056N12150525WA006050061000000
B2336383725049N12150519WA006040061000000
B2336393725041N12150513WA006020061100000
B2336403725034N12150508WA006020061300000
B2336413725028N12150504WA006040061300000
B2336423725022N12150500WA006050061200000
B2336433725016N12150496WA006050061000000
B2336443725009N12150491WA006030060800000
B2336493724975N12150470WA005970060500000
B2336543724943N12150452WA005950060200000
B2336593724909N12150431WA005960060300000
B2337043724876N12150405WA005950060300000
B2337093724853N12150375WA005940059900000
B2337143724823N12150342WA005930060000000
B2337193724794N12150311WA005910059600000
B2337243724763N12150279WA005870059100000
B2337293724731N12150247WA005810058500000
B2337343724696N12150217WA005740057900000
B2337393724662N12150189WA005670057200000
B2337443724626N12150163WA005620056800000
B2337493724590N12150134WA005580056500000
B2337543724558N12150109WA005570056100000
B2337593724524N12150086WA005600056800000
B2338043724494N12150065WA005620056800000
B2338093724466N12150043WA005650056800000
B2338143724439N12150017WA005630056800000
B2338193724440N12149974WA005610056700000
B2338243724455N12149966WA005610056800000
B2338293724463N12149973WA005640057200000
B2338303724463N12149974WA005650057100000
B2338313724463N12149977WA005650056900000
B2338323724462N12149980WA005640056900000
B2338333724459N12149984WA005620056800000
B2338343724456N12149989WA005610056800000
B2338353724451N12149991WA005610056900000
B2338363724445N12149991WA005600056800000
B2338373724438N12149991WA005600056700000
B2338383724432N12149988WA005590056700000
B2338393724425N12149983WA005590056800000
B2338403724420N12149977WA005600056800000
B2338413724416N12149970WA005600056800000
B2338423724413N12149963WA005600056600000
B2338433724409N12149954WA005590056500000
B2338443724407N12149945WA005580056500000
B2338453724405N12149936WA005560056500000
B2338463724405N12149926WA005560056500000
B2338473724406N12149919WA005550056500000
B2338483724407N12149912WA005550056500000
B2338493724409N12149907WA005550056600000
B2338503724412N12149903WA005550056400000
B2338513724415N12149898WA005540056300000
B2338523724418N12149895WA005530056300000
B2338533724421N12149892WA005520056200000
B2338543724424N12149892WA005520056100000
B2338553724426N12149892WA005510056000000
B2338563724428N12149894WA005490055900000
B2338573724428N12149897WA005490055700000
B2338583724429N12149899WA005470055600000
B2338593724428N12149902WA005460055500000
B2339003724429N12149906WA005440055400000
B2339013724429N12149910WA005420055100000
B2339023724429N12149914WA005400054800000
B2339033724428N12149920WA005380054700000
B2339043724427N12149926WA005350054600000
B2339053724425N12149932WA005340054400000
B2339063724423N12149937WA005330054300000
B2339073724420N12149943WA005330054200000
B2339083724418N12149948WA005320054000000
B2339093724416N12149954WA005310053900000
B2339103724414N12149959WA005310053800000
B2339133724408N12149975WA005280053500000
B2339153724403N12149985WA005260053300000
B2339163724401N12149990WA005230053200000
B2339173724400N12149996WA005200053000000
B2339183724398N12150001WA005180052800000
B2339233724390N12150024WA005150052600000
B2339283724382N12150049WA005060051600000
B2339333724375N12150076WA004990051000000
B2339383724369N12150100WA005040051700000
B2339433724354N12150110WA005100052200000
B2339483724324N12150088WA005040051700000
B2339533724334N12150055WA005020051900000
B2339543724335N12150051WA005040051900000
B2339553724335N12150047WA005040051700000
B2339563724337N12150043WA005040051500000
B2339573724340N12150041WA005030051400000
B2339583724343N12150040WA005020051400000
B2339593724346N12150040WA005030051500000
B2340003724347N12150041WA005040051600000
B2340013724348N12150041WA005060051600000
B2340023724349N12150042WA005060051600000
B2340033724349N12150044WA005060051400000
B2340043724349N12150046WA005050051200000
B2340053724348N12150051WA005040051200000
B2340063724346N12150054WA005030051300000
B2340073724341N12150057WA005030051400000
B2340083724335N12150058WA005040051400000
B2340093724327N12150055WA005040051400000
B2340103724320N12150050WA005030051300000
B2340113724315N12150040WA005030051500000
B2340123724309N12150033WA005040051400000
B2340133724309N12150023WA005040051400000
B2340143724310N12150014WA005040051400000
B2340153724313N12150006WA005040051300000
B2340163724316N12150000WA005030051200000
B2340173724320N12149996WA005030051100000
B2340183724324N12149995WA005020051100000
B2340193724327N12149995WA005020051000000
B2340203724330N12149996WA005010050900000
B2340213724333N12149999WA005010050900000
B2340223724335N12150002WA005010050900000
B2340233724336N12150005WA005010051000000
B2340243724337N12150007WA005030051100000
B2340253724338N12150008WA005040051000000
B2340263724339N12150010WA005040051000000
B2340273724339N12150012WA005030051000000
B2340283724338N12150016WA005020050900000
B2340293724338N12150018WA005010050900000
B2340303724339N12150021WA005000050800000
B2340313724338N12150024WA004980050700000
B2340323724338N12150027WA004960050400000
B2340333724337N12150031WA004930050300000
B2340343724338N12150034WA004920050100000
B2340353724339N12150039WA004900049900000
B2340363724340N12150043WA004880049800000
B2340373724341N12150048WA004870049900000
B2340383724340N12150052WA004880050000000
B2340393724339N12150056WA004900050100000
B2340403724338N12150058WA004920050100000
B2340413724337N12150061WA004930050000000
B2340423724336N12150064WA004920049900000
B2340433724335N12150068WA004900049800000
B2340443724336N12150071WA004870049700000
B2340453724338N12150074WA004850049700000
B2340463724339N12150077WA004840049800000
B2340473724340N12150079WA004850049700000
B2340483724341N12150080WA004860049600000
B2340493724341N12150082WA004860049400000
B2340503724342N12150084WA004850049200000
B2340513724343N12150088WA004830049100000
B2340523724345N12150092WA004810049000000
B2340533724346N12150096WA004800049000000
B2340543724347N12150099WA004790049000000
B2340553724347N12150103WA004790048900000
B2340563724348N12150106WA004790048800000
B2340573724347N12150110WA004770048600000
B2340583724347N12150114WA004760048400000
B2340593724348N12150119WA004730048200000
B2341003724349N12150123WA004710047900000
B2341013724350N12150127WA004690047800000
B2341023724351N12150131WA004660047500000
B2341033724351N12150136WA004650047300000
B2341043724350N12150142WA004630047200000
B2341053724349N12150147WA004630047100000
B2341063724348N12150152WA004620047100000
B2341073724348N12150157WA004620047100000
B2341083724347N12150162WA004620047100000
B2341093724347N12150166WA004620047100000
B2341103724347N12150171WA004620047100000
B2341113724347N12150175WA004620047200000
B2341123724347N12150179WA004630047200000
B2341133724347N12150183WA004620047100000
B2341143724346N12150187WA004610046800000
B2341153724344N12150191WA004580046600000
B2341163724343N12150195WA004560046400000
B2341173724341N12150200WA004530046100000
B2341183724340N12150204WA004500045900000
B2341193724339N12150209WA004480045700000
B2341203724337N12150214WA004460045500000
B2341213724335N12150219WA004440045300000
B2341223724334N12150223WA004430045300000
B2341233724332N12150228WA004390045200000
B2341243724330N12150234WA004370045200000
B2341253724329N12150239WA004340045100000
B2341263724326N12150244WA004340045000000
B2341273724324N12150248WA004320045000000
B2341323724314N12150272WA004240044300000
B2341373724304N12150295WA004160043600000
B2341423724297N12150318WA004070042700000
B2341473724290N12150341WA003990041700000
B2341523724287N12150363WA003910041000000
B2341573724284N12150384WA003850040300000
B2342023724281N12150405WA003780039700000
B2342073724280N12150425WA003700039000000
B2342123724276N12150445WA003650038400000
B2342173724273N12150465WA003560037300000
B2342223724265N12150486WA003490036500000
B2342273724258N12150505WA003420036000000
B2342323724254N12150523WA003350035200000
B2342373724249N12150544WA003290034500000
B2342423724240N12150568WA003210033800000
B2342473724236N12150592WA003160033300000
B2342523724229N12150614WA003100032600000
B2342573724223N12150636WA003050032000000
B2343023724216N12150659WA003000031200000
B2343073724212N12150688WA002890030500000
B2343123724209N12150712WA002880030100000
B2343173724205N12150731WA002930030500000
B2343223724205N12150734WA003000030800000
B2343273724207N12150741WA003020031200000
B2343323724204N12150747WA003040031600000
B2343373724203N12150749WA003120031900000
B2343423724176N12150746WA003030031400000
B2343473724172N12150698WA003030031500000
B2343543724185N12150653WA003130032100000
B2343593724202N12150632WA003130032000000
B2344043724206N12150634WA003170032100000
B2344093724180N12150627WA003130031800000
B2344123724168N12150606WA003170032200000
B2344133724166N12150596WA003190032200000
B2344143724167N12150587WA003200032300000
B2344153724167N12150578WA003210032400000
B2344163724168N12150569WA003220032500000
B2344173724169N12150561WA003230032600000
B2344183724171N12150554WA003240032600000
B2344193724174N12150548WA003240032500000
B2344203724177N12150543WA003230032300000
B2344213724182N12150538WA003220032100000
B2344223724186N12150537WA003210032000000
B2344233724189N12150537WA003200032000000
B2344243724192N12150537WA003200032100000
B2344253724193N12150537WA003210032100000
B2344263724195N12150537WA003220032100000
B2344273724197N12150535WA003220032100000
B2344283724199N12150535WA003220031900000
B2344293724200N12150534WA003210031800000
B2344303724202N12150534WA003210031800000
B2344313724203N12150534WA003200031700000
B2344323724205N12150535WA003190031600000
B2344333724207N12150534WA003180031600000
B2344343724209N12150535WA003170031300000
B2344353724210N12150536WA003150031100000
B2344363724212N12150538WA003140031200000
B2344373724214N12150538WA003140031200000
B2344383724215N12150538WA003150031000000
B2344393724217N12150538WA003140030900000
B2344403724218N12150539WA003130030800000
B2344413724220N12150540WA003110030700000
B2344423724221N12150542WA003100030800000
B2344433724223N12150544WA003110031000000
B2344443724224N12150546WA003130031100000
B2344453724224N12150548WA003140031200000
B2344463724223N12150549WA003140031100000
B2344473724222N12150550WA003130030800000
B2344483724221N12150552WA003110030700000
B2344493724221N12150554WA003080030500000
B2344503724222N12150556WA003060030400000
B2344513724223N12150558WA003040030200000
B2344523724224N12150560WA003030030000000
B2344533724224N12150562WA003020029800000
B2344543724224N12150564WA003000029600000
B2344553724224N12150567WA002990029300000
B2344563724224N12150569WA002960029100000
B2344573724224N12150573WA002940029000000
B2344583724223N12150577WA002930029000000
B2344593724222N12150580WA002930029100000
B2345003724221N12150584WA002930028900000
B2345013724221N12150587WA002940028900000
B2345023724221N12150591WA002940028800000
B2345033724222N12150595WA002940028800000
B2345043724223N12150599WA002940028800000
B2345053724224N12150603WA002960029100000
B2345063724226N12150607WA002980029300000
B2345073724226N12150609WA003010029500000
B2345083724226N12150611WA003030029700000
B2345093724229N12150612WA003050029700000
B2345103724234N12150611WA003060029800000
B2345113724239N12150606WA003060029700000
B2345123724242N12150598WA003060029700000
B2345133724244N12150587WA003050029700000
B2345143724245N12150574WA003050029800000
B2345153724232N12150571WA003060029900000
B2345163724227N12150567WA003080030000000
B2345173724223N12150568WA003090030000000
B2345183724221N12150571WA003110030100000
B2345193724220N12150574WA003110030100000
B2345203724222N12150576WA003120030200000
B2345213724224N12150576WA003120030300000
B2345223724230N12150570WA003130030500000
B2345233724234N12150564WA003150030700000
B2345243724236N12150555WA003160030800000
B2345253724237N12150546WA003170030800000
B2345263724235N12150537WA003170030700000
B2345273724231N12150528WA003170030700000
B2345283724225N12150522WA003160030600000
B2345293724218N12150520WA003150030600000
B2345303724214N12150521WA003150030800000
B2345313724211N12150524WA003160031000000
B2345323724211N12150526WA003180031300000
B2345333724211N12150528WA003200031500000
B2345343724213N12150528WA003220031600000
B2345353724214N12150528WA003230031600000
B2345363724217N12150527WA003240031700000
B2345373724221N12150525WA003250031800000
B2345383724225N12150520WA003270031900000
B2345393724229N12150514WA003270032000000
B2345403724232N12150505WA003280032100000
B2345413724231N12150495WA003280032200000
B2345423724231N12150485WA003290032200000
B2345433724223N12150477WA003290032300000
B2345443724217N12150471WA003290032400000
B2345453724211N12150469WA003310032600000
B2345463724206N12150468WA003320032700000
B2345473724205N12150468WA003340032700000
B2345483724203N12150469WA003350032800000
B2345493724202N12150470WA003360033000000
B2345503724203N12150472WA003360033200000
B2345513724205N12150473WA003380033300000
B2345523724207N12150473WA003380033400000
B2345533724211N12150469WA003400033300000
B2345543724214N12150464WA003400033300000
B2345553724216N12150456WA003390033000000
B2345563724218N12150446WA003380032900000
B2345573724218N12150434WA003360032800000
B2345583724208N12150427WA003360033200000
B2345593724201N12150421WA003390033300000
B2346003724196N12150418WA003410033500000
B2346013724192N12150416WA003430033600000
B2346023724188N12150416WA003440033700000
B2346033724185N12150417WA003450033700000
B2346043724183N12150419WA003460033800000
B2346053724183N12150419WA003470034100000
B2346063724183N12150421WA003490034200000
B2346073724185N12150421WA003510034200000
B2346083724187N12150419WA003520034200000
B2346093724188N12150416WA003530034200000
B2346103724191N12150410WA003520034100000
B2346113724193N12150403WA003490033800000
B2346123724194N12150392WA003450033600000
B2346133724194N12150379WA003430033500000
B2346143724193N12150366WA003440033700000
B2346153724183N12150360WA003450034000000
B2346163724175N12150356WA003480034100000
B2346173724168N12150350WA003500034200000
B2346183724164N12150351WA003510034200000
B2346193724161N12150351WA003520034400000
B2346203724157N12150353WA003520034500000
B2346213724154N12150355WA003530034600000
B2346223724151N12150356WA003540034900000
B2346233724148N12150356WA003560035200000
B2346243724145N12150355WA003580035400000
B2346253724142N12150356WA003590035500000
B2346263724139N12150357WA003610035700000
B2346273724137N12150359WA003620035800000
B2346283724135N12150361WA003640036000000
B2346293724134N12150361WA003660036200000
B2346303724133N12150362WA003670036100000
B2346313724133N12150362WA003670036000000
B2346323724133N12150363WA003660035800000
B2346333724135N12150365WA003640035700000
B2346343724138N12150365WA003630035600000
B2346353724142N12150363WA003620035700000
B2346363724148N12150352WA003610035900000
B2346373724150N12150344WA003610035900000
B2346383724151N12150335WA003610035700000
B2346393724150N12150328WA003620035600000
B2346403724148N12150319WA003620035600000
B2346413724143N12150311WA003610035600000
B2346423724137N12150304WA003610035600000
B2346433724131N12150300WA003610035700000
B2346443724125N12150297WA003620035700000
B2346453724121N12150297WA003640035900000
B2346463724117N12150297WA003650036000000
B2346473724114N12150298WA003670036200000
B2346483724112N12150300WA003680036400000
B2346493724112N12150301WA003690036500000
B2346503724112N12150303WA003700036500000
B2346513724112N12150305WA003700036400000
B2346523724114N12150306WA003700036300000
B2346533724117N12150304WA003680036500000
B2346543724122N12150298WA003670036500000
B2346553724124N12150295WA003660036400000
B2346563724127N12150295WA003650036300000
B2346573724129N12150295WA003630036200000
B2346583724131N12150298WA003610036100000
B2346593724131N12150300WA003600035900000
B2347003724130N12150303WA003590035900000
B2347013724131N12150305WA003580035700000
B2347023724131N12150307WA003560035400000
B2347033724132N12150310WA003530035100000
B2347043724133N12150313WA003510034800000
B2347053724134N12150317WA003490034600000
B2347063724135N12150321WA003470034600000
B2347073724135N12150324WA003460034600000
B2347083724136N12150327WA003470034600000
B2347093724137N12150331WA003470034300000
B2347103724138N12150334WA003460034300000
B2347113724139N12150337WA003450034200000
B2347123724139N12150342WA003440034100000
B2347133724140N12150347WA003430034000000
B2347143724141N12150350WA003400033900000
B2347153724143N12150354WA003390033900000
B2347203724150N12150372WA003380033500000
B2347253724155N12150388WA003350033300000
B2347303724157N12150407WA003290033000000
B2347353724161N12150421WA003240032200000
B2347403724166N12150440WA003160031400000
B2347453724168N12150458WA003130031000000
B2347503724171N12150470WA003100030500000
B2347553724173N12150485WA003040030000000
B2348003724175N12150495WA003060029800000
B2348053724177N12150513WA002950029200000
B2348103724178N12150527WA002970029000000
B2348153724180N12150541WA002970028700000
B2348203724179N12150555WA002910028400000
B2348253724182N12150569WA002830027700000
B2348303724184N12150585WA002760027000000
B2348353724187N12150600WA002720026500000
B2348403724193N12150613WA002680026300000
B2348453724195N12150630WA002700026500000
B2348503724197N12150652WA002670026500000
B2348553724197N12150666WA002820027400000
B2349003724200N12150679WA002880028200000
B2349053724199N12150689WA002900028600000
B2349103724198N12150703WA002960029100000
B2349153724201N12150715WA002940028900000
B2349203724202N12150727WA002950028800000
B2349253724205N12150738WA003010029000000
B2349303724207N12150746WA002970028800000
B2349353724204N12150762WA002930028800000
B2349403724198N12150778WA002880028800000
B2349453724197N12150801WA002850029200000
B2349503724196N12150819WA002880029000000
B2349553724195N12150835WA002840028300000
B2350003724197N12150848WA002840028200000
B2350053724199N12150864WA002730027200000
B2350103724199N12150881WA002750027300000
B2350153724198N12150898WA002760027300000
B2350203724198N12150912WA002780027400000
B2350253724196N12150924WA002700026600000
B2350303724195N12150946WA002570025700000
B2350353724195N12150961WA002620026300000
B2350403724193N12150976WA002600026100000
B2350453724193N12150988WA002530025400000
B2350503724193N12151000WA002480025000000
B2350553724194N12151011WA002480024800000
B2351003724194N12151018WA002420024000000
B2351053724190N12151029WA002380023600000
B2351103724185N12151036WA002320023600000
B2351153724184N12151044WA002330023200000
B2351203724186N12151051WA002240022300000
B2351253724184N12151060WA002140021600000
B2351303724185N12151068WA002080020700000
B2351353724184N12151077WA002010020000000
B2351403724182N12151088WA001950019700000
B2351453724181N12151101WA001940019400000
B2351503724182N12151113WA001930019000000
B2351553724181N12151121WA001890018100000
B2352003724177N12151130WA001900018200000
B2352053724175N12151141WA001860018100000
B2352103724171N12151154WA001930018900000
B2352153724173N12151164WA001920018900000
B2352203724188N12151133WA001920019000000
B2352253724161N12151111WA001820017800000
B2352303724158N12151123WA001820017800000
B2352313724159N12151124WA001820017900000
B2352323724161N12151124WA001820017900000
B2352333724164N12151124WA001820017900000
B2352343724166N12151123WA001830017900000
B2352353724168N12151123WA001830017800000
B2352363724169N12151124WA001830017800000
B2352373724169N12151127WA001830017800000
B2352383724169N12151130WA001830017900000
B2352393724169N12151132WA001850018000000
B2352403724168N12151134WA001860018100000
B2352413724167N12151135WA001870018100000
B2352423724166N12151138WA001870018000000
B2352433724166N12151141WA001870018100000
B2352443724166N12151143WA001870018200000
B2352453724165N12151146WA001880018500000
B2352463724164N12151149WA001890018700000
B2352473724164N12151152WA001910018800000
B2352483724163N12151154WA001930018900000
B2352493724163N12151156WA001940019000000
B2352503724163N12151159WA001940019100000
B2352513724162N12151161WA001940019100000
B2352523724162N12151163WA001940019200000
B2352533724162N12151165WA001940019100000
B2352583724163N12151176WA002010019700000
B2353033724163N12151187WA002060020400000
B2353083724162N12151193WA002190021400000
B2353133724176N12151159WA002130020900000
B2353183724148N12151129WA002210021200000
B2353223724139N12151139WA002220021700000
B2353233724140N12151141WA002230021800000
B2353243724141N12151141WA002240021900000
B2353253724141N12151142WA002240022000000
B2353263724141N12151143WA002240021900000
B2353273724142N12151145WA002240021800000
B2353283724142N12151147WA002230021800000
B2353293724143N12151149WA002230021800000
B2353303724143N12151152WA002220021700000
B2353313724143N12151155WA002220021800000
B2353323724142N12151157WA002210021800000
B2353333724142N12151159WA002210021700000
B2353343724142N12151161WA002200021600000
B2353353724142N12151163WA002200021500000
B2353363724143N12151165WA002190021400000
B2353373724143N12151166WA002190021500000
B2353383724144N12151168WA002180021400000
B2353393724144N12151170WA002170021400000
B2353403724145N12151172WA002160021400000
B2353413724145N12151175WA002160021300000
B2353423724146N12151178WA002160021300000
B2353433724147N12151180WA002150021200000
B2353443724149N12151182WA002140021100000
B2353453724150N12151183WA002140021100000
B2353463724151N12151185WA002150021200000
B2353473724152N12151186WA002160021300000
B2353483724153N12151186WA002160021100000
B2353493724154N12151187WA002150021000000
B2353503724155N12151188WA002130021000000
B2353513724156N12151189WA002130021100000
B2353523724157N12151190WA002140021200000
B2353533724158N12151191WA002160021300000
B2353543724159N12151192WA002170021500000
B2353553724160N12151192WA002180021500000
B2353563724161N12151192WA002170021300000
B2353573724162N12151193WA002150021100000
B2353583724163N12151194WA002130021100000
B2353593724163N12151196WA002120021100000
B2354003724164N12151199WA002120021200000
B2354013724164N12151202WA002130021300000
B2354023724165N12151204WA002150021600000
B2354033724165N12151206WA002180021600000
B2354043724166N12151207WA002190021800000
B2354053724167N12151207WA002200021700000
B2354063724167N12151207WA002200021700000
B2354073724168N12151208WA002190021700000
B2354083724168N12151209WA002180021600000
B2354093724169N12151211WA002160021500000
B2354103724170N12151213WA002150021500000
B2354113724171N12151215WA002160021500000
B2354123724172N12151216WA002150021400000
B2354133724172N12151216WA002140021200000
B2354143724172N12151217WA002120021000000
B2354153724173N12151218WA002100020700000
B2354163724173N12151220WA002060020300000
B2354173724175N12151222WA002030020300000
B2354183724176N12151223WA002020020200000
B2354193724177N12151224WA002000019900000
B2354203724178N12151226WA001980019600000
B2354213724179N12151228WA001950019300000
B2354223724180N12151230WA001930019000000
B2354233724180N12151232WA001890018900000
B2354243724181N12151238WA001880019000000
B2354253724183N12151239WA001890019000000
B2354263724183N12151240WA001900018900000
B2354273724183N12151242WA001910018600000
B2354283724183N12151244WA001890018400000
B2354293724184N12151245WA001870018200000
B2354303724184N12151247WA001850018100000
B2354313724181N12151249WA001840017900000
B2354323724178N12151250WA001810017600000
B2354333724173N12151251WA001800017500000
B2354343724170N12151253WA001780017400000
B2354353724168N12151255WA001760017200000
B2354363724165N12151257WA001750017100000
B2354373724163N12151259WA001730017000000
B2354383724160N12151261WA001730016800000
B2354393724158N12151263WA001710016600000
B2354403724155N12151266WA001700016300000
B2354413724153N12151268WA001670016200000
B2354423724151N12151270WA001660016100000
B2354433724149N12151272WA001650016000000
B2354443724148N12151273WA001640016000000
B2354453724146N12151274WA001640016000000
B2354503724125N12151279WA001550015300000
B2354553724101N12151277WA001510014700000
B2355003724072N12151260WA001430014100000
B2355053724073N12151216WA001350013000000
B2355103724087N12151201WA001310012400000
B2355153724101N12151177WA001220011400000
B2355203724114N12151148WA001230011300000
B2355253724121N12151154WA001220011100000
B2355303724096N12151145WA001120010600000
B2355353724067N12151124WA001100009800000
B2355403724057N12151132WA001040009300000
B2355453724070N12151122WA001000008700000
B2355503724083N12151109WA000920008100000
B2355553724066N12151117WA000860007800000
B2356003724056N12151128WA000830007400000
B2356053724073N12151122WA000820007200000
B2356103724090N12151120WA000760006600000
B2356153724072N12151125WA000710005900000
B2356203724070N12151140WA000680006000000
B2356253724070N12151155WA000650005600000
B2356303724070N12151163WA000640005300000
B2356353724067N12151173WA000610005100000
B2356403724070N12151177WA000570004700000
B2356453724069N12151173WA000570004400000
B2356503724069N12151173WA000570004400000
B2356553724069N12151173WA000570004400000
B2357003724070N12151173WA000570004400000
B2357063724070N12151173WA000570004400000
B2357113724070N12151173WA000570004400000
B2357163724070N12151173WA000580004400000
B2357213724070N12151173WA000580004400000
B2357263724070N12151173WA000570004400000
B2357313724070N12151173WA000570004400000
B2357363724070N12151173WA000570004400000
B2357413724070N12151172WA000570004500000
B2357463724069N12151171WA000570004500000
B2357513724069N12151172WA000580004300000
B2357563724069N12151172WA000580004300000
B2358013724069N12151171WA000570004400000
B2358063724069N12151171WA000580004400000
B2358113724069N12151170WA000570004200000
B2358163724069N12151169WA000570004200000
B2358213724069N12151169WA000570004300000
B2358263724069N12151169WA000570004400000
B2358313724071N12151168WA000570004300000
B2358363724073N12151170WA000560004200000
B2358413724076N12151172WA000570004100000
B2358463724079N12151175WA000560004100000
B2358513724082N12151177WA000560004300000
B2358563724084N12151180WA000570004100000
B2359013724087N12151182WA000570003900000
B2359063724089N12151183WA000570003800000
B2359113724091N12151186WA000560003800000
B2359163724095N12151188WA000570003800000
B2359213724097N12151191WA000560003800000
B2359263724098N12151195WA000550003800000
B2359313724098N12151197WA000560003900000
B2359363724098N12151196WA000580003700000
B2359413724099N12151196WA000570004100000
B2359463724099N12151196WA000570004100000
B2359513724099N12151196WA000570004000000
B2359563724099N12151196WA000570004000000
B0000013724099N12151196WA000570004000000
B0000063724099N12151196WA000570004000000
B0000113724099N12151196WA000570004000000
B0000163724099N12151196WA000560004000000
B0000213724099N12151196WA000560004000000
B0000263724099N12151196WA000560004000000
B0000313724099N12151196WA000560004000000
B0000363724099N12151196WA000560004000000
B0000413724099N12151196WA000560004000000
B0000463724099N12151196WA000560004000000
B0000523724099N12151196WA000560004000000
B0000573724099N12151196WA000560004000000
B0001023724099N12151196WA000560004000000
B0001073724099N12151196WA000560004000000
B0001123724099N12151196WA000560004000000
B0001173724099N12151196WA000560004000000
B0001223724099N12151196WA000560004000000
B0001293724099N12151196WA000560004000000
B0001343724099N12151196WA000560004000000
B0001393724099N12151196WA000570004000000
B0001443724099N12151196WA000570004000000
B0001513724099N12151196WA000570004000000
