AXTR20C38FF3FA24
HFDTE120716
HFFXA100
HFPLTPILOTINCHARGE:
HFCM2CREW2:
HFGTYGLIDERTYPE:
HFGIDGLIDERID:
HFDTM100GPSDATUM:WGS84
HFRFWFIRMWAREREVISION:XC_Tracer_V1.0_RC5
HFRHWHARDWAREVERSION:1.0
HFFTYFRTYPE:XC_Tracer
HFGPSRECV:GlobalTop Technology,PA6H,22,9999
HFPRSPRESSALTSENSOR:Measurement Specialities,MS5637,9999
HFALG:ELL
HFALP:ISA
B1923114748228N12002336WA0109601102
B1923124748226N12002337WA0109501101
B1923134748225N12002339WA0109301100
B1923154748220N12002340WA0109001098
B1923164748216N12002341WA0109101100
B1923174748214N12002343WA0109501101
B1923184748211N12002343WA0109701103
B1923194748210N12002341WA0109601103
B1923204748207N12002340WA0109401102
B1923214748204N12002338WA0109201101
B1923224748200N12002338WA0109301100
B1923234748195N12002339WA0109601101
B1923244748192N12002340WA0110001103
B1923254748190N12002340WA0110401106
B1923264748189N12002340WA0110701107
B1923274748188N12002341WA0110801107
B1923284748186N12002341WA0110801108
B1923294748184N12002342WA0110801108
B1923304748181N12002343WA0110901109
B1923314748179N12002345WA0111101110
B1923324748177N12002347WA0111101111
B1923334748175N12002348WA0111101111
B1923344748173N12002351WA0111201112
B1923354748172N12002353WA0111201112
B1923364748170N12002355WA0111201113
B1923374748168N12002358WA0111201112
B1923384748167N12002363WA0111201113
B1923394748166N12002367WA0111201113
B1923404748165N12002371WA0111301113
B1923414748164N12002375WA0111401114
B1923424748162N12002379WA0111401114
B1923434748161N12002383WA0111301114
B1923444748160N12002387WA0111201114
B1923454748159N12002392WA0111201113
B1923464748157N12002397WA0111201113
B1923474748156N12002403WA0111401114
B1923484748155N12002408WA0111601116
B1923494748154N12002412WA0111801118
B1923504748154N12002416WA0111801119
B1923514748154N12002420WA0111801119
B1923524748153N12002426WA0111901120
B1923534748152N12002431WA0112001121
B1923544748151N12002436WA0112301123
B1923554748149N12002439WA0112401126
B1923564748148N12002441WA0112501127
B1923574748146N12002444WA0112701128
B1923584748144N12002447WA0112701129
B1923594748142N12002451WA0112701129
B1924004748139N12002455WA0112801130
B1924014748138N12002460WA0112801131
B1924024748138N12002465WA0112801131
B1924034748140N12002470WA0112801130
B1924044748143N12002475WA0112801130
B1924054748148N12002478WA0112801131
B1924064748153N12002481WA0112901131
B1924074748158N12002481WA0113001132
B1924084748163N12002480WA0113001133
B1924094748169N12002477WA0113001133
B1924104748175N12002472WA0113101133
B1924114748180N12002467WA0113101134
B1924124748185N12002460WA0113201135
B1924134748190N12002453WA0113201136
B1924144748194N12002444WA0113401137
B1924154748197N12002433WA0113601138
B1924164748198N12002423WA0113901141
B1924174748199N12002413WA0114101144
B1924184748198N12002405WA0114401147
B1924194748197N12002397WA0114501149
B1924204748195N12002391WA0114601151
B1924214748192N12002386WA0114701152
B1924224748189N12002381WA0114801153
B1924234748185N12002379WA0114901154
B1924244748181N12002378WA0115001156
B1924254748178N12002379WA0115201158
B1924264748175N12002381WA0115401159
B1924274748173N12002384WA0115401160
B1924284748173N12002389WA0115501161
B1924294748173N12002394WA0115601162
B1924304748175N12002398WA0115601162
B1924314748179N12002402WA0115701163
B1924324748183N12002403WA0115801164
B1924334748189N12002403WA0115801164
B1924344748194N12002401WA0115801165
B1924354748200N12002398WA0115901166
B1924364748206N12002394WA0116101167
B1924374748212N12002390WA0116201168
B1924384748217N12002385WA0116301169
B1924394748222N12002380WA0116301169
B1924404748228N12002374WA0116201169
B1924414748232N12002364WA0116301169
B1924424748233N12002353WA0116601171
B1924434748231N12002344WA0116801174
B1924444748228N12002338WA0117001176
B1924454748225N12002334WA0117201179
B1924464748222N12002330WA0117401181
B1924474748220N12002327WA0117401182
B1924484748217N12002323WA0117301181
B1924494748214N12002321WA0117201181
B1924504748210N12002320WA0117201180
B1924514748206N12002321WA0117301181
B1924524748203N12002324WA0117501182
B1924534748201N12002326WA0117501183
B1924544748199N12002329WA0117501183
B1924554748198N12002332WA0117501182
B1924564748198N12002336WA0117401182
B1924574748197N12002340WA0117301181
B1924584748198N12002346WA0117201180
B1924594748199N12002352WA0117201180
B1925004748200N12002358WA0117401182
B1925014748202N12002363WA0117601184
B1925024748203N12002368WA0117801186
B1925034748205N12002372WA0117901188
B1925044748207N12002375WA0118001189
B1925054748210N12002378WA0118001189
B1925064748216N12002379WA0118101189
B1925074748223N12002376WA0118101189
B1925084748230N12002370WA0118101190
B1925094748234N12002362WA0118401193
B1925104748238N12002353WA0118601195
B1925114748240N12002345WA0118801197
B1925124748243N12002336WA0119001199
B1925134748246N12002326WA0119201200
B1925144748249N12002318WA0119401203
B1925154748253N12002309WA0119701205
B1925164748255N12002301WA0119901207
B1925174748255N12002292WA0119901207
B1925184748251N12002283WA0119901208
B1925194748247N12002278WA0120001209
B1925204748243N12002276WA0120301211
B1925214748239N12002274WA0120401213
B1925224748237N12002273WA0120501214
B1925234748235N12002274WA0120601215
B1925244748233N12002276WA0120601215
B1925254748232N12002280WA0120601215
B1925264748232N12002284WA0120801216
B1925274748233N12002288WA0120801217
B1925284748235N12002292WA0121001218
B1925294748237N12002295WA0121101219
B1925304748239N12002298WA0121201221
B1925314748243N12002300WA0121301221
B1925324748248N12002301WA0121401222
B1925334748253N12002300WA0121601223
B1925344748259N12002297WA0121901226
B1925354748264N12002293WA0122101229
B1925364748269N12002288WA0122301231
B1925374748274N12002282WA0122501233
B1925384748279N12002276WA0122801236
B1925394748282N12002269WA0123101239
B1925404748284N12002261WA0123401242
B1925414748286N12002253WA0123701245
B1925424748287N12002245WA0123901247
B1925434748288N12002236WA0124001249
B1925444748287N12002227WA0124101250
B1925454748285N12002219WA0124101250
B1925464748282N12002214WA0124101250
B1925474748278N12002211WA0124101250
B1925484748274N12002211WA0124201251
B1925494748271N12002212WA0124401253
B1925504748269N12002214WA0124501254
B1925514748268N12002218WA0124701256
B1925524748269N12002222WA0124901258
B1925534748270N12002226WA0125201261
B1925544748271N12002230WA0125501264
B1925554748273N12002233WA0125601266
B1925564748277N12002236WA0125701267
B1925574748281N12002239WA0125901268
B1925584748287N12002241WA0126201271
B1925594748292N12002242WA0126501274
B1926004748298N12002241WA0126901277
B1926014748303N12002239WA0127301281
B1926024748307N12002236WA0127801286
B1926034748310N12002233WA0128101290
B1926044748313N12002230WA0128501294
B1926054748317N12002227WA0128901297
B1926064748321N12002225WA0129401302
B1926074748325N12002225WA0129901307
B1926084748329N12002225WA0130301312
B1926094748333N12002227WA0130701316
B1926104748337N12002228WA0131101320
B1926114748342N12002226WA0131401324
B1926124748346N12002219WA0131701327
B1926134748348N12002209WA0132001330
B1926144748347N12002198WA0132301334
B1926154748344N12002189WA0132801339
B1926164748341N12002181WA0133301344
B1926174748336N12002175WA0133801349
B1926184748332N12002173WA0134301353
B1926194748327N12002175WA0134801357
B1926204748326N12002181WA0135001361
B1926214748327N12002188WA0135301365
B1926224748330N12002194WA0135701369
B1926234748334N12002198WA0136301375
B1926244748338N12002200WA0136801381
B1926254748342N12002200WA0137401386
B1926264748346N12002198WA0137801390
B1926274748349N12002195WA0138001394
B1926284748352N12002192WA0138201396
B1926294748356N12002188WA0138401397
B1926304748360N12002182WA0138601399
B1926314748364N12002175WA0138901401
B1926324748367N12002167WA0139301405
B1926334748368N12002157WA0139701409
B1926344748369N12002148WA0140201414
B1926354748368N12002140WA0140601418
B1926364748367N12002132WA0141001423
B1926374748366N12002124WA0141301426
B1926384748363N12002115WA0141501429
B1926394748358N12002108WA0141901432
B1926404748354N12002101WA0142501437
B1926414748350N12002098WA0142901442
B1926424748347N12002097WA0143101445
B1926434748346N12002097WA0143301447
B1926444748344N12002098WA0143401448
B1926454748343N12002097WA0143501450
B1926464748342N12002097WA0143601450
B1926474748342N12002100WA0143701450
B1926484748344N12002105WA0143801452
B1926494748344N12002110WA0144101454
B1926504748345N12002114WA0144501457
B1926514748346N12002118WA0144901461
B1926524748347N12002122WA0145201464
B1926534748349N12002126WA0145501468
B1926544748352N12002130WA0145901471
B1926554748354N12002133WA0146201475
B1926564748357N12002137WA0146601479
B1926574748361N12002141WA0147001483
B1926584748365N12002143WA0147401488
B1926594748370N12002144WA0147901492
B1927004748376N12002142WA0148301496
B1927014748380N12002138WA0148601500
B1927024748383N12002134WA0149001505
B1927034748385N12002130WA0149401509
B1927044748387N12002126WA0149601512
B1927054748390N12002119WA0149801514
B1927064748393N12002112WA0150101517
B1927074748396N12002102WA0150501521
B1927084748398N12002092WA0151001526
B1927094748399N12002083WA0151501532
B1927104748399N12002075WA0152001537
B1927114748397N12002067WA0152301540
B1927124748394N12002059WA0152501543
B1927134748389N12002054WA0153001547
B1927144748385N12002046WA0153801553
B1927154748382N12002040WA0154501560
B1927164748378N12002034WA0155001567
B1927174748376N12002031WA0155301570
B1927184748373N12002030WA0155401572
B1927194748371N12002030WA0155401574
B1927204748369N12002031WA0155401575
B1927214748366N12002032WA0155401575
B1927224748365N12002035WA0155501576
B1927234748364N12002040WA0155801578
B1927244748363N12002044WA0156201581
B1927254748365N12002048WA0156601585
B1927264748366N12002052WA0157001589
B1927274748368N12002054WA0157501594
B1927284748370N12002057WA0157901599
B1927294748373N12002059WA0158401603
B1927304748376N12002062WA0158901608
B1927314748379N12002065WA0159301613
B1927324748383N12002066WA0159801618
B1927334748388N12002065WA0160001622
B1927344748393N12002062WA0160201624
B1927354748399N12002056WA0160501627
B1927364748404N12002048WA0161001631
B1927374748409N12002041WA0161501636
B1927384748413N12002034WA0161901640
B1927394748417N12002027WA0162301645
B1927404748420N12002021WA0162601648
B1927414748422N12002014WA0162801650
B1927424748425N12002006WA0163001652
B1927434748428N12001996WA0163301654
B1927444748430N12001984WA0163801658
B1927454748432N12001973WA0164301664
B1927464748431N12001962WA0164801669
B1927474748430N12001952WA0165201673
B1927484748426N12001944WA0165601677
B1927494748422N12001938WA0165901681
B1927504748418N12001934WA0166201684
B1927514748414N12001933WA0166301686
B1927524748412N12001932WA0166201686
B1927534748409N12001932WA0166101686
B1927544748406N12001933WA0166001685
B1927554748404N12001936WA0165901685
B1927564748404N12001941WA0166001685
B1927574748406N12001946WA0166201687
B1927584748409N12001951WA0166501690
B1927594748413N12001954WA0167001694
B1928004748417N12001956WA0167501700
B1928014748422N12001957WA0168001705
B1928024748426N12001959WA0168601710
B1928034748430N12001960WA0168901714
B1928044748434N12001960WA0169201718
B1928054748439N12001956WA0169101718
B1928064748443N12001947WA0169001718
B1928074748447N12001934WA0169201719
B1928084748449N12001921WA0169601723
B1928094748449N12001909WA0170101728
B1928104748448N12001900WA0170601732
B1928114748445N12001891WA0171001736
B1928124748442N12001882WA0171401740
B1928134748439N12001872WA0171901744
B1928144748436N12001865WA0172001748
B1928154748433N12001861WA0171701749
B1928164748430N12001863WA0171401748
B1928174748427N12001868WA0171401749
B1928184748425N12001873WA0171701751
B1928194748426N12001876WA0172101754
B1928204748428N12001879WA0172601758
B1928214748430N12001880WA0172801760
B1928224748432N12001882WA0173001761
B1928234748432N12001885WA0173101762
B1928244748433N12001886WA0173201763
B1928254748436N12001889WA0173401765
B1928264748440N12001891WA0173601766
B1928274748444N12001892WA0173801768
B1928284748448N12001893WA0174001769
B1928294748452N12001891WA0174201771
B1928304748457N12001887WA0174401772
B1928314748462N12001880WA0174601774
B1928324748466N12001872WA0174901777
B1928334748469N12001863WA0175201779
B1928344748473N12001854WA0175401781
B1928354748476N12001845WA0175601783
B1928364748481N12001837WA0175901785
B1928374748485N12001828WA0176101787
B1928384748489N12001819WA0176401790
B1928394748492N12001808WA0176601791
B1928404748493N12001796WA0176901794
B1928414748491N12001787WA0177201797
B1928424748488N12001779WA0177401799
B1928434748484N12001773WA0177601801
B1928444748479N12001768WA0177901804
B1928454748476N12001764WA0178301808
B1928464748473N12001762WA0178401811
B1928474748472N12001761WA0178201812
B1928484748472N12001761WA0177901811
B1928494748470N12001763WA0177601809
B1928504748466N12001765WA0177401806
B1928514748462N12001767WA0177401804
B1928524748461N12001770WA0177501806
B1928534748461N12001772WA0177601806
B1928544748463N12001775WA0177601806
B1928554748465N12001777WA0177501805
B1928564748467N12001781WA0177401803
B1928574748470N12001785WA0177401803
B1928584748474N12001789WA0177501803
B1928594748481N12001791WA0177701804
B1929004748489N12001789WA0177901806
B1929014748497N12001786WA0178201808
B1929024748505N12001781WA0178601811
B1929034748512N12001776WA0178901815
B1929044748518N12001771WA0179301819
B1929054748523N12001765WA0179701823
B1929064748528N12001758WA0179901825
B1929074748531N12001749WA0180001826
B1929084748534N12001738WA0180101827
B1929094748533N12001726WA0180301829
B1929104748531N12001717WA0180501831
B1929114748527N12001710WA0180501832
B1929124748522N12001707WA0180501832
B1929134748518N12001707WA0180601833
B1929144748515N12001709WA0180801835
B1929154748514N12001712WA0181001836
B1929164748514N12001716WA0181201839
B1929174748516N12001720WA0181401841
B1929184748519N12001723WA0181501842
B1929194748522N12001727WA0181601843
B1929204748526N12001732WA0181601844
B1929214748531N12001738WA0181701845
B1929224748537N12001743WA0182001847
B1929234748543N12001749WA0182401850
B1929244748549N12001752WA0182701854
B1929254748555N12001755WA0183001857
B1929264748561N12001757WA0183301860
B1929274748568N12001757WA0183701863
B1929284748574N12001757WA0184101867
B1929294748580N12001758WA0184401871
B1929304748587N12001758WA0184901875
B1929314748593N12001757WA0185301879
B1929324748598N12001753WA0185701883
B1929334748604N12001748WA0186001886
B1929344748609N12001740WA0186301889
B1929354748613N12001732WA0186701893
B1929364748616N12001723WA0187001897
B1929374748617N12001715WA0187201899
B1929384748616N12001707WA0187401901
B1929394748612N12001703WA0187701904
B1929404748608N12001702WA0188101907
B1929414748606N12001704WA0188401911
B1929424748605N12001708WA0188801915
B1929434748607N12001714WA0189201919
B1929444748611N12001719WA0189501922
B1929454748616N12001723WA0189801925
B1929464748622N12001724WA0190201929
B1929474748628N12001723WA0190501932
B1929484748634N12001719WA0190701935
B1929494748639N12001712WA0190901937
B1929504748643N12001704WA0191101938
B1929514748644N12001695WA0191301940
B1929524748644N12001686WA0191501943
B1929534748642N12001679WA0191901946
B1929544748640N12001674WA0192301950
B1929554748638N12001672WA0192601953
B1929564748636N12001671WA0192901956
B1929574748633N12001672WA0193001958
B1929584748631N12001675WA0193301960
B1929594748631N12001681WA0193601963
B1930004748631N12001687WA0194001967
B1930014748633N12001692WA0194301972
B1930024748636N12001696WA0194501975
B1930034748640N12001701WA0194701977
B1930044748645N12001703WA0194901979
B1930054748651N12001705WA0195101980
B1930064748658N12001704WA0195201982
B1930074748665N12001700WA0195501984
B1930084748670N12001693WA0195701986
B1930094748674N12001685WA0195901989
B1930104748675N12001676WA0196101991
B1930114748676N12001668WA0196501994
B1930124748675N12001660WA0196801998
B1930134748672N12001655WA0197102001
B1930144748669N12001653WA0197302003
B1930154748666N12001653WA0197602006
B1930164748663N12001655WA0197902009
B1930174748662N12001659WA0198102012
B1930184748663N12001664WA0198302014
B1930194748665N12001670WA0198502016
B1930204748667N12001676WA0198702018
B1930214748669N12001682WA0199002020
B1930224748673N12001688WA0199102022
B1930234748676N12001694WA0199402024
B1930244748681N12001698WA0199502027
B1930254748686N12001702WA0199802029
B1930264748690N12001705WA0200002032
B1930274748696N12001706WA0200202033
B1930284748703N12001703WA0200402034
B1930294748709N12001698WA0200602037
B1930304748714N12001692WA0201002040
B1930314748718N12001685WA0201302044
B1930324748721N12001677WA0201502046
B1930334748723N12001669WA0201602047
B1930344748725N12001660WA0201602047
B1930354748727N12001651WA0201802048
B1930364748728N12001641WA0202102051
B1930374748728N12001631WA0202402054
B1930384748728N12001624WA0202702057
B1930394748727N12001618WA0202802059
B1930404748725N12001614WA0202802060
B1930414748722N12001611WA0202902061
B1930424748719N12001610WA0202902061
B1930434748715N12001611WA0203102063
B1930444748712N12001614WA0203402065
B1930454748710N12001619WA0203702068
B1930464748709N12001624WA0203902070
B1930474748709N12001630WA0204202074
B1930484748710N12001636WA0204502077
B1930494748712N12001641WA0204802080
B1930504748715N12001646WA0205002082
B1930514748718N12001650WA0205002083
B1930524748722N12001653WA0205102084
B1930534748728N12001655WA0205202085
B1930544748734N12001656WA0205502087
B1930554748740N12001657WA0205802090
B1930564748746N12001656WA0206002092
B1930574748752N12001655WA0206102094
B1930584748758N12001653WA0206302095
B1930594748765N12001650WA0206402097
B1931004748771N12001645WA0206602098
B1931014748777N12001639WA0206702100
B1931024748782N12001633WA0206902102
B1931034748787N12001628WA0207102103
B1931044748793N12001623WA0207302105
B1931054748798N12001617WA0207502107
B1931064748802N12001611WA0207602108
B1931074748805N12001604WA0207602108
B1931084748805N12001596WA0207502108
B1931094748803N12001589WA0207602108
B1931104748800N12001584WA0207702109
B1931114748796N12001581WA0207802110
B1931124748793N12001580WA0208002112
B1931134748790N12001580WA0208102113
B1931144748787N12001580WA0208202114
B1931154748784N12001582WA0208402115
B1931164748781N12001584WA0208502117
B1931174748778N12001588WA0208702119
B1931184748777N12001592WA0208802120
B1931194748776N12001597WA0209002122
B1931204748776N12001603WA0209102124
B1931214748778N12001608WA0209302125
B1931224748781N12001614WA0209502126
B1931234748785N12001620WA0209702128
B1931244748790N12001626WA0210002131
B1931254748795N12001630WA0210202135
B1931264748801N12001632WA0210402137
B1931274748806N12001634WA0210502138
B1931284748812N12001635WA0210602139
B1931294748820N12001635WA0210602139
B1931304748827N12001634WA0210702140
B1931314748835N12001632WA0210802141
B1931324748842N12001629WA0211002143
B1931334748848N12001626WA0211202145
B1931344748854N12001621WA0211302145
B1931354748858N12001615WA0211302145
B1931364748862N12001607WA0211202145
B1931374748865N12001599WA0211202145
B1931384748866N12001590WA0211302145
B1931394748866N12001582WA0211302146
B1931404748865N12001575WA0211302146
B1931414748864N12001570WA0211302147
B1931424748862N12001565WA0211302147
B1931434748860N12001561WA0211302147
B1931444748857N12001558WA0211402147
B1931454748854N12001555WA0211402147
B1931464748850N12001554WA0211602148
B1931474748847N12001553WA0211802151
B1931484748843N12001552WA0212002153
B1931494748840N12001552WA0212202156
B1931504748837N12001553WA0212402157
B1931514748834N12001554WA0212502158
B1931524748831N12001556WA0212502159
B1931534748828N12001560WA0212502159
B1931544748826N12001566WA0212502159
B1931554748825N12001572WA0212502159
B1931564748826N12001579WA0212502159
B1931574748828N12001587WA0212602159
B1931584748830N12001595WA0212702160
B1931594748834N12001601WA0212902162
B1932004748839N12001605WA0212902163
B1932014748845N12001608WA0213002163
B1932024748852N12001609WA0212902163
B1932034748859N12001608WA0213002164
B1932044748867N12001605WA0213102164
B1932054748873N12001602WA0213402166
B1932064748879N12001597WA0213602169
B1932074748885N12001593WA0213802171
B1932084748890N12001589WA0213902172
B1932094748895N12001584WA0213902172
B1932104748899N12001578WA0213902172
B1932114748904N12001572WA0214002173
B1932124748907N12001564WA0214102173
B1932134748910N12001556WA0214102174
B1932144748913N12001548WA0214102174
B1932154748916N12001539WA0214202174
B1932164748918N12001531WA0214402176
B1932174748920N12001523WA0214702179
B1932184748923N12001515WA0215002182
B1932194748926N12001508WA0215202184
B1932204748929N12001501WA0215302186
B1932214748932N12001493WA0215502187
B1932224748935N12001485WA0215502188
B1932234748937N12001476WA0215602188
B1932244748940N12001468WA0215602189
B1932254748942N12001460WA0215602189
B1932264748943N12001452WA0215602189
B1932274748945N12001443WA0215602189
B1932284748945N12001435WA0215502188
B1932294748945N12001425WA0215402187
B1932304748945N12001417WA0215302186
B1932314748945N12001409WA0215302186
B1932324748945N12001400WA0215202186
B1932334748945N12001392WA0215202185
B1932344748945N12001383WA0215102184
B1932354748945N12001375WA0214902183
B1932364748945N12001366WA0214802182
B1932374748944N12001358WA0214702181
B1932384748943N12001350WA0214502180
B1932394748942N12001343WA0214402178
B1932404748941N12001335WA0214402177
B1932414748940N12001328WA0214302177
B1932424748938N12001323WA0214202176
B1932434748935N12001320WA0214102174
B1932444748933N12001318WA0213902173
B1932454748931N12001317WA0213602171
B1932464748929N12001318WA0213302167
B1932474748928N12001321WA0212902163
B1932484748927N12001326WA0212502159
B1932494748926N12001333WA0212302156
B1932504748926N12001340WA0212302153
B1932514748927N12001346WA0212202152
B1932524748929N12001350WA0212102151
B1932534748930N12001355WA0211902149
B1932544748932N12001360WA0211702147
B1932554748932N12001366WA0211402145
B1932564748933N12001372WA0211202141
B1932574748934N12001381WA0211102139
B1932584748934N12001390WA0211402139
B1932594748933N12001398WA0211702140
B1933004748932N12001406WA0212002144
B1933014748930N12001411WA0212302148
B1933024748929N12001414WA0212502151
B1933034748928N12001418WA0212702153
B1933044748927N12001421WA0212702154
B1933054748926N12001425WA0212702155
B1933064748924N12001433WA0212802155
B1933074748922N12001438WA0212902156
B1933084748921N12001446WA0213002158
B1933094748919N12001452WA0213202160
B1933104748916N12001458WA0213502162
B1933114748913N12001464WA0213502164
B1933124748909N12001469WA0213802166
B1933134748905N12001474WA0214002169
B1933144748901N12001479WA0214302173
B1933154748897N12001485WA0214502175
B1933164748895N12001489WA0214702177
B1933174748892N12001496WA0214802179
B1933184748890N12001500WA0214902180
B1933194748887N12001505WA0215002181
B1933204748883N12001511WA0215202183
B1933214748879N12001517WA0215502186
B1933224748876N12001523WA0215702189
B1933234748874N12001527WA0215802191
B1933244748872N12001531WA0215902191
B1933254748869N12001535WA0215802191
B1933264748867N12001540WA0215802191
B1933274748863N12001546WA0215702191
B1933284748859N12001552WA0215702191
B1933294748856N12001558WA0215702191
B1933304748853N12001565WA0215802192
B1933314748851N12001572WA0215902193
B1933324748848N12001578WA0216002194
B1933334748846N12001585WA0216102195
B1933344748844N12001593WA0216202196
B1933354748842N12001600WA0216302198
B1933364748839N12001607WA0216402199
B1933374748836N12001614WA0216502200
B1933384748833N12001620WA0216602201
B1933394748829N12001626WA0216802203
B1933404748825N12001630WA0216902204
B1933414748820N12001635WA0217102205
B1933424748815N12001639WA0217302207
B1933434748812N12001642WA0217402208
B1933444748806N12001647WA0217502210
B1933454748801N12001647WA0217502210
B1933464748795N12001645WA0217502210
B1933474748789N12001638WA0217502209
B1933484748785N12001627WA0217602210
B1933494748784N12001617WA0217902213
B1933504748783N12001604WA0218402218
B1933514748783N12001595WA0218902223
B1933524748783N12001587WA0219202226
B1933534748783N12001578WA0219502229
B1933544748783N12001569WA0219602231
B1933554748783N12001559WA0219702232
B1933564748783N12001547WA0219702232
B1933574748782N12001535WA0219902234
B1933584748781N12001523WA0220202237
B1933594748780N12001512WA0220402239
B1934004748779N12001502WA0220602242
B1934014748778N12001492WA0220602243
B1934024748778N12001481WA0220502242
B1934034748778N12001469WA0220502241
B1934044748777N12001456WA0220402240
B1934054748776N12001443WA0220502241
B1934064748774N12001431WA0220702243
B1934074748772N12001419WA0221102246
B1934084748770N12001407WA0221402250
B1934094748769N12001395WA0221802253
B1934104748767N12001384WA0222002256
B1934114748765N12001373WA0222202259
B1934124748763N12001362WA0222402261
B1934134748761N12001351WA0222602263
B1934144748760N12001339WA0222702264
B1934154748759N12001328WA0222802264
B1934164748758N12001316WA0222802265
B1934174748756N12001305WA0222802265
B1934184748752N12001295WA0222702264
B1934194748748N12001287WA0222602263
B1934204748744N12001278WA0222402262
B1934214748740N12001269WA0222302260
B1934224748736N12001261WA0222102258
B1934234748733N12001252WA0222002257
B1934244748729N12001244WA0221802256
B1934254748725N12001236WA0221802255
B1934264748721N12001228WA0221702254
B1934274748718N12001219WA0221602253
B1934284748715N12001209WA0221402252
B1934294748713N12001199WA0221302251
B1934304748711N12001190WA0221302250
B1934314748709N12001180WA0221102249
B1934324748707N12001171WA0221002247
B1934334748705N12001161WA0220802245
B1934344748702N12001151WA0220702244
B1934354748700N12001141WA0220602243
B1934364748698N12001132WA0220502242
B1934374748696N12001122WA0220402241
B1934384748694N12001113WA0220402240
B1934394748692N12001104WA0220202239
B1934404748691N12001094WA0220102238
B1934414748689N12001084WA0220002236
B1934424748687N12001075WA0219902235
B1934434748684N12001067WA0219702234
B1934444748680N12001061WA0219502232
B1934454748675N12001056WA0219402231
B1934464748671N12001049WA0219302229
B1934474748669N12001040WA0219002226
B1934484748669N12001027WA0218802223
B1934494748668N12001014WA0218702223
B1934504748665N12001005WA0218502221
B1934514748660N12000998WA0218402219
B1934524748654N12000993WA0218302219
B1934534748651N12000984WA0218102218
B1934544748650N12000972WA0217802214
B1934554748651N12000957WA0217602209
B1934564748651N12000942WA0217402208
B1934574748649N12000930WA0217202207
B1934584748643N12000922WA0217202204
B1934594748637N12000918WA0217202204
B1935004748631N12000911WA0217002205
B1935014748629N12000902WA0216702203
B1935024748629N12000888WA0216402199
B1935034748629N12000873WA0216302198
B1935044748627N12000861WA0216102197
B1935054748622N12000852WA0215902194
B1935064748615N12000848WA0215802193
B1935074748609N12000841WA0215802193
B1935084748607N12000831WA0215402191
B1935094748607N12000817WA0215102187
B1935104748608N12000802WA0214802183
B1935114748606N12000789WA0214602182
B1935124748601N12000780WA0214302178
B1935134748594N12000776WA0214202175
B1935144748587N12000771WA0214302175
B1935154748583N12000762WA0214002174
B1935164748583N12000748WA0213502166
B1935174748586N12000732WA0213202161
B1935184748587N12000715WA0213102161
B1935194748584N12000702WA0213002160
B1935204748577N12000695WA0212502155
B1935214748568N12000694WA0212602153
B1935224748562N12000688WA0212802154
B1935234748559N12000678WA0212302155
B1935244748560N12000667WA0211402153
B1935254748566N12000651WA0211302149
B1935264748571N12000637WA0211602152
B1935274748571N12000623WA0211502151
B1935284748566N12000615WA0211002144
B1935294748558N12000610WA0210902140
B1935304748553N12000602WA0211102141
B1935314748550N12000590WA0210802140
B1935324748553N12000574WA0210402136
B1935334748557N12000559WA0210302133
B1935344748558N12000544WA0210402135
B1935354748556N12000532WA0210202133
B1935364748550N12000524WA0210002130
B1935374748544N12000517WA0210102129
B1935384748540N12000507WA0210102129
B1935394748539N12000494WA0209902127
B1935404748540N12000480WA0209702126
B1935414748541N12000466WA0209702127
B1935424748539N12000455WA0209702126
B1935434748535N12000446WA0209602124
B1935444748530N12000438WA0209502124
B1935454748526N12000429WA0209402123
B1935464748523N12000418WA0209302123
B1935474748521N12000406WA0209202123
B1935484748518N12000396WA0209202123
B1935494748515N12000386WA0209202122
B1935504748511N12000378WA0209202122
B1935514748507N12000368WA0209102121
B1935524748505N12000358WA0208902119
B1935534748504N12000345WA0208702116
B1935544748503N12000331WA0208602114
B1935554748500N12000319WA0208602114
B1935564748495N12000309WA0208602113
B1935574748489N12000302WA0208602113
B1935584748483N12000295WA0208602114
B1935594748478N12000286WA0208602114
B1936004748476N12000274WA0208502112
B1936014748475N12000260WA0208402111
B1936024748474N12000246WA0208402111
B1936034748469N12000234WA0208302110
B1936044748462N12000227WA0208002107
B1936054748454N12000223WA0208002106
B1936064748448N12000218WA0208002108
B1936074748443N12000209WA0207902107
B1936084748442N12000197WA0207602103
B1936094748443N12000182WA0207502101
B1936104748443N12000168WA0207402101
B1936114748440N12000156WA0207102099
B1936124748434N12000149WA0206802094
B1936134748427N12000146WA0206702092
B1936144748421N12000143WA0206602093
B1936154748416N12000134WA0206402091
B1936164748415N12000122WA0206102086
B1936174748416N12000107WA0206002084
B1936184748417N12000092WA0205902085
B1936194748414N12000079WA0205802083
B1936204748408N12000072WA0205502079
B1936214748401N12000070WA0205302076
B1936224748395N12000066WA0205402077
B1936234748391N12000059WA0205202074
B1936244748391N12000046WA0204702068
B1936254748394N12000030WA0204402064
B1936264748395N12000015WA0204502065
B1936274748392N12000003WA0204302064
B1936284748387N11959995WA0204002060
B1936294748379N11959993WA0203802059
B1936304748373N11959989WA0204002060
B1936314748370N11959980WA0203602059
B1936324748370N11959966WA0203102055
B1936334748373N11959950WA0202902053
B1936344748374N11959935WA0202902053
B1936354748371N11959923WA0202502050
B1936364748364N11959918WA0202102045
B1936374748356N11959917WA0202102043
B1936384748351N11959912WA0202302044
B1936394748348N11959902WA0201902042
B1936404748350N11959887WA0201302034
B1936414748353N11959871WA0201002033
B1936424748353N11959857WA0201002034
B1936434748350N11959846WA0200602032
B1936444748342N11959843WA0200202026
B1936454748334N11959841WA0200302026
B1936464748328N11959836WA0200302025
B1936474748326N11959827WA0199602024
B1936484748328N11959810WA0199002019
B1936494748331N11959794WA0198902014
B1936504748330N11959780WA0198902016
B1936514748324N11959772WA0198402013
B1936524748316N11959771WA0198202007
B1936534748308N11959771WA0198402008
B1936544748302N11959766WA0198302008
B1936554748300N11959756WA0197902004
B1936564748300N11959742WA0197402000
B1936574748299N11959727WA0197401999
B1936584748296N11959716WA0197001998
B1936594748290N11959712WA0196301992
B1937004748282N11959711WA0196301988
B1937014748275N11959707WA0196301987
B1937024748272N11959698WA0195601985
B1937034748276N11959686WA0194101982
B1937044748284N11959669WA0193801979
B1937054748288N11959653WA0194701985
B1937064748288N11959639WA0194701991
B1937074748286N11959632WA0194001992
B1937084748282N11959632WA0193101990
B1937094748277N11959647WA0192601984
B1937104748282N11959659WA0192701979
B1937114748292N11959663WA0192701977
B1937124748302N11959657WA0192501973
B1937134748308N11959642WA0192201969
B1937144748308N11959625WA0191901966
B1937154748303N11959612WA0192001964
B1937164748297N11959604WA0192001964
B1937174748291N11959600WA0192101963
B1937184748286N11959598WA0192201962
B1937194748282N11959593WA0192001960
B1937204748278N11959586WA0191701957
B1937214748273N11959577WA0191301953
B1937224748268N11959568WA0191201950
B1937234748263N11959559WA0191201949
B1937244748261N11959549WA0191101949
B1937254748260N11959537WA0191001946
B1937264748262N11959524WA0190801943
B1937274748262N11959512WA0190601940
B1937284748261N11959499WA0190401937
B1937294748257N11959488WA0190201935
B1937304748252N11959479WA0190201934
B1937314748248N11959469WA0190201934
B1937324748246N11959458WA0190101933
B1937334748247N11959445WA0190001930
B1937344748248N11959432WA0189901929
B1937354748246N11959421WA0189601926
B1937364748241N11959413WA0189201921
B1937374748235N11959409WA0188901917
B1937384748228N11959405WA0188901917
B1937394748224N11959396WA0188701916
B1937404748224N11959384WA0188401912
B1937414748226N11959371WA0188301907
B1937424748226N11959357WA0188301906
B1937434748224N11959348WA0187801904
B1937444748220N11959342WA0186901902
B1937454748213N11959349WA0186401895
B1937464748206N11959357WA0186701895
B1937474748199N11959359WA0186801899
B1937484748195N11959354WA0186401896
B1937494748193N11959342WA0185901888
B1937504748192N11959328WA0185901885
B1937514748189N11959317WA0185701883
B1937524748182N11959313WA0184901875
B1937534748175N11959320WA0184101866
B1937544748167N11959330WA0184301861
B1937554748162N11959336WA0184601865
B1937564748156N11959335WA0184501863
B1937574748151N11959326WA0184001858
B1937584748148N11959315WA0183901857
B1937594748143N11959308WA0183701857
B1938004748137N11959306WA0182901854
B1938014748131N11959317WA0182001846
B1938024748128N11959331WA0181901842
B1938034748124N11959341WA0182201844
B1938044748118N11959344WA0182001845
B1938054748113N11959341WA0181401842
B1938064748111N11959329WA0181001838
B1938074748106N11959317WA0181001837
B1938084748100N11959311WA0180801834
B1938094748093N11959313WA0179901824
B1938104748089N11959324WA0179501817
B1938114748085N11959336WA0179901817
B1938124748079N11959341WA0179901819
B1938134748073N11959338WA0179101812
B1938144748068N11959325WA0178501806
B1938154748063N11959312WA0178601807
B1938164748057N11959307WA0178501807
B1938174748052N11959304WA0177501806
B1938184748050N11959318WA0177001798
B1938194748048N11959333WA0177401799
B1938204748043N11959342WA0177401800
B1938214748037N11959345WA0176701800
B1938224748032N11959338WA0176201797
B1938234748027N11959329WA0176201797
B1938244748020N11959326WA0176101796
B1938254748013N11959328WA0175401795
B1938264748010N11959343WA0175001790
B1938274748009N11959358WA0175201789
B1938284748005N11959369WA0175101791
B1938294748001N11959375WA0174601792
B1938304747996N11959375WA0174101789
B1938314747989N11959367WA0174201787
B1938324747983N11959366WA0173901786
B1938334747977N11959371WA0173001781
B1938344747978N11959387WA0172601772
B1938354747977N11959401WA0173001765
B1938364747974N11959411WA0172701763
B1938374747970N11959420WA0172001759
B1938384747963N11959415WA0171601755
B1938394747956N11959410WA0171701756
B1938404747950N11959409WA0171601756
B1938414747946N11959410WA0171001754
B1938424747945N11959425WA0170801751
B1938434747944N11959438WA0170901747
B1938444747940N11959447WA0170501742
B1938454747933N11959449WA0169701732
B1938464747926N11959443WA0169301724
B1938474747919N11959439WA0169401724
B1938484747913N11959442WA0169201722
B1938494747910N11959453WA0168501714
B1938504747910N11959468WA0168501708
B1938514747909N11959480WA0168601705
B1938524747905N11959490WA0168101704
B1938534747902N11959493WA0167101702
B1938544747899N11959487WA0165901698
B1938554747904N11959470WA0165401691
B1938564747915N11959461WA0165001687
B1938574747927N11959467WA0164901682
B1938584747932N11959483WA0164501675
B1938594747928N11959497WA0164301670
B1939004747920N11959501WA0164401669
B1939014747913N11959497WA0164301670
B1939024747910N11959487WA0164301669
B1939034747913N11959476WA0164301668
B1939044747918N11959467WA0164101667
B1939054747923N11959460WA0164201666
B1939064747927N11959453WA0164101663
B1939074747928N11959443WA0163601658
B1939084747925N11959435WA0162801650
B1939094747918N11959429WA0162501645
B1939104747913N11959421WA0162601647
B1939114747913N11959413WA0162401647
B1939124747916N11959403WA0161901643
B1939134747924N11959392WA0161901637
B1939144747928N11959381WA0161901634
B1939154747930N11959370WA0161101629
B1939164747926N11959364WA0159601619
B1939174747920N11959374WA0158201608
B1939184747922N11959394WA0157801599
B1939194747933N11959407WA0158401602
B1939204747945N11959407WA0158601605
B1939214747955N11959399WA0158101606
B1939224747957N11959389WA0157001605
B1939234747949N11959383WA0156601601
B1939244747939N11959387WA0156501602
B1939254747936N11959398WA0156801605
B1939264747939N11959410WA0156501605
B1939274747947N11959416WA0155901603
B1939284747959N11959415WA0155501593
B1939294747968N11959408WA0155601591
B1939304747974N11959399WA0156101595
B1939314747975N11959391WA0155901592
B1939324747972N11959385WA0155301585
B1939334747967N11959384WA0154601576
B1939344747960N11959392WA0154201568
B1939354747958N11959405WA0153801565
B1939364747962N11959418WA0153301562
B1939374747970N11959425WA0152101551
B1939384747978N11959419WA0150601536
B1939394747978N11959399WA0150201524
B1939404747970N11959388WA0150501523
B1939414747963N11959391WA0150501525
B1939424747958N11959400WA0149601525
B1939434747964N11959411WA0148601522
B1939444747979N11959416WA0148301519
B1939454747990N11959410WA0148701521
B1939464747995N11959400WA0148501521
B1939474747998N11959392WA0147801519
B1939484748000N11959386WA0146501518
B1939494747998N11959390WA0146101516
B1939504747998N11959407WA0146301516
B1939514747999N11959417WA0146001515
B1939524748007N11959427WA0145001515
B1939534748015N11959422WA0143901512
B1939544748018N11959409WA0143801509
B1939554748014N11959396WA0144101509
B1939564748009N11959391WA0144001513
B1939574748003N11959392WA0143301514
B1939584748000N11959404WA0142301507
B1939594748008N11959420WA0141601502
B1940004748019N11959427WA0141401501
B1940014748030N11959422WA0141101500
B1940024748037N11959411WA0140301499
B1940034748037N11959403WA0139601498
B1940044748026N11959401WA0139201491
B1940054748019N11959411WA0138801488
B1940064748021N11959427WA0138201482
B1940074748029N11959437WA0137701476
B1940084748040N11959437WA0137301469
B1940094748046N11959425WA0136901465
B1940104748047N11959413WA0136001464
B1940114748044N11959405WA0134901461
B1940124748030N11959419WA0134901458
B1940134748024N11959429WA0135201457
B1940144748025N11959442WA0135201456
B1940154748031N11959453WA0134101456
B1940164748038N11959450WA0132501439
B1940174748039N11959434WA0131201421
B1940184748032N11959416WA0131401418
B1940194748022N11959407WA0131901418
B1940204748015N11959415WA0131601418
B1940214748014N11959425WA0130301416
B1940224748026N11959430WA0128701413
B1940234748037N11959421WA0128501415
B1940244748043N11959410WA0129201420
B1940254748042N11959401WA0129401417
B1940264748037N11959398WA0128601418
B1940274748033N11959399WA0127201420
B1940284748034N11959406WA0126401417
B1940294748043N11959415WA0126901417
B1940304748052N11959412WA0127001418
B1940314748061N11959407WA0126201419
B1940324748065N11959405WA0124801418
B1940334748062N11959419WA0124101410
B1940344748061N11959436WA0124601387
B1940354748058N11959444WA0125101384
B1940364748062N11959451WA0124901380
B1940374748070N11959450WA0124201364
B1940384748074N11959437WA0123201330
B1940394748074N11959422WA0122701316
B1940404748068N11959409WA0122801310
B1940414748061N11959405WA0122901309
B1940424748055N11959409WA0122901305
B1940434748052N11959415WA0122901300
B1940444748048N11959420WA0122801296
B1940454748044N11959423WA0122501290
B1940464748039N11959425WA0122201285
B1940474748024N11959419WA0122101247
B1940484748016N11959418WA0122001234
B1940494748012N11959417WA0121901230
B1940504748008N11959413WA0121501225
B1940514748006N11959402WA0120901218
B1940524748009N11959390WA0120401211
B1940534748016N11959385WA0119701205
B1940544748025N11959387WA0118701197
B1940554748031N11959393WA0117301190
B1940564748020N11959402WA0116901179
B1940574748010N11959397WA0116901174
B1940584748003N11959385WA0116301170
B1940594747999N11959377WA0114901167
B1941004748000N11959379WA0113301162
B1941014748002N11959403WA0112901156
B1941024748005N11959417WA0113101154
B1941034748004N11959417WA0112701151
B1941044748002N11959404WA0111301149
B1941054748012N11959394WA0110801144
B1941064748020N11959387WA0111001142
B1941074748026N11959396WA0110501143
B1941084748028N11959407WA0109401143
B1941094748029N11959405WA0107901141
B1941104748030N11959387WA0107201139
B1941114748035N11959371WA0107701141
B1941124748045N11959365WA0107501145
B1941134748051N11959369WA0106301143
B1941144748054N11959378WA0105201142
B1941154748047N11959386WA0104601140
B1941164748038N11959378WA0104601139
B1941174748035N11959365WA0103901135
B1941184748034N11959354WA0103001123
B1941194748042N11959351WA0102501119
B1941204748047N11959360WA0102301114
B1941214748042N11959374WA0101701112
B1941224748037N11959386WA0100201110
B1941234748033N11959376WA0098901106
B1941244748036N11959359WA0098901103
B1941254748044N11959356WA0099101102
B1941264748049N11959362WA0099201100
B1941274748053N11959369WA0099001101
B1941284748050N11959379WA0098701098
B1941294748045N11959382WA0098401093
B1941304748040N11959378WA0098001089
B1941314748036N11959371WA0097701084
B1941324748034N11959363WA0097701082
B1941334748031N11959355WA0097701079
B1941344748028N11959349WA0097601075
B1941354748024N11959344WA0097301071
B1941364748019N11959339WA0097001065
B1941374748015N11959333WA0096701059
B1941384748009N11959327WA0096501054
B1941394748004N11959319WA0096301051
B1941404748000N11959312WA0096301049
B1941414747996N11959306WA0096101046
B1941424747993N11959300WA0095901043
B1941434747989N11959295WA0095601039
B1941444747986N11959288WA0095401034
B1941454747982N11959280WA0095201030
B1941464747979N11959272WA0095001026
B1941474747976N11959264WA0094801020
B1941484747974N11959256WA0094601014
B1941494747968N11959248WA0094300980
B1941504747964N11959241WA0094000966
B1941514747959N11959237WA0093700957
B1941524747952N11959236WA0093400951
B1941534747946N11959233WA0093200947
B1941544747943N11959227WA0093000942
B1941554747943N11959219WA0092700938
B1941564747943N11959206WA0092300932
B1941574747941N11959195WA0092100930
B1941584747936N11959188WA0091700925
B1941594747929N11959185WA0091500920
B1942004747923N11959181WA0091400919
B1942014747919N11959175WA0091000917
B1942024747919N11959165WA0090400915
B1942034747923N11959150WA0090000908
B1942044747925N11959137WA0090200905
B1942054747923N11959126WA0090100905
B1942064747917N11959120WA0089700902
B1942074747911N11959119WA0089600899
B1942084747905N11959117WA0089500899
B1942094747902N11959111WA0089200895
B1942104747902N11959100WA0088800888
B1942114747904N11959087WA0088500882
B1942124747905N11959074WA0088500881
B1942134747903N11959063WA0088300880
B1942144747897N11959058WA0087900876
B1942154747890N11959059WA0087400870
B1942164747883N11959063WA0087400869
B1942174747877N11959060WA0087200869
B1942184747874N11959055WA0086100868
B1942194747874N11959045WA0084800866
B1942204747882N11959035WA0084500862
B1942214747893N11959038WA0084700861
B1942224747900N11959046WA0084400858
B1942234747901N11959056WA0083900858
B1942244747897N11959059WA0083500855
B1942254747890N11959046WA0083100852
B1942264747887N11959030WA0082300849
B1942274747895N11959019WA0082000841
B1942284747904N11959010WA0082200836
B1942294747909N11959013WA0082300833
B1942304747912N11959020WA0081900835
B1942314747913N11959029WA0081000834
B1942324747908N11959032WA0080400833
B1942334747900N11959024WA0080400832
B1942344747896N11959009WA0079900831
B1942354747898N11958993WA0078900827
B1942364747895N11958984WA0077800819
B1942374747896N11958994WA0077600813
B1942384747894N11959002WA0077600810
B1942394747887N11959005WA0076900809
B1942404747883N11959002WA0075500808
B1942414747879N11958990WA0074600807
B1942424747882N11958990WA0074700805
B1942434747889N11959004WA0074600805
B1942444747890N11959021WA0073600805
B1942454747889N11959034WA0072000800
B1942464747887N11959018WA0070900780
B1942474747893N11959001WA0070700782
B1942484747905N11958995WA0070700784
B1942494747913N11959002WA0070300782
B1942504747910N11959015WA0069400778
B1942514747898N11959017WA0068700769
B1942524747889N11959007WA0068600764
B1942534747890N11958992WA0068600764
B1942544747895N11958984WA0068600764
B1942554747902N11958983WA0068600759
B1942564747908N11958988WA0068500757
B1942574747912N11958995WA0068600755
B1942584747913N11959001WA0068400754
B1942594747913N11959007WA0068100750
B1943004747912N11959012WA0068100746
B1943014747909N11959017WA0067900743
B1943024747906N11959021WA0067900738
B1943034747902N11959024WA0067700734
B1943044747897N11959024WA0067400729
B1943054747893N11959022WA0067200720
B1943064747888N11959020WA0067000712
B1943074747883N11959019WA0066800706
B1943084747878N11959020WA0066600701
B1943094747873N11959021WA0066600697
B1943104747868N11959020WA0066500693
B1943114747865N11959016WA0066300688
B1943124747862N11959008WA0066000682
B1943134747859N11958999WA0065800677
B1943144747854N11958993WA0065600673
B1943154747850N11958992WA0065200668
B1943164747846N11958998WA0064900662
B1943174747844N11959008WA0064800658
B1943184747841N11959015WA0064600655
B1943194747837N11959018WA0064300648
B1943204747831N11959011WA0063900639
B1943214747827N11958998WA0063700634
B1943224747822N11958987WA0063700634
B1943234747816N11958982WA0063600633
B1943244747810N11958983WA0063400628
B1943254747806N11958990WA0063100624
B1943264747805N11958999WA0062900622
B1943274747808N11959007WA0062800620
B1943284747814N11959010WA0062500617
B1943294747821N11959007WA0062300612
B1943304747825N11958997WA0061900607
B1943314747825N11958984WA0061500604
B1943324747819N11958975WA0061300601
B1943334747811N11958974WA0061000598
B1943344747806N11958981WA0060800594
B1943354747807N11958992WA0060500590
B1943364747813N11958997WA0060300586
B1943374747821N11958995WA0060000583
B1943384747826N11958985WA0059700580
B1943394747826N11958972WA0059300576
B1943404747820N11958963WA0059000573
B1943414747812N11958961WA0058600569
B1943424747806N11958969WA0058400567
B1943434747805N11958979WA0058400566
B1943444747809N11958987WA0058600566
B1943454747814N11958990WA0058600567
B1943464747819N11958990WA0058500567
B1943474747823N11958987WA0058300567
B1943484747828N11958983WA0058100564
B1943494747833N11958978WA0057900562
B1943504747837N11958971WA0057800559
B1943514747840N11958960WA0057600557
B1943524747839N11958951WA0057400554
B1943534747835N11958942WA0057200551
B1943544747829N11958937WA0056900549
B1943554747823N11958938WA0056600546
B1943564747818N11958947WA0056300543
B1943574747819N11958956WA0056000541
B1943584747824N11958962WA0055800538
B1943594747831N11958962WA0055600535
B1944004747837N11958955WA0055400532
B1944014747839N11958943WA0055200529
B1944024747836N11958932WA0054900526
B1944034747828N11958928WA0054500522
B1944044747822N11958933WA0053900516
B1944054747820N11958945WA0053500512
B1944064747822N11958957WA0053500511
B1944074747824N11958965WA0053700515
B1944084747824N11958972WA0053800517
B1944094747821N11958976WA0053600515
B1944104747816N11958979WA0053200512
B1944114747811N11958982WA0053000510
B1944124747807N11958989WA0052700507
B1944134747806N11958998WA0052600505
B1944144747806N11959007WA0052600505
B1944154747806N11959014WA0052700508
B1944164747804N11959018WA0052600507
B1944174747802N11959022WA0052400505
B1944184747799N11959027WA0052100502
B1944194747798N11959034WA0051900498
B1944204747798N11959043WA0051700495
B1944214747798N11959051WA0051700495
B1944224747796N11959057WA0051700496
B1944234747793N11959060WA0051500494
B1944244747787N11959062WA0051200491
B1944254747781N11959065WA0051000490
B1944264747777N11959071WA0050800488
B1944274747775N11959080WA0050600486
B1944284747775N11959088WA0050600485
B1944294747774N11959094WA0050600486
B1944304747770N11959098WA0050300484
B1944314747764N11959100WA0050100480
B1944324747758N11959100WA0050000479
B1944334747755N11959106WA0049800477
B1944344747754N11959111WA0049400473
B1944354747758N11959120WA0048800467
B1944364747767N11959118WA0048400461
B1944374747772N11959107WA0047800454
B1944384747769N11959093WA0047100445
B1944394747760N11959087WA0046300435
B1944404747751N11959095WA0046000429
B1944414747752N11959109WA0046000429
B1944424747758N11959117WA0045300426
B1944434747767N11959125WA0044200423
B1944444747767N11959112WA0043200414
B1944454747759N11959095WA0043300409
B1944464747750N11959094WA0043600412
B1944474747747N11959101WA0043400409
B1944484747752N11959108WA0042400398
B1944494747761N11959106WA0041300386
B1944504747770N11959095WA0041100383
B1944514747771N11959079WA0041400386
B1944524747766N11959068WA0041200383
B1944534747759N11959066WA0040400376
B1944544747756N11959071WA0039200374
B1944554747760N11959083WA0038800371
B1944564747772N11959083WA0039000371
B1944574747779N11959075WA0038800373
B1944584747782N11959063WA0038500374
B1944594747777N11959053WA0038400373
B1945004747773N11959045WA0038800375
B1945014747771N11959038WA0039000376
B1945024747770N11959032WA0039000375
B1945034747770N11959027WA0038700372
B1945044747767N11959021WA0038400369
B1945054747763N11959017WA0038100365
B1945064747758N11959016WA0037900362
B1945074747753N11959018WA0037800360
B1945084747750N11959024WA0037600358
B1945094747751N11959031WA0037400355
B1945104747755N11959038WA0037200351
B1945114747761N11959043WA0037100349
B1945124747767N11959046WA0037100350
B1945134747772N11959048WA0037100350
B1945144747776N11959052WA0036900349
B1945154747779N11959055WA0036800347
B1945164747784N11959058WA0036600344
B1945174747791N11959061WA0036400341
B1945184747797N11959062WA0036300339
B1945194747803N11959063WA0036200338
B1945204747809N11959065WA0036200338
B1945214747814N11959067WA0036100337
B1945224747819N11959069WA0036000335
B1945234747824N11959072WA0035800334
B1945244747830N11959075WA0035800332
B1945254747835N11959079WA0035700332
B1945264747841N11959082WA0035600331
B1945274747846N11959084WA0035500330
B1945284747852N11959084WA0035400329
B1945294747858N11959080WA0035200326
B1945304747863N11959073WA0034900323
B1945314747866N11959062WA0034800321
B1945324747866N11959052WA0034700320
B1945334747866N11959042WA0034700321
B1945344747868N11959034WA0034700321
B1945354747872N11959028WA0034500319
B1945364747877N11959022WA0034400317
B1945374747882N11959015WA0034300316
B1945384747883N11959006WA0034100313
B1945394747880N11958997WA0033600308
B1945404747874N11958994WA0033100302
B1945414747866N11958999WA0032700299
B1945424747863N11959009WA0032700298
B1945434747865N11959019WA0032700298
B1945444747871N11959025WA0032600297
B1945454747879N11959025WA0032500295
B1945464747885N11959020WA0032400294
B1945474747889N11959012WA0032400293
B1945484747890N11959003WA0032300293
B1945494747889N11958996WA0032100292
B1945504747886N11958989WA0031900291
B1945514747885N11958982WA0031900290
B1945524747885N11958975WA0031700289
B1945534747890N11958967WA0031400286
B1945544747896N11958964WA0031100283
B1945554747904N11958967WA0030900281
B1945564747908N11958975WA0030700279
B1945574747909N11958985WA0030700279
B1945584747906N11958993WA0030700277
B1945594747902N11958998WA0030600277
B1946004747896N11958998WA0030500276
B1946014747893N11958994WA0030300275
B1946024747890N11958987WA0030100273
B1946034747890N11958979WA0029900271
B1946044747893N11958970WA0029700269
B1946054747898N11958964WA0029500267
B1946064747904N11958961WA0029400266
B1946074747911N11958961WA0029400266
B1946084747917N11958962WA0029400266
B1946094747922N11958962WA0029300266
B1946104747927N11958961WA0029200264
B1946114747932N11958959WA0029100262
B1946124747938N11958958WA0029100261
B1946134747944N11958957WA0029000260
B1946144747949N11958957WA0029000259
B1946154747955N11958957WA0028900258
B1946164747960N11958958WA0028800257
B1946174747965N11958959WA0028600255
B1946184747972N11958958WA0028400253
B1946194747978N11958957WA0028400252
B1946204747984N11958954WA0028300251
B1946214747989N11958953WA0028300251
B1946224747994N11958953WA0028200250
B1946234747999N11958954WA0028000248
B1946244748004N11958959WA0027800246
B1946254748009N11958965WA0027700244
B1946264748014N11958971WA0027600243
B1946274748018N11958978WA0027500242
B1946284748022N11958983WA0027500242
B1946294748027N11958989WA0027400241
B1946304748030N11958994WA0027300240
B1946314748034N11959001WA0027200238
B1946324748037N11959008WA0027000237
B1946334748039N11959016WA0026900236
B1946344748039N11959024WA0026800235
B1946354748037N11959031WA0026600233
B1946364748034N11959037WA0026500232
B1946374748029N11959041WA0026300230
B1946384748024N11959042WA0026300229
B1946394748020N11959041WA0026200229
B1946404748016N11959039WA0026100228
B1946414748012N11959036WA0026000227
B1946424748008N11959032WA0026000226
B1946434748004N11959028WA0026000225
B1946444748001N11959023WA0026000225
B1946454747998N11959019WA0026000226
B1946464747996N11959015WA0025900226
B1946474747993N11959011WA0025700225
B1946484747990N11959008WA0025600223
B1946494747985N11959007WA0025400222
B1946504747980N11959008WA0025200220
B1946514747976N11959014WA0025100218
B1946524747975N11959023WA0024900216
B1946534747976N11959032WA0024700215
B1946544747978N11959041WA0024600215
B1946554747980N11959048WA0024600215
B1946564747980N11959056WA0024400213
B1946574747977N11959063WA0024300211
B1946584747973N11959068WA0024300210
B1946594747970N11959071WA0024300210
B1947004747965N11959072WA0024300211
B1947014747962N11959070WA0024300211
B1947024747958N11959067WA0024200210
B1947034747955N11959063WA0024100209
B1947044747951N11959061WA0024100208
B1947054747947N11959062WA0023900206
B1947064747943N11959068WA0023700204
B1947074747940N11959077WA0023100202
B1947084747939N11959086WA0023000201
B1947094747937N11959094WA0023000201
B1947104747933N11959099WA0023100200
B1947114747928N11959102WA0023000199
B1947124747924N11959103WA0023100198
B1947134747921N11959104WA0023000198
B1947144747919N11959104WA0023000198
B1947154747917N11959104WA0022900198
B1947164747915N11959104WA0023000198
B1947174747913N11959105WA0023000197
B1947184747913N11959105WA0023000197
B1947194747913N11959105WA0023000197
B1947204747913N11959106WA0023000197
B1947214747913N11959106WA0023000197
B1947224747913N11959106WA0023000197
B1947234747913N11959106WA0023000197
B1947244747913N11959106WA0023000197
B1947254747913N11959106WA0023000197
B1947264747913N11959106WA0023000197
B1947274747913N11959106WA0023000197
B1947284747913N11959106WA0023000197
B1947294747913N11959106WA0023000197
B1947304747913N11959106WA0023000197
B1947314747913N11959106WA0023000197
B1947324747913N11959106WA0023000197
B1947334747913N11959106WA0023000197
B1947344747913N11959106WA0023000197
B1947354747913N11959106WA0023000197
B1947364747913N11959106WA0023000197
B1947374747913N11959106WA0023000197
B1947384747913N11959106WA0023000197
B1947394747913N11959106WA0023000197
B1947404747913N11959106WA0023000197
B1947414747913N11959106WA0023000197
B1947424747913N11959106WA0023000197
B1947434747913N11959106WA0023000197
B1947444747913N11959106WA0023000197
B1947454747913N11959106WA0023000197
B1947464747913N11959106WA0023000197
B1947474747913N11959106WA0023000197
B1947484747913N11959106WA0023000197
G15A8E9447E8C5B874CE458AAA1EB81CC34C35E19074AF2694F5B595CF4CC1E12
