AXCSAAA
HFDTE170416
HFFXA050
HFPLTPILOTINCHARGE:JOSH COHN
HFGTYGLIDERTYPE:ENZO 2
HFGIDGLIDERID:ENZO 2
HFCIDCOMPETITIONID:121
HFFTYFRTYPE:XCSOAR,XCSOAR Android 6.8.3 Mar  9 2016
HFGPS:Internal GPS (Android)
HFDTM100DATUM:WGS-1984
I023638FXA3940SIU
C170416190316000000000005
C0000000N00000000ETAKEOFF
C3646886N11907285W49917
C3642227N11914270WFAWN
C3641889N11918328W63LZ
C3644757N11916904WBEARMT
C3648024N11921581WTIVYMT
C3641889N11918328W63LZ
C3641889N11918328W63LZ
C0000000N00000000ELANDING
F190316
B1903163645910N11905869WA013560141000000
B1903213645910N11905869WA013560141000000
B1903263645910N11905869WA013560141000000
B1903313645910N11905869WA013560141000000
B1903363645910N11905869WA013560141000000
B1903413645910N11905869WA013560141000000
B1903463645910N11905869WA013560141000000
B1903513645910N11905869WA013560141000000
B1903563645910N11905869WA013560141000000
B1904013645910N11905869WA013560141000000
F190406
B1904063645910N11905869WA013560141000000
B1904113645910N11905869WA013560141000000
B1904163645910N11905869WA013560141000000
B1904213645910N11905869WA013560141000000
B1904263645910N11905869WA013560141000000
B1904313645910N11905869WA013560141000000
B1904363645910N11905869WA013560141000000
B1904413645910N11905869WA013560141000000
B1904463645910N11905869WA013560141000000
B1904513645910N11905869WA013560141100000
B1904563645908N11905868WA013550141000000
B1905013645907N11905871WA013550141100000
B1905063645907N11905874WA013560141200000
B1905113645908N11905877WA013570141100000
B1905163645909N11905880WA013560141400000
B1905213645908N11905880WA013570141500000
B1905263645908N11905879WA013560141400000
B1905313645908N11905879WA013560141500000
B1905363645908N11905879WA013570141500000
B1905413645908N11905879WA013560141500000
F190546
B1905463645908N11905880WA013560141700000
B1905513645907N11905880WA013560141700000
B1905563645907N11905880WA013570141600000
B1906013645907N11905880WA013570141600000
B1906063645907N11905881WA013570141400000
B1906113645907N11905881WA013560141300000
B1906163645908N11905881WA013560141200000
B1906213645907N11905883WA013560141200000
B1906263645904N11905885WA013550141100000
B1906313645904N11905885WA013550141100000
B1906363645904N11905885WA013550141300000
B1906413645904N11905886WA013550141600000
B1906463645904N11905886WA013550141600000
B1906513645904N11905886WA013540141600000
F190656
B1906563645904N11905886WA013540141600000
B1907013645904N11905886WA013540141700000
B1907063645904N11905887WA013540141600000
B1907113645905N11905886WA013550141600000
B1907163645905N11905887WA013550141600000
B1907213645905N11905886WA013550141700000
B1907263645903N11905886WA013510141400000
B1907313645894N11905894WA013590142600000
B1907363645888N11905897WA013580142300000
B1907413645884N11905907WA013590142500000
B1907463645882N11905919WA013710143200000
B1907513645883N11905935WA013780144000000
B1907563645889N11905950WA013930145400000
B1908013645878N11905940WA013990145500000
B1908063645903N11905896WA014110145600000
B1908113645912N11905919WA014250146300000
B1908163645903N11905893WA014210146700000
B1908213645929N11905876WA014390147300000
B1908263645946N11905889WA014480149000000
B1908273645947N11905893WA014460148800000
B1908283645947N11905900WA014440148700000
B1908293645949N11905905WA014410148600000
B1908303645950N11905911WA014410149000000
B1908313645951N11905915WA014410149100000
B1908323645952N11905918WA014410149100000
F190833
B1908333645953N11905922WA014410149100000
B1908343645954N11905926WA014400149100000
B1908353645955N11905931WA014380149000000
B1908363645956N11905936WA014360148800000
B1908373645958N11905941WA014340148800000
B1908383645960N11905947WA014330148800000
B1908393645963N11905952WA014330149000000
B1908403645965N11905957WA014340149200000
B1908413645967N11905961WA014350149200000
B1908423645969N11905966WA014360149200000
B1908433645972N11905970WA014370149200000
B1908443645974N11905974WA014380149500000
B1908453645976N11905978WA014390149800000
B1908463645979N11905982WA014410149900000
B1908473645981N11905986WA014440150000000
B1908483645984N11905989WA014450150100000
B1908493645986N11905992WA014470150200000
B1908503645987N11905995WA014480150400000
B1908513645988N11905998WA014490150500000
B1908523645988N11906001WA014500150600000
B1908533645987N11906003WA014500150600000
B1908543645987N11906006WA014510150600000
B1908553645987N11906008WA014510150700000
B1908563645986N11906011WA014510150700000
B1908573645985N11906013WA014520150700000
B1908583645984N11906017WA014520150900000
B1908593645983N11906020WA014530151100000
B1909003645981N11906022WA014550151300000
B1909013645979N11906023WA014570151600000
B1909023645976N11906023WA014590151700000
B1909033645970N11906019WA014610151800000
B1909043645966N11906017WA014630151900000
F190905
B1909053645963N11906010WA014650152100000
B1909063645961N11906002WA014680152400000
B1909073645960N11905993WA014700152500000
B1909083645962N11905983WA014710152600000
B1909093645963N11905974WA014730152600000
B1909103645967N11905967WA014750152500000
B1909113645971N11905962WA014760152800000
B1909123645977N11905959WA014780153100000
B1909133645981N11905956WA014790153500000
B1909143645986N11905955WA014800153600000
B1909153645991N11905955WA014810153700000
B1909163645994N11905957WA014810153700000
B1909173646000N11905958WA014810153700000
B1909183646002N11905961WA014800153700000
B1909193646003N11905964WA014800153600000
B1909203646003N11905968WA014790153600000
B1909213646002N11905971WA014800153800000
B1909223646000N11905974WA014800154000000
B1909233645997N11905976WA014820154200000
B1909243645995N11905978WA014840154300000
B1909253645993N11905979WA014870154600000
B1909263645990N11905979WA014910154700000
B1909273645987N11905979WA014930154800000
B1909283645984N11905979WA014960154800000
B1909293645980N11905979WA014970155200000
B1909303645976N11905975WA014990155500000
B1909313645972N11905970WA015000155400000
B1909323645970N11905962WA015000155300000
B1909333645968N11905952WA015010155300000
B1909343645966N11905940WA015040155500000
B1909353645970N11905930WA015070155700000
B1909363645972N11905923WA015090156000000
B1909373645982N11905919WA015110155900000
B1909383645989N11905919WA015120156100000
B1909393645993N11905918WA015150156500000
B1909403645998N11905918WA015170156800000
F190941
B1909413646002N11905919WA015190157200000
B1909423646005N11905921WA015210157400000
B1909433646007N11905923WA015220157600000
B1909443646007N11905927WA015240158000000
B1909453646008N11905929WA015270158200000
B1909463646009N11905931WA015300158700000
B1909473646009N11905932WA015330159100000
B1909483646011N11905934WA015360159100000
B1909493646012N11905936WA015380159300000
B1909503646013N11905939WA015390159400000
B1909513646015N11905943WA015390159500000
B1909523646014N11905945WA015400159800000
B1909533646013N11905948WA015410159900000
B1909543646013N11905951WA015400160000000
B1909553646012N11905955WA015400160000000
B1909563646011N11905958WA015410160100000
B1909573646011N11905961WA015420160400000
B1909583646011N11905965WA015440160700000
B1909593646011N11905969WA015470160900000
B1910003646011N11905973WA015500161000000
B1910013646013N11905976WA015520161000000
B1910023646014N11905979WA015540161200000
B1910033646016N11905983WA015550161600000
B1910043646016N11905986WA015560161700000
B1910053646016N11905990WA015560161700000
B1910063646016N11905993WA015560161800000
B1910113646026N11906009WA015520161600000
B1910163646024N11906030WA015500161500000
B1910213646016N11906042WA015530161900000
B1910263646007N11906052WA015510161700000
B1910313646000N11906066WA015510161900000
B1910363645993N11906077WA015500161900000
B1910413645972N11906065WA015440161300000
B1910463645953N11906045WA015400161000000
B1910513645929N11906040WA015270159900000
F191056
B1910563645918N11906063WA015110158600000
B1911013645916N11906093WA015000157300000
B1911063645917N11906118WA014970157000000
B1911113645913N11906145WA014930156600000
B1911163645926N11906157WA014870156000000
B1911213645959N11906135WA014820155500000
B1911263645992N11906122WA014890155900000
B1911313646013N11906103WA014980156400000
B1911363646037N11906089WA015110157500000
B1911413646057N11906085WA015200158400000
B1911463646069N11906104WA015170158400000
B1911513646078N11906123WA015270159300000
B1911563646086N11906138WA015360160300000
B1912013646090N11906155WA015420160900000
B1912063646092N11906168WA015540162100000
B1912113646083N11906177WA015570162300000
B1912163646067N11906145WA015650162500000
B1912213646094N11906116WA015770164200000
B1912243646107N11906118WA015820165000000
B1912253646109N11906121WA015840165200000
B1912263646110N11906124WA015850165500000
F191227
B1912273646109N11906127WA015870165700000
B1912283646107N11906130WA015870165700000
B1912293646105N11906132WA015880165800000
B1912303646103N11906134WA015890165900000
B1912313646101N11906135WA015900165900000
B1912323646098N11906136WA015890165800000
B1912333646094N11906135WA015880165700000
B1912343646089N11906129WA015870165700000
B1912353646085N11906121WA015870165800000
B1912363646082N11906111WA015890165800000
B1912373646081N11906104WA015910166000000
B1912383646082N11906097WA015940166000000
B1912393646087N11906091WA015970166000000
B1912403646093N11906083WA016000166000000
B1912413646099N11906083WA016040166000000
B1912423646107N11906084WA016060166100000
B1912433646111N11906086WA016080166300000
B1912443646115N11906089WA016080166500000
B1912453646117N11906093WA016080166700000
B1912463646118N11906098WA016090167100000
B1912473646117N11906102WA016090167300000
B1912483646115N11906104WA016100167400000
B1912493646113N11906106WA016100167400000
B1912503646109N11906106WA016100167500000
B1912513646104N11906105WA016100167500000
B1912523646100N11906101WA016090167500000
B1912533646096N11906097WA016090167400000
B1912543646093N11906088WA016090167500000
B1912553646092N11906080WA016090167600000
B1912563646092N11906070WA016100167600000
B1912573646093N11906062WA016120167900000
B1912583646095N11906055WA016150168400000
F191259
B1912593646099N11906049WA016190168600000
B1913003646102N11906045WA016220168900000
B1913013646107N11906042WA016250169100000
B1913023646113N11906039WA016270169200000
B1913033646117N11906038WA016290169500000
B1913043646121N11906039WA016300169700000
B1913053646125N11906041WA016310169600000
B1913063646128N11906045WA016310169600000
B1913073646125N11906050WA016330169900000
B1913083646125N11906053WA016340170000000
B1913093646122N11906056WA016350170100000
B1913103646120N11906058WA016350170100000
B1913113646118N11906062WA016350170100000
B1913123646115N11906065WA016340170000000
B1913133646113N11906069WA016340170200000
B1913143646110N11906072WA016350170300000
B1913153646108N11906075WA016360170400000
B1913163646105N11906077WA016380170600000
B1913173646103N11906079WA016400170700000
B1913183646101N11906081WA016410170900000
B1913193646098N11906084WA016430171200000
B1913203646096N11906086WA016460171300000
B1913213646095N11906087WA016500171400000
B1913223646092N11906088WA016520171700000
B1913233646090N11906090WA016530171900000
B1913243646086N11906091WA016540171900000
B1913253646082N11906090WA016550172200000
B1913263646077N11906088WA016570172500000
B1913273646073N11906085WA016590172600000
B1913283646070N11906077WA016620172500000
B1913293646068N11906069WA016630172700000
B1913303646066N11906059WA016640172800000
B1913313646071N11906050WA016660173200000
F191332
B1913323646075N11906042WA016670173700000
B1913333646079N11906034WA016710174000000
B1913343646084N11906031WA016740174500000
B1913353646089N11906028WA016770174600000
B1913363646094N11906028WA016790174600000
B1913373646099N11906032WA016800174800000
B1913383646102N11906035WA016820175000000
B1913393646099N11906040WA016840175500000
B1913403646097N11906043WA016870175900000
B1913413646094N11906044WA016890176200000
B1913423646091N11906043WA016930176500000
B1913433646087N11906041WA016940176600000
B1913443646083N11906036WA016960176700000
B1913453646079N11906029WA016960176600000
B1913463646076N11906021WA016970176700000
B1913473646076N11906011WA016980176700000
B1913483646081N11906003WA017000176900000
B1913493646083N11905995WA017020177100000
B1913503646087N11905988WA017050177500000
B1913513646091N11905982WA017080177700000
B1913523646097N11905978WA017100178000000
B1913533646102N11905977WA017130178100000
B1913543646107N11905977WA017140178300000
B1913553646110N11905980WA017150178300000
B1913563646112N11905983WA017150178400000
B1913573646111N11905986WA017160178500000
B1913583646109N11905989WA017180178900000
B1913593646107N11905991WA017210179200000
B1914003646105N11905992WA017240179500000
B1914013646102N11905992WA017260179700000
B1914023646098N11905991WA017280179700000
B1914033646094N11905988WA017280179800000
F191404
B1914043646089N11905984WA017290179900000
B1914053646085N11905978WA017290180000000
B1914063646083N11905970WA017300180200000
B1914073646081N11905961WA017320180300000
B1914083646080N11905952WA017340180400000
B1914093646080N11905943WA017370180500000
B1914103646083N11905936WA017400180900000
B1914113646087N11905929WA017420181100000
B1914123646091N11905921WA017430181200000
B1914133646096N11905918WA017430181300000
B1914143646101N11905915WA017420181500000
B1914153646106N11905916WA017400181500000
B1914163646107N11905920WA017380181500000
B1914173646107N11905927WA017400181400000
B1914183646107N11905931WA017430181500000
B1914193646104N11905935WA017460182000000
B1914203646102N11905938WA017500182200000
B1914213646102N11905940WA017530182400000
B1914223646100N11905941WA017560182600000
B1914233646097N11905942WA017570182700000
B1914243646093N11905941WA017560182900000
B1914253646088N11905940WA017560183000000
B1914263646082N11905938WA017560183100000
B1914273646077N11905933WA017570183100000
B1914283646074N11905925WA017590183200000
B1914293646069N11905917WA017610183100000
B1914303646068N11905909WA017640183100000
B1914313646068N11905900WA017650183300000
B1914323646072N11905892WA017670183400000
B1914333646081N11905891WA017670183500000
B1914343646087N11905889WA017680183500000
B1914353646093N11905890WA017680183600000
B1914363646097N11905891WA017680183700000
B1914373646097N11905895WA017690183900000
B1914383646099N11905898WA017710184200000
B1914393646100N11905901WA017720184400000
B1914403646100N11905903WA017740184600000
B1914423646099N11905910WA017750184800000
B1914433646098N11905913WA017770184900000
B1914443646096N11905915WA017780185200000
B1914453646095N11905916WA017790185300000
F191446
B1914463646092N11905917WA017800185300000
B1914473646089N11905920WA017800185400000
B1914483646087N11905922WA017790185400000
B1914493646084N11905927WA017780185300000
B1914503646083N11905930WA017770185200000
B1914513646086N11905935WA017770185100000
B1914523646086N11905939WA017790185100000
B1914533646084N11905942WA017790185200000
B1914543646083N11905948WA017800185400000
B1914553646084N11905953WA017810185400000
B1914563646086N11905960WA017820185600000
B1914573646087N11905964WA017840185700000
B1914583646087N11905968WA017860185900000
B1914593646088N11905973WA017870186200000
B1915003646087N11905977WA017910186700000
B1915013646085N11905981WA017940187100000
B1915023646084N11905984WA017970187300000
B1915033646083N11905988WA017990187500000
B1915043646081N11905990WA018010187800000
B1915053646082N11905992WA018020187800000
B1915063646082N11905996WA018010187600000
B1915073646083N11906000WA017970187600000
B1915083646088N11906006WA017930187100000
B1915093646092N11906013WA017870186700000
B1915103646097N11906020WA017840186300000
B1915113646102N11906028WA017800186100000
B1915123646106N11906035WA017780186000000
B1915133646109N11906042WA017760185800000
B1915143646113N11906048WA017730185600000
B1915153646116N11906055WA017680185600000
B1915163646120N11906064WA017650184700000
B1915173646125N11906073WA017600184200000
B1915183646129N11906081WA017550183900000
B1915193646133N11906089WA017520183500000
F191520
B1915203646136N11906097WA017500183300000
B1915213646140N11906105WA017480183100000
B1915263646155N11906146WA017470182700000
B1915313646164N11906178WA017450182500000
B1915363646182N11906220WA017260181700000
B1915413646197N11906254WA017230180600000
B1915463646214N11906296WA017150179900000
B1915513646225N11906337WA017080178500000
B1915563646241N11906381WA017020177900000
B1916013646253N11906417WA016990177200000
B1916063646264N11906453WA016910176400000
B1916113646281N11906491WA016800175500000
B1916163646297N11906525WA016740174800000
B1916213646313N11906563WA016680174100000
B1916263646332N11906599WA016600173200000
B1916313646351N11906634WA016550172900000
B1916363646371N11906670WA016470172200000
B1916413646387N11906704WA016390171100000
B1916463646406N11906738WA016280170000000
B1916513646423N11906773WA016250169800000
B1916563646440N11906807WA016210169100000
B1917013646458N11906841WA016200168900000
B1917053646469N11906863WA016210168700000
B1917063646472N11906869WA016200168500000
B1917073646474N11906877WA016180168300000
B1917083646477N11906884WA016150168200000
B1917093646480N11906891WA016130168000000
B1917143646495N11906924WA016000167400000
B1917193646512N11906955WA015950166800000
F191724
B1917243646530N11906986WA015760164900000
B1917293646551N11907015WA015730164300000
B1917343646569N11907050WA015590162900000
B1917393646587N11907079WA015650163000000
B1917443646604N11907108WA015530162200000
B1917493646630N11907125WA015430161200000
B1917543646669N11907139WA015480161300000
B1917593646683N11907147WA015620162300000
B1918043646677N11907152WA015600162200000
B1918093646669N11907112WA015700162800000
F191814
B1918143646702N11907088WA015740163700000
B1918163646710N11907096WA015740163800000
B1918173646705N11907100WA015740163900000
B1918183646701N11907103WA015730164000000
B1918193646698N11907105WA015740164200000
B1918203646696N11907107WA015750164200000
B1918213646694N11907109WA015760164200000
B1918223646693N11907110WA015760164200000
B1918233646691N11907112WA015760164200000
B1918243646689N11907114WA015760164300000
B1918253646685N11907115WA015750164300000
B1918263646681N11907115WA015750164400000
B1918273646676N11907110WA015750164400000
B1918283646673N11907104WA015740164300000
B1918293646670N11907098WA015720164200000
B1918303646668N11907090WA015700164200000
B1918313646670N11907080WA015690164200000
B1918323646684N11907075WA015690164100000
B1918333646690N11907075WA015690164100000
B1918343646696N11907076WA015710164200000
B1918353646698N11907079WA015740164400000
B1918363646698N11907081WA015760164400000
B1918373646699N11907083WA015770164500000
B1918383646700N11907085WA015790164600000
B1918393646700N11907087WA015790164800000
B1918403646701N11907089WA015800164900000
B1918413646702N11907091WA015810164900000
B1918423646702N11907092WA015830164900000
B1918433646703N11907095WA015850165100000
B1918443646705N11907097WA015870165200000
B1918453646708N11907100WA015880165300000
B1918463646709N11907102WA015890165200000
B1918473646709N11907106WA015890165200000
B1918483646709N11907109WA015890165100000
B1918493646706N11907112WA015880165200000
B1918503646701N11907113WA015880165300000
B1918513646697N11907112WA015890165400000
B1918523646693N11907110WA015900165600000
B1918533646688N11907105WA015910165700000
B1918543646685N11907098WA015920165700000
B1918553646683N11907090WA015930165800000
F191856
B1918563646681N11907081WA015940165900000
B1918573646683N11907072WA015950165900000
B1918583646686N11907066WA015950165900000
B1918593646691N11907062WA015940165900000
B1919003646695N11907058WA015930165900000
B1919013646701N11907061WA015920165900000
B1919023646705N11907065WA015930166300000
B1919033646707N11907068WA015960166600000
B1919043646708N11907070WA015980166800000
B1919053646709N11907071WA016010167000000
B1919063646709N11907074WA016020167000000
B1919073646708N11907077WA016020166900000
B1919083646708N11907082WA016020166900000
B1919093646709N11907086WA016010167000000
B1919103646709N11907090WA016010167100000
B1919113646709N11907094WA016020167200000
B1919123646708N11907097WA016030167400000
B1919133646708N11907100WA016040167400000
B1919143646707N11907103WA016030167200000
B1919153646705N11907107WA016020167100000
B1919163646704N11907110WA016000166900000
B1919173646703N11907115WA015990166800000
B1919183646703N11907119WA015980166700000
B1919193646703N11907124WA015960166700000
B1919203646704N11907129WA015960166700000
B1919213646705N11907134WA015970166900000
B1919223646706N11907138WA015980166900000
B1919233646706N11907142WA015990166900000
B1919243646707N11907145WA015990166900000
B1919253646708N11907150WA015980166800000
B1919263646710N11907155WA015970166700000
B1919273646711N11907160WA015960166500000
B1919283646712N11907165WA015940166400000
F191929
B1919293646716N11907173WA015920166300000
B1919303646718N11907180WA015910166100000
B1919313646720N11907187WA015900166100000
B1919363646726N11907217WA015840165600000
B1919413646740N11907246WA015740165000000
B1919463646758N11907276WA015580163600000
B1919513646781N11907302WA015450162200000
B1919563646807N11907329WA015380161400000
B1920013646831N11907353WA015300160600000
B1920063646856N11907365WA015310160400000
F192011
B1920113646883N11907365WA015400160900000
B1920163646904N11907362WA015420160600000
B1920213646924N11907373WA015410160800000
B1920263646934N11907388WA015430160800000
B1920313646934N11907406WA015430160800000
B1920363646925N11907419WA015420161100000
B1920413646906N11907412WA015390160800000
B1920463646890N11907386WA015410160800000
F192051
B1920513646869N11907363WA015290160300000
B1920563646843N11907355WA015310160500000
B1921013646822N11907352WA015310160300000
B1921063646806N11907347WA015240159300000
B1921113646783N11907344WA015180158900000
B1921163646770N11907363WA015060158200000
B1921213646776N11907382WA015030157600000
B1921263646782N11907400WA014980156800000
F192131
B1921313646791N11907419WA014960156700000
B1921363646794N11907437WA014930156400000
B1921413646788N11907459WA014920156400000
B1921463646785N11907476WA015030157200000
B1921513646780N11907491WA015050157400000
B1921563646772N11907506WA015050157400000
B1922013646762N11907525WA015120158100000
B1922063646746N11907527WA015170158600000
B1922113646742N11907492WA015250158600000
F192216
B1922163646767N11907492WA015330159200000
B1922183646765N11907501WA015330159500000
B1922193646764N11907505WA015350159700000
B1922203646761N11907507WA015360160000000
B1922213646758N11907508WA015390160300000
B1922223646755N11907510WA015410160400000
B1922233646751N11907509WA015430160500000
B1922243646747N11907505WA015440160600000
B1922253646744N11907501WA015450160900000
B1922263646741N11907495WA015450161100000
B1922273646740N11907487WA015470161100000
B1922283646739N11907480WA015490161400000
B1922293646739N11907472WA015510161600000
B1922303646742N11907465WA015520161600000
B1922313646745N11907459WA015540161700000
B1922323646748N11907454WA015540161700000
B1922333646754N11907451WA015540161700000
B1922343646759N11907449WA015550162000000
B1922353646764N11907449WA015560162200000
B1922363646769N11907449WA015580162200000
B1922373646771N11907454WA015590162200000
B1922383646773N11907458WA015600162300000
B1922393646772N11907463WA015600162300000
B1922403646771N11907467WA015610162500000
B1922413646769N11907470WA015630162700000
B1922423646766N11907472WA015660163000000
B1922433646763N11907473WA015680163200000
B1922443646760N11907474WA015690163300000
B1922453646756N11907472WA015700163400000
F192246
B1922463646751N11907470WA015710163500000
B1922473646747N11907464WA015720163700000
B1922483646743N11907457WA015730163800000
B1922493646742N11907448WA015760163700000
B1922503646749N11907440WA015770164000000
B1922513646754N11907433WA015800164100000
B1922523646760N11907428WA015820164300000
B1922533646766N11907426WA015860164300000
B1922543646771N11907429WA015880164400000
B1922553646771N11907433WA015890164700000
B1922563646773N11907437WA015900164900000
B1922573646775N11907441WA015910165100000
B1922583646776N11907444WA015940165400000
B1922593646778N11907447WA015950165600000
B1923003646777N11907450WA015970165900000
B1923013646776N11907454WA015970165900000
B1923023646774N11907457WA015980166000000
B1923033646770N11907460WA015980166200000
B1923043646766N11907462WA015990166300000
B1923053646762N11907462WA016010166500000
B1923063646757N11907459WA016030166800000
B1923073646753N11907456WA016050167000000
B1923083646749N11907453WA016070167300000
B1923093646745N11907449WA016100167500000
B1923103646741N11907446WA016120167500000
B1923113646740N11907440WA016150167900000
B1923123646739N11907433WA016170168000000
B1923133646739N11907426WA016190168200000
B1923143646739N11907419WA016210168300000
B1923153646742N11907411WA016240168400000
B1923163646744N11907407WA016270168500000
B1923173646750N11907404WA016310169200000
B1923183646756N11907400WA016340169500000
F192319
B1923193646760N11907398WA016360169700000
B1923203646766N11907395WA016400170200000
B1923213646770N11907394WA016430170700000
B1923223646773N11907395WA016460170900000
B1923233646776N11907397WA016480171200000
B1923243646779N11907398WA016490171400000
B1923253646783N11907400WA016510171500000
B1923263646786N11907402WA016520171800000
B1923273646790N11907403WA016540172100000
B1923283646793N11907405WA016570172500000
B1923293646796N11907409WA016600172800000
B1923303646798N11907413WA016620172900000
B1923313646798N11907418WA016640173000000
B1923323646795N11907424WA016650173200000
B1923333646790N11907428WA016670173500000
B1923343646785N11907431WA016690173600000
B1923353646780N11907429WA016720173900000
B1923363646776N11907424WA016750174100000
B1923373646774N11907417WA016770174300000
B1923383646772N11907411WA016800174500000
B1923393646772N11907404WA016830174600000
B1923403646773N11907398WA016860174700000
B1923413646780N11907393WA016890174900000
B1923423646785N11907389WA016920175400000
B1923433646791N11907388WA016950175700000
B1923443646795N11907390WA016990176100000
B1923453646798N11907391WA017030176400000
B1923463646801N11907393WA017060176700000
B1923473646805N11907396WA017070176900000
B1923483646806N11907402WA017080177000000
B1923493646807N11907407WA017070177000000
B1923503646807N11907413WA017060177100000
B1923513646793N11907410WA017070177800000
B1923523646786N11907410WA017110178000000
B1923533646779N11907408WA017160178100000
F192354
B1923543646774N11907406WA017190178100000
B1923553646771N11907402WA017230178200000
B1923563646775N11907395WA017260178500000
B1923573646790N11907392WA017280179200000
B1923583646796N11907392WA017300179500000
B1923593646798N11907403WA017290179700000
B1924003646794N11907411WA017290180000000
B1924013646789N11907418WA017310180200000
B1924023646784N11907421WA017360180400000
B1924033646781N11907424WA017410180400000
B1924043646778N11907413WA017450180600000
B1924053646775N11907406WA017460180600000
B1924063646775N11907399WA017460180700000
B1924073646777N11907392WA017470180800000
B1924083646780N11907387WA017480181200000
B1924093646795N11907384WA017500181300000
B1924103646792N11907398WA017530181900000
B1924113646788N11907405WA017550182400000
B1924123646783N11907409WA017580182700000
B1924133646778N11907412WA017600183000000
B1924143646773N11907407WA017630183400000
B1924153646771N11907400WA017670183500000
B1924163646773N11907392WA017670183500000
B1924173646777N11907386WA017670183700000
B1924183646784N11907381WA017690183700000
B1924193646791N11907382WA017720184000000
B1924203646794N11907387WA017740184300000
B1924213646796N11907394WA017760184600000
B1924223646793N11907401WA017780184800000
B1924233646790N11907406WA017800185000000
F192424
B1924243646785N11907410WA017810185200000
B1924253646781N11907411WA017840185300000
B1924263646777N11907401WA017860185400000
B1924273646775N11907396WA017860185400000
B1924283646778N11907387WA017880185800000
B1924293646781N11907382WA017890185900000
B1924303646785N11907377WA017900186100000
B1924313646791N11907377WA017900186100000
B1924323646797N11907382WA017900186100000
B1924333646794N11907393WA017900186300000
B1924343646791N11907399WA017900186100000
B1924353646784N11907402WA017890186200000
B1924363646777N11907404WA017890186200000
B1924373646773N11907393WA017900186300000
B1924383646771N11907386WA017920186500000
B1924393646770N11907379WA017940186600000
B1924403646770N11907374WA017970186700000
B1924413646771N11907369WA018000186900000
B1924423646771N11907363WA018000186900000
B1924433646770N11907357WA018000186900000
B1924443646770N11907349WA018000186900000
B1924453646769N11907340WA018000187000000
B1924463646767N11907333WA018010187100000
B1924473646766N11907325WA018040187300000
B1924483646764N11907319WA018070187500000
B1924493646762N11907314WA018120187800000
B1924503646759N11907308WA018150188100000
B1924513646758N11907304WA018190188500000
B1924523646757N11907298WA018210188700000
B1924533646757N11907291WA018220188800000
B1924543646758N11907282WA018230188900000
B1924553646759N11907274WA018240189000000
F192456
B1924563646761N11907265WA018270189100000
B1924573646762N11907258WA018310189200000
B1924583646762N11907250WA018350189700000
B1924593646763N11907243WA018390190200000
B1925003646763N11907235WA018430190800000
B1925013646764N11907228WA018480191300000
B1925023646766N11907222WA018520191800000
B1925033646770N11907216WA018560192200000
B1925043646776N11907213WA018590192600000
B1925053646781N11907213WA018630193200000
B1925063646787N11907214WA018670193800000
B1925073646791N11907216WA018710194000000
B1925083646794N11907221WA018740194200000
B1925093646789N11907227WA018770194700000
B1925103646785N11907232WA018800195000000
B1925113646780N11907236WA018810195100000
B1925123646775N11907237WA018830195300000
B1925133646768N11907237WA018840196000000
B1925143646763N11907238WA018890196600000
B1925153646758N11907238WA018930196900000
B1925163646754N11907235WA018950197000000
B1925173646750N11907230WA018960197000000
B1925183646748N11907223WA018960197000000
B1925193646746N11907215WA018970197200000
B1925203646746N11907208WA018980197200000
B1925213646748N11907201WA019000197400000
B1925223646750N11907195WA019010197500000
B1925233646752N11907189WA019020197600000
B1925243646754N11907182WA019020197500000
B1925253646757N11907176WA019030197600000
B1925263646761N11907170WA019040197600000
B1925273646767N11907166WA019070198100000
B1925283646770N11907163WA019110198700000
B1925293646774N11907161WA019160199200000
F192530
B1925303646777N11907160WA019200199700000
B1925313646781N11907160WA019230199900000
B1925323646784N11907161WA019250200100000
B1925333646786N11907164WA019270200500000
B1925343646788N11907168WA019280200600000
B1925353646788N11907172WA019310201000000
B1925363646787N11907177WA019340201400000
B1925373646786N11907181WA019370201800000
B1925383646784N11907184WA019410202100000
B1925393646781N11907188WA019440202300000
B1925403646775N11907190WA019450202500000
B1925413646769N11907190WA019470202500000
B1925423646763N11907189WA019480202600000
B1925433646756N11907186WA019490202600000
B1925443646756N11907174WA019520202500000
B1925453646754N11907166WA019550202500000
B1925463646754N11907159WA019580202500000
B1925473646754N11907153WA019600202600000
B1925483646755N11907147WA019610202600000
B1925493646759N11907142WA019610202800000
B1925503646765N11907138WA019620203100000
B1925513646771N11907137WA019630203200000
B1925523646777N11907136WA019650203400000
B1925533646779N11907137WA019670203700000
B1925543646780N11907139WA019690204100000
B1925553646781N11907143WA019720204500000
B1925563646779N11907147WA019730204700000
B1925573646776N11907151WA019760205100000
B1925583646773N11907155WA019780205300000
B1925593646768N11907157WA019800205500000
B1926003646762N11907158WA019820205700000
B1926013646757N11907154WA019830205800000
B1926023646753N11907147WA019840205900000
B1926033646751N11907139WA019850206100000
B1926043646753N11907130WA019850206200000
B1926053646755N11907123WA019860206200000
B1926063646759N11907117WA019880206200000
B1926073646765N11907114WA019890206400000
B1926083646770N11907118WA019910206800000
B1926093646775N11907120WA019920207000000
B1926103646776N11907124WA019940207100000
B1926113646775N11907128WA019940207100000
B1926123646773N11907133WA019950207200000
B1926133646771N11907138WA019960207400000
B1926143646768N11907143WA019970207700000
B1926153646763N11907145WA020000207900000
B1926163646757N11907146WA020000208000000
B1926173646750N11907143WA019990207900000
B1926183646744N11907136WA019990208100000
B1926193646742N11907128WA019990208200000
B1926203646742N11907119WA020000208300000
B1926213646743N11907112WA020010208200000
F192622
B1926223646746N11907107WA020010208200000
B1926233646751N11907104WA020020208400000
B1926243646757N11907102WA020030208500000
B1926253646761N11907101WA020050208500000
B1926263646764N11907103WA020050208600000
B1926273646766N11907107WA020050208500000
B1926283646767N11907112WA020050208400000
B1926293646765N11907118WA020040208400000
B1926303646761N11907122WA020030208400000
B1926313646755N11907126WA020020208300000
B1926323646750N11907126WA020020208400000
B1926333646743N11907127WA020030208500000
B1926343646739N11907124WA020030208400000
B1926353646735N11907112WA020020208400000
B1926363646732N11907104WA020020208400000
B1926373646735N11907094WA020020208700000
B1926383646737N11907087WA020020208800000
B1926393646741N11907081WA020030208800000
B1926403646746N11907078WA020040209000000
B1926413646751N11907074WA020050209100000
B1926423646755N11907073WA020060209300000
B1926433646757N11907075WA020060209200000
B1926443646760N11907077WA020050209000000
B1926453646763N11907079WA020030208700000
B1926463646767N11907080WA020010208400000
B1926473646772N11907082WA019990208300000
B1926483646777N11907083WA019980208300000
B1926493646781N11907085WA019990208600000
B1926503646785N11907086WA020010208600000
B1926513646788N11907088WA020020208700000
B1926523646791N11907091WA020020208700000
B1926533646794N11907095WA020030208800000
B1926543646797N11907098WA020030208800000
F192655
B1926553646800N11907101WA020050209000000
B1926563646802N11907104WA020070209100000
B1926573646803N11907106WA020090209400000
B1926583646805N11907108WA020110209700000
B1926593646807N11907110WA020130209800000
B1927003646808N11907114WA020150210000000
B1927013646809N11907118WA020160210000000
B1927023646808N11907123WA020180210200000
B1927033646807N11907128WA020190210500000
B1927043646803N11907131WA020200210600000
B1927053646798N11907134WA020210210700000
B1927063646791N11907133WA020220210700000
B1927073646785N11907130WA020220210700000
B1927083646779N11907124WA020220210800000
B1927093646777N11907115WA020230210900000
B1927103646777N11907107WA020230210900000
B1927113646779N11907100WA020240210900000
B1927123646782N11907094WA020240211000000
B1927133646785N11907091WA020240211000000
B1927143646788N11907089WA020250211100000
B1927153646792N11907090WA020260211100000
B1927163646795N11907091WA020270211100000
B1927173646798N11907095WA020270211300000
B1927183646800N11907100WA020280211400000
B1927193646800N11907106WA020300211600000
B1927203646796N11907110WA020310211700000
B1927213646793N11907114WA020340212000000
B1927223646791N11907118WA020360212200000
B1927233646791N11907120WA020370212100000
B1927243646792N11907123WA020360211900000
B1927253646794N11907125WA020340211800000
B1927263646797N11907128WA020300211600000
B1927273646801N11907129WA020270211400000
B1927283646806N11907127WA020250211300000
B1927293646810N11907124WA020230211200000
B1927303646813N11907119WA020210211100000
B1927313646817N11907115WA020190211000000
B1927323646822N11907110WA020170211000000
B1927333646825N11907108WA020140210700000
B1927343646831N11907109WA020120210300000
B1927353646837N11907109WA020100210200000
B1927363646842N11907109WA020090210200000
B1927373646847N11907110WA020090210100000
B1927383646853N11907110WA020090210000000
F192739
B1927393646857N11907111WA020080209900000
B1927403646863N11907111WA020070209800000
B1927413646868N11907113WA020060209600000
B1927423646874N11907116WA020050209500000
B1927433646879N11907116WA020050209400000
B1927483646902N11907125WA020020208800000
B1927533646933N11907141WA019960208500000
B1927583646961N11907154WA019910207900000
B1928033646996N11907157WA019860207700000
B1928083647029N11907152WA019800206900000
B1928133647063N11907144WA019660205500000
B1928183647094N11907140WA019580204400000
B1928233647128N11907139WA019490203800000
B1928283647161N11907135WA019410202300000
B1928333647191N11907142WA019300201200000
B1928383647223N11907145WA019180200000000
B1928433647256N11907151WA019070199200000
F192848
B1928483647289N11907158WA019040198700000
B1928533647321N11907161WA019010198300000
B1928583647355N11907159WA018920197900000
B1929033647389N11907152WA018970197700000
B1929083647422N11907153WA018870197000000
B1929133647450N11907146WA018860196700000
F192918
B1929183647463N11907111WA018790196100000
B1929233647468N11907076WA018800196100000
B1929283647484N11907045WA018750195700000
B1929333647507N11907049WA018800196300000
B1929383647527N11907060WA018800196400000
B1929433647543N11907074WA018780196100000
B1929483647539N11907098WA018630194500000
B1929533647521N11907124WA018520193300000
B1929583647506N11907153WA018430192700000
B1930033647488N11907177WA018430192600000
B1930083647475N11907199WA018440192700000
B1930133647458N11907221WA018430192700000
B1930183647445N11907235WA018500193200000
B1930233647434N11907244WA018620194400000
B1930283647437N11907257WA018650194500000
B1930333647457N11907235WA018710195200000
B1930383647443N11907203WA018780195800000
B1930423647434N11907208WA018780195800000
B1930433647435N11907212WA018770195800000
B1930443647437N11907215WA018770195800000
B1930453647439N11907218WA018770195800000
B1930463647441N11907221WA018780195900000
B1930473647442N11907224WA018790195900000
B1930483647444N11907227WA018800196000000
B1930493647445N11907230WA018820196000000
B1930503647445N11907234WA018820196000000
B1930513647446N11907237WA018830196200000
B1930523647446N11907241WA018840196300000
B1930533647446N11907245WA018850196400000
B1930543647445N11907249WA018860196600000
F193055
B1930553647445N11907253WA018880196700000
B1930563647445N11907257WA018880196700000
B1930573647443N11907261WA018900196900000
B1930583647442N11907266WA018900196900000
B1930593647441N11907270WA018920197100000
B1931003647440N11907274WA018940197300000
B1931013647439N11907279WA018950197500000
B1931063647435N11907297WA019050198500000
B1931113647434N11907320WA019070198700000
B1931163647432N11907346WA019050198900000
B1931213647429N11907377WA018970198100000
B1931263647425N11907411WA018970197800000
B1931313647419N11907448WA018980197800000
B1931363647421N11907480WA018990197800000
B1931413647417N11907519WA019040198800000
B1931463647417N11907544WA019150199300000
B1931513647417N11907565WA019160199400000
F193156
B1931563647413N11907582WA019250200700000
B1932013647403N11907601WA019410202200000
B1932063647394N11907618WA019480202800000
B1932113647377N11907634WA019570204200000
B1932163647357N11907635WA019810206300000
B1932183647348N11907627WA019840206600000
B1932193647345N11907620WA019840206700000
B1932203647343N11907611WA019840206900000
B1932213647343N11907603WA019840207000000
B1932223647344N11907595WA019840207000000
B1932273647357N11907569WA019960208200000
B1932313647366N11907574WA020030208700000
B1932323647365N11907577WA020050208800000
B1932333647363N11907581WA020070209000000
F193234
B1932343647357N11907584WA020100209200000
B1932353647349N11907582WA020120209500000
B1932363647342N11907576WA020170209900000
B1932373647336N11907571WA020210210100000
B1932383647336N11907562WA020250210400000
B1932393647334N11907555WA020260210500000
B1932403647332N11907549WA020280210700000
B1932413647330N11907543WA020280210700000
B1932423647330N11907535WA020280210700000
B1932433647332N11907527WA020280210800000
B1932443647334N11907520WA020290210900000
B1932453647338N11907514WA020310210900000
B1932463647342N11907512WA020340211400000
B1932473647345N11907511WA020360211600000
B1932483647348N11907513WA020380211800000
B1932493647351N11907515WA020400212000000
B1932503647353N11907518WA020430212200000
B1932513647354N11907521WA020440212200000
B1932523647352N11907525WA020460212300000
B1932533647350N11907528WA020470212500000
B1932543647347N11907532WA020490212800000
B1932553647343N11907534WA020510213000000
B1932563647337N11907535WA020520213100000
B1932573647330N11907532WA020530213200000
B1932583647324N11907527WA020530213400000
B1932593647324N11907515WA020530213600000
B1933003647326N11907506WA020530213700000
B1933013647328N11907499WA020540213700000
B1933023647333N11907492WA020560213900000
B1933033647335N11907490WA020590214000000
B1933043647338N11907492WA020610214300000
F193305
B1933053647341N11907493WA020620214400000
B1933063647342N11907499WA020630214700000
B1933073647342N11907502WA020640214600000
B1933083647341N11907506WA020640214600000
B1933093647339N11907510WA020630214500000
B1933103647337N11907515WA020610214400000
B1933113647333N11907518WA020600214600000
B1933123647329N11907519WA020600214500000
B1933133647323N11907520WA020610214600000
B1933143647320N11907509WA020630214600000
B1933153647318N11907502WA020650214700000
B1933163647320N11907494WA020660214900000
B1933173647325N11907486WA020650214700000
B1933183647328N11907481WA020650214700000
B1933193647333N11907478WA020650214700000
B1933203647338N11907475WA020640214900000
B1933213647345N11907473WA020650214900000
B1933223647351N11907469WA020680215000000
B1933233647354N11907468WA020710215600000
B1933243647355N11907469WA020760216000000
B1933253647356N11907471WA020780216000000
B1933263647356N11907474WA020790216000000
B1933273647355N11907478WA020790216100000
B1933283647354N11907483WA020810216200000
B1933293647350N11907485WA020830216700000
B1933303647347N11907487WA020860217000000
B1933313647344N11907488WA020890217100000
B1933323647343N11907491WA020910217300000
B1933333647341N11907495WA020930217400000
B1933343647339N11907498WA020930217400000
B1933353647335N11907500WA020920217600000
B1933363647330N11907496WA020890217100000
B1933373647325N11907490WA020840216600000
B1933383647323N11907480WA020800216700000
B1933393647321N11907471WA020790216800000
B1933403647321N11907462WA020800216800000
F193341
B1933413647322N11907456WA020840217100000
B1933423647324N11907451WA020870217300000
B1933433647325N11907446WA020900217400000
B1933443647327N11907441WA020910217500000
B1933453647330N11907434WA020910217400000
B1933463647333N11907427WA020890217300000
B1933473647337N11907419WA020890217500000
B1933483647341N11907413WA020890217500000
B1933493647346N11907411WA020910217500000
B1933503647350N11907410WA020930217600000
B1933513647353N11907410WA020950217700000
B1933523647354N11907415WA020960217800000
B1933533647353N11907419WA020970218100000
B1933543647352N11907423WA020980218200000
B1933553647351N11907426WA020980218300000
B1933563647350N11907429WA020990218300000
B1933573647349N11907432WA020990218400000
B1933583647348N11907437WA020980218400000
B1933593647347N11907440WA020980218400000
B1934003647347N11907444WA020990218600000
B1934013647346N11907448WA021010218700000
B1934023647345N11907451WA021020218800000
B1934033647344N11907454WA021040218900000
B1934043647343N11907457WA021050218900000
B1934053647342N11907460WA021060219000000
B1934063647340N11907463WA021070219100000
B1934073647338N11907466WA021090219300000
B1934083647336N11907469WA021100219300000
B1934093647334N11907471WA021110219300000
B1934103647331N11907474WA021120219400000
B1934113647327N11907475WA021110219100000
B1934123647323N11907474WA021060219000000
B1934133647321N11907466WA021000218300000
B1934143647321N11907453WA020930217800000
B1934153647322N11907442WA020900217300000
B1934163647328N11907433WA020910218600000
B1934173647331N11907428WA020980219200000
B1934183647335N11907424WA021030219500000
B1934193647337N11907421WA021070219600000
B1934203647340N11907419WA021090219600000
B1934213647344N11907419WA021090219600000
B1934223647348N11907419WA021080219600000
B1934233647351N11907422WA021070219600000
B1934243647353N11907425WA021080219800000
F193425
B1934253647356N11907427WA021080219800000
B1934263647357N11907429WA021090219800000
B1934273647358N11907430WA021100219800000
B1934283647360N11907431WA021110219800000
B1934293647361N11907431WA021110219600000
B1934303647363N11907433WA021100219500000
B1934313647362N11907436WA021080219400000
B1934323647360N11907438WA021060219400000
B1934333647359N11907441WA021050219300000
B1934343647358N11907444WA021050219400000
B1934353647355N11907447WA021070219500000
B1934363647351N11907447WA021080219500000
B1934373647346N11907447WA021090219500000
B1934383647340N11907444WA021090219400000
B1934393647335N11907439WA021080219300000
B1934403647329N11907433WA021070219400000
B1934413647325N11907426WA021070219400000
B1934423647323N11907419WA021070219400000
B1934433647323N11907412WA021060219200000
B1934443647325N11907405WA021040219000000
B1934453647329N11907399WA021010219000000
B1934463647334N11907394WA020990218800000
B1934473647338N11907391WA020980218900000
B1934483647341N11907388WA020970218800000
B1934493647345N11907385WA020950218800000
B1934503647350N11907386WA020940218800000
B1934513647354N11907385WA020930218700000
B1934523647358N11907386WA020920218800000
B1934533647362N11907387WA020930218800000
B1934543647364N11907389WA020930218900000
B1934553647365N11907392WA020930218700000
B1934563647366N11907395WA020930218600000
B1934573647367N11907399WA020930218500000
B1934583647367N11907403WA020940218600000
B1934593647367N11907404WA020950218500000
B1935003647368N11907405WA020940218300000
B1935013647368N11907408WA020940218200000
B1935023647369N11907411WA020920218000000
B1935033647369N11907416WA020900218000000
B1935043647369N11907421WA020880217800000
B1935053647369N11907427WA020880217700000
B1935063647368N11907432WA020870217600000
B1935073647367N11907439WA020870217600000
B1935083647366N11907445WA020880217700000
B1935093647364N11907448WA020910217800000
B1935103647363N11907449WA020940218100000
B1935113647362N11907450WA020950218000000
B1935123647361N11907451WA020940217800000
F193513
B1935133647360N11907454WA020910217700000
B1935143647358N11907459WA020880217500000
B1935153647357N11907464WA020850217500000
B1935163647360N11907470WA020850217500000
B1935173647361N11907474WA020880218000000
B1935183647361N11907476WA020920218300000
B1935193647361N11907478WA020950218300000
B1935203647360N11907481WA020980218400000
B1935213647360N11907484WA021000218500000
B1935223647361N11907487WA021000218600000
B1935233647361N11907489WA021010218800000
B1935243647362N11907491WA021020218900000
B1935253647362N11907492WA021030219000000
B1935263647363N11907492WA021040219000000
B1935273647363N11907493WA021040219000000
B1935283647363N11907495WA021050219000000
B1935293647362N11907497WA021050219100000
B1935303647362N11907499WA021060219200000
B1935313647361N11907501WA021070219300000
B1935323647361N11907503WA021090219400000
B1935333647361N11907505WA021100219400000
B1935383647363N11907517WA021180220000000
F193543
B1935433647364N11907531WA021060219000000
B1935483647378N11907552WA021020218700000
B1935533647381N11907570WA021050219000000
B1935583647380N11907586WA021100219300000
B1936033647383N11907608WA021080219100000
B1936083647390N11907628WA021090219500000
B1936133647392N11907645WA021170220300000
B1936183647395N11907660WA021170220000000
B1936233647402N11907685WA021160220500000
B1936283647404N11907708WA021170220300000
B1936333647387N11907721WA021130220300000
B1936383647366N11907696WA021110220100000
B1936433647379N11907668WA021050219700000
F193645
B1936453647388N11907667WA021060219700000
B1936463647391N11907668WA021080219900000
B1936473647393N11907670WA021100219800000
B1936483647397N11907673WA021100219800000
B1936493647400N11907676WA021100219800000
B1936503647402N11907680WA021100219700000
B1936513647404N11907683WA021090219700000
B1936523647406N11907686WA021080219600000
B1936533647406N11907690WA021070219400000
B1936543647405N11907695WA021040219200000
B1936553647400N11907699WA021020218900000
B1936563647395N11907699WA021000218700000
B1936573647389N11907697WA020980218700000
B1936583647384N11907693WA020980218700000
B1936593647380N11907688WA021000219000000
B1937003647376N11907684WA021020219200000
B1937013647374N11907679WA021040219300000
B1937023647371N11907673WA021060219300000
B1937033647369N11907666WA021080219500000
B1937043647366N11907660WA021090219600000
B1937053647364N11907653WA021100219800000
B1937063647363N11907646WA021100219900000
B1937073647364N11907640WA021110219900000
B1937083647367N11907634WA021100219800000
B1937093647371N11907628WA021100219700000
B1937103647375N11907624WA021090219700000
B1937113647380N11907624WA021080219800000
B1937123647383N11907625WA021080219800000
B1937133647385N11907628WA021090219800000
B1937143647386N11907631WA021090219700000
B1937153647387N11907635WA021080219700000
B1937163647388N11907640WA021080219700000
B1937173647385N11907644WA021070219500000
B1937183647383N11907649WA021050219400000
B1937193647379N11907654WA021040219400000
B1937203647371N11907656WA021020219100000
B1937213647365N11907655WA021010219100000
B1937223647358N11907654WA021030219300000
F193723
B1937233647353N11907653WA021050219600000
B1937243647348N11907652WA021080219800000
B1937253647344N11907651WA021100219800000
B1937263647340N11907648WA021110219900000
B1937273647335N11907642WA021110219900000
B1937283647334N11907635WA021100219900000
B1937293647334N11907628WA021090220000000
B1937303647335N11907623WA021090220000000
B1937313647336N11907618WA021090220000000
B1937323647339N11907615WA021090220000000
B1937333647342N11907612WA021080219900000
B1937343647345N11907610WA021080219800000
B1937353647349N11907607WA021080219800000
B1937363647352N11907605WA021080219700000
B1937373647355N11907603WA021090219600000
B1937383647358N11907604WA021100219800000
B1937393647362N11907603WA021120219800000
B1937403647366N11907602WA021130219800000
B1937413647369N11907603WA021130219700000
B1937423647373N11907606WA021120219600000
B1937433647377N11907608WA021120219500000
B1937443647382N11907610WA021120219600000
B1937453647386N11907610WA021130219900000
B1937463647390N11907609WA021150220000000
B1937473647392N11907608WA021160219900000
B1937483647395N11907606WA021160220000000
B1937493647400N11907603WA021160219900000
B1937503647405N11907598WA021170220000000
B1937513647410N11907593WA021190220000000
B1937523647414N11907587WA021230220200000
B1937533647416N11907582WA021280220300000
B1937543647417N11907578WA021320220400000
B1937553647419N11907575WA021360220600000
B1937563647424N11907571WA021390221300000
B1937573647428N11907568WA021410221600000
B1937583647432N11907565WA021430221900000
B1937593647436N11907565WA021440221800000
B1938003647440N11907567WA021430221800000
B1938013647444N11907573WA021440222200000
B1938023647447N11907578WA021450222400000
B1938033647445N11907584WA021450222300000
B1938043647440N11907588WA021450222300000
F193805
B1938053647434N11907588WA021440222500000
B1938063647428N11907584WA021440222700000
B1938073647427N11907575WA021450222800000
B1938083647428N11907567WA021460223100000
B1938093647431N11907561WA021490223100000
B1938103647434N11907558WA021520223200000
B1938113647437N11907556WA021540223400000
B1938123647442N11907554WA021550223400000
B1938133647447N11907551WA021560223600000
B1938143647452N11907549WA021560223700000
B1938153647456N11907552WA021570224000000
B1938163647460N11907557WA021570224100000
B1938173647463N11907561WA021570224000000
B1938183647460N11907568WA021550223900000
B1938193647457N11907574WA021510223800000
B1938203647450N11907567WA021480223400000
B1938213647444N11907565WA021450223300000
B1938223647442N11907556WA021450223500000
B1938233647440N11907550WA021450223500000
B1938243647439N11907544WA021460223500000
B1938253647437N11907539WA021470223500000
B1938263647436N11907534WA021470223600000
B1938273647435N11907528WA021480223800000
B1938283647433N11907522WA021490223900000
B1938293647431N11907515WA021500223900000
B1938303647430N11907509WA021510224100000
B1938313647430N11907502WA021530224300000
B1938323647431N11907495WA021540224300000
B1938333647433N11907487WA021560224400000
B1938343647436N11907480WA021570224600000
B1938353647441N11907475WA021590224800000
B1938363647446N11907471WA021600224800000
B1938373647451N11907472WA021610224900000
B1938383647455N11907475WA021610224900000
B1938393647459N11907478WA021620224900000
B1938403647462N11907482WA021630224900000
B1938413647460N11907488WA021630224900000
B1938423647457N11907493WA021620224800000
B1938433647451N11907497WA021610224800000
B1938443647446N11907499WA021620224800000
B1938453647441N11907500WA021650224900000
B1938463647436N11907495WA021670224900000
B1938473647435N11907485WA021690224900000
B1938483647436N11907477WA021700225100000
B1938493647436N11907469WA021720225100000
B1938503647439N11907460WA021730225300000
B1938513647442N11907453WA021730225300000
F193852
B1938523647446N11907448WA021730225300000
B1938533647451N11907442WA021730225600000
B1938543647458N11907447WA021730225800000
B1938553647461N11907451WA021740226000000
B1938563647461N11907456WA021750226200000
B1938573647459N11907461WA021760226300000
B1938583647455N11907464WA021770226200000
B1938593647450N11907464WA021760225900000
B1939003647445N11907461WA021730225600000
B1939013647440N11907455WA021710225400000
B1939023647437N11907448WA021700225600000
B1939033647436N11907442WA021700225800000
B1939043647435N11907436WA021720225900000
B1939053647435N11907429WA021730225900000
B1939063647436N11907422WA021720225800000
B1939073647437N11907413WA021720225800000
B1939083647438N11907404WA021720225800000
B1939093647441N11907396WA021720225900000
B1939103647445N11907389WA021730225900000
B1939113647450N11907383WA021720225900000
B1939123647456N11907379WA021700225900000
B1939133647458N11907392WA021670225500000
B1939143647460N11907395WA021630225400000
B1939153647460N11907400WA021610225300000
B1939163647456N11907407WA021620225300000
B1939173647450N11907407WA021660225400000
B1939183647447N11907407WA021690225600000
B1939193647446N11907409WA021710225600000
B1939203647445N11907412WA021710225500000
B1939213647442N11907415WA021690225400000
B1939223647438N11907418WA021660225300000
B1939233647434N11907421WA021640225300000
B1939243647433N11907425WA021620225000000
B1939253647431N11907428WA021590224700000
B1939263647430N11907431WA021560224200000
B1939273647430N11907436WA021510223700000
B1939283647430N11907442WA021470223200000
B1939293647430N11907448WA021420222800000
F193930
B1939303647431N11907457WA021400222800000
B1939313647431N11907462WA021390222600000
B1939323647431N11907468WA021380222500000
B1939333647432N11907473WA021370222400000
B1939343647433N11907479WA021360222200000
B1939393647439N11907508WA021300221800000
B1939443647450N11907537WA021310222100000
B1939493647454N11907551WA021410222700000
B1939543647461N11907568WA021400222700000
B1939593647455N11907590WA021390222600000
F194004
B1940043647433N11907579WA021480223300000
B1940093647448N11907553WA021530224100000
B1940143647470N11907552WA021500223600000
B1940153647474N11907556WA021490223500000
B1940163647476N11907562WA021480223500000
B1940173647477N11907567WA021480223500000
B1940183647477N11907571WA021470223400000
B1940193647474N11907575WA021460223200000
B1940203647470N11907579WA021440223100000
B1940213647463N11907579WA021440223000000
B1940223647459N11907577WA021430223000000
B1940233647455N11907574WA021420223100000
B1940243647451N11907568WA021410223000000
B1940253647450N11907561WA021410223000000
B1940263647449N11907554WA021400223000000
B1940273647449N11907547WA021410223200000
B1940283647449N11907541WA021420223400000
B1940293647449N11907535WA021450223600000
B1940303647450N11907529WA021470223800000
B1940313647451N11907524WA021490223800000
B1940323647451N11907518WA021490223800000
B1940333647453N11907511WA021500223900000
B1940343647457N11907505WA021500224000000
F194035
B1940353647462N11907500WA021510224100000
B1940363647468N11907497WA021530224200000
B1940373647475N11907497WA021540224200000
B1940383647481N11907499WA021550224300000
B1940393647480N11907510WA021560224500000
B1940403647480N11907516WA021570224500000
B1940413647479N11907522WA021570224600000
B1940423647471N11907517WA021570224600000
B1940433647465N11907515WA021570224700000
B1940443647462N11907510WA021580224900000
B1940453647458N11907505WA021590224900000
B1940463647455N11907499WA021600225000000
B1940473647453N11907494WA021610225000000
B1940483647452N11907487WA021620225100000
B1940493647451N11907480WA021640225400000
B1940503647451N11907474WA021680225700000
B1940513647452N11907468WA021710226100000
B1940523647454N11907462WA021740226300000
B1940533647456N11907456WA021770226500000
B1940543647460N11907451WA021780226500000
B1940553647466N11907448WA021790226700000
B1940563647473N11907446WA021800226900000
B1940573647478N11907446WA021820227000000
B1940583647483N11907451WA021840227100000
B1940593647486N11907456WA021850227300000
B1941003647483N11907463WA021860227300000
B1941013647479N11907467WA021860227400000
B1941023647475N11907469WA021850227500000
B1941033647469N11907466WA021840227200000
B1941043647464N11907463WA021830227300000
B1941053647459N11907457WA021840227500000
B1941063647455N11907452WA021850227600000
B1941073647451N11907447WA021870227700000
F194108
B1941083647447N11907442WA021910227700000
B1941093647444N11907436WA021940228200000
B1941103647441N11907432WA021980228500000
B1941113647440N11907426WA022010228600000
B1941123647440N11907420WA022010228500000
B1941133647442N11907412WA022000228300000
B1941143647445N11907405WA021970228100000
B1941153647452N11907399WA021960228300000
B1941163647459N11907395WA021950228300000
B1941173647464N11907399WA021950228300000
B1941183647468N11907403WA021940228300000
B1941193647467N11907410WA021920228300000
B1941213647466N11907419WA021940228400000
B1941223647462N11907424WA021970228500000
B1941233647459N11907425WA022010228600000
B1941243647456N11907424WA022030228700000
B1941253647451N11907424WA022040228700000
B1941263647447N11907422WA022040228600000
B1941273647441N11907420WA022040228700000
B1941283647437N11907414WA022040228800000
B1941293647435N11907407WA022050228900000
B1941303647435N11907399WA022070229200000
B1941313647436N11907392WA022080229400000
B1941323647437N11907386WA022110229500000
B1941333647443N11907382WA022130229900000
B1941343647448N11907380WA022150230000000
B1941353647452N11907381WA022160230000000
B1941363647456N11907384WA022170230200000
B1941373647458N11907388WA022180230400000
B1941383647460N11907393WA022190230400000
B1941393647460N11907397WA022200230400000
B1941403647457N11907402WA022200230200000
B1941413647451N11907405WA022180230100000
B1941423647446N11907407WA022150230100000
B1941433647440N11907403WA022100230000000
B1941443647435N11907391WA022090230300000
B1941453647430N11907383WA022090230400000
B1941463647426N11907377WA022110230600000
B1941473647422N11907370WA022130230600000
B1941483647420N11907363WA022150230700000
B1941493647419N11907355WA022170230800000
F194150
B1941503647418N11907347WA022190230900000
B1941513647417N11907339WA022200230900000
B1941523647419N11907330WA022200230800000
B1941533647421N11907322WA022200230800000
B1941543647426N11907315WA022220230900000
B1941553647431N11907314WA022240231100000
B1941563647435N11907313WA022250231300000
B1941573647438N11907312WA022260231300000
B1941583647443N11907312WA022260231200000
B1941593647447N11907312WA022250231200000
B1942003647452N11907312WA022250231300000
B1942013647457N11907314WA022260231200000
B1942023647460N11907318WA022270231300000
B1942033647462N11907322WA022280231300000
B1942043647459N11907327WA022280231200000
B1942053647456N11907330WA022280231300000
B1942063647451N11907330WA022290231300000
B1942073647445N11907328WA022290231500000
B1942083647441N11907323WA022310231700000
B1942093647437N11907315WA022320231700000
B1942103647435N11907305WA022330231700000
B1942113647435N11907296WA022330231800000
B1942123647440N11907287WA022340231900000
B1942133647446N11907282WA022360232000000
B1942143647451N11907276WA022360232000000
B1942153647453N11907275WA022360231900000
B1942163647459N11907280WA022350231900000
B1942173647459N11907288WA022350232000000
B1942183647454N11907294WA022360232200000
B1942193647451N11907299WA022370232300000
B1942203647446N11907300WA022390232500000
B1942213647443N11907303WA022400232600000
B1942223647441N11907305WA022410232500000
B1942233647438N11907307WA022400232500000
B1942243647435N11907309WA022390232300000
B1942253647432N11907311WA022360232200000
B1942263647428N11907314WA022320232200000
B1942273647424N11907319WA022270231600000
B1942283647420N11907324WA022230231200000
B1942293647416N11907330WA022210231200000
B1942303647413N11907336WA022200231100000
B1942313647410N11907341WA022180231000000
B1942323647407N11907347WA022160230900000
B1942333647404N11907353WA022140230800000
B1942343647402N11907359WA022110230800000
B1942353647400N11907366WA022090230600000
B1942363647398N11907373WA022080230500000
B1942373647396N11907379WA022070230300000
B1942423647388N11907410WA021990229300000
B1942473647382N11907434WA022170229800000
B1942523647380N11907445WA022170229900000
B1942573647357N11907443WA022200230300000
B1943023647358N11907398WA022220230700000
B1943073647376N11907401WA022240231000000
B1943093647382N11907410WA022240231000000
B1943103647384N11907414WA022250231200000
F194311
B1943113647385N11907416WA022270231500000
B1943123647385N11907418WA022300231600000
B1943133647384N11907420WA022310231600000
B1943143647383N11907423WA022320231700000
B1943153647376N11907424WA022320231600000
B1943163647370N11907424WA022320231700000
B1943173647364N11907420WA022320231700000
B1943183647358N11907418WA022330231900000
B1943193647356N11907402WA022350232300000
B1943203647356N11907392WA022360232500000
B1943213647356N11907383WA022380232600000
B1943223647361N11907377WA022380232700000
B1943233647365N11907372WA022380232700000
B1943243647369N11907371WA022370232600000
B1943253647373N11907370WA022360232400000
B1943263647378N11907373WA022340232300000
B1943273647376N11907380WA022350232200000
B1943283647373N11907388WA022370232200000
B1943293647370N11907391WA022400232300000
B1943303647362N11907388WA022420232500000
B1943313647356N11907387WA022430232500000
B1943323647350N11907385WA022420232500000
B1943333647343N11907383WA022400232500000
B1943343647337N11907376WA022380232200000
B1943353647333N11907367WA022370232300000
B1943363647332N11907356WA022370232500000
B1943373647333N11907347WA022380232700000
B1943383647338N11907343WA022390232700000
B1943393647343N11907342WA022390233000000
B1943403647347N11907342WA022390232900000
B1943413647349N11907343WA022390232800000
B1943423647351N11907344WA022400232900000
B1943433647352N11907345WA022400232800000
B1943443647354N11907348WA022400232900000
B1943453647353N11907351WA022400232900000
B1943463647353N11907353WA022410232900000
B1943473647354N11907355WA022420232900000
B1943483647354N11907357WA022430233100000
F194349
B1943493647354N11907358WA022440233200000
B1943503647351N11907359WA022430233100000
B1943513647349N11907361WA022420233100000
B1943523647345N11907364WA022400233100000
B1943533647341N11907365WA022380232900000
B1943543647336N11907367WA022370232900000
B1943553647331N11907367WA022360232700000
B1943563647325N11907367WA022350232500000
B1943573647320N11907365WA022330232400000
B1943583647313N11907363WA022310232100000
B1943593647308N11907359WA022300231900000
B1944003647303N11907352WA022280231600000
B1944013647298N11907344WA022250231300000
B1944023647294N11907335WA022200231200000
B1944033647294N11907327WA022150231300000
B1944043647300N11907318WA022110231100000
B1944053647311N11907327WA022100230900000
B1944063647317N11907329WA022120230900000
B1944073647320N11907330WA022140230900000
B1944093647326N11907331WA022140230600000
B1944103647327N11907335WA022110230400000
B1944113647329N11907339WA022080230200000
B1944123647331N11907341WA022060229900000
B1944133647333N11907345WA022060229800000
B1944143647336N11907349WA022060229700000
B1944153647337N11907353WA022070229800000
B1944163647337N11907356WA022080229900000
B1944173647338N11907358WA022100229900000
B1944183647338N11907360WA022110229900000
B1944193647337N11907363WA022120229900000
B1944203647336N11907366WA022110229800000
B1944213647336N11907370WA022090229600000
B1944223647336N11907374WA022070229600000
F194423
B1944233647336N11907380WA022030229500000
B1944243647334N11907385WA022010229400000
B1944253647333N11907390WA022010229400000
B1944263647330N11907395WA022020229400000
B1944273647328N11907400WA022040229700000
B1944283647327N11907403WA022060229700000
B1944293647323N11907405WA022080229800000
B1944303647320N11907407WA022090229600000
B1944313647315N11907408WA022090229800000
B1944323647309N11907410WA022100229800000
B1944333647305N11907412WA022100230100000
B1944343647302N11907414WA022120230100000
B1944353647298N11907415WA022120230100000
B1944363647294N11907417WA022120230000000
B1944373647290N11907420WA022100229800000
B1944383647285N11907422WA022080229600000
B1944393647282N11907427WA022030229500000
B1944403647278N11907433WA022010229300000
B1944413647275N11907438WA022000229200000
B1944423647271N11907442WA022000229300000
B1944433647268N11907446WA022010229300000
B1944483647255N11907469WA021940228700000
F194453
B1944533647239N11907489WA021880228500000
B1944583647222N11907505WA021830227600000
B1945033647206N11907524WA021780226900000
B1945083647189N11907543WA021710226300000
B1945133647172N11907561WA021650225800000
B1945183647153N11907579WA021590225000000
B1945233647135N11907597WA021510224300000
B1945283647121N11907615WA021440223500000
B1945333647107N11907633WA021370222700000
B1945383647093N11907655WA021250222000000
B1945433647080N11907678WA021200221000000
B1945483647066N11907701WA021130220300000
F194553
B1945533647052N11907727WA021040219600000
B1945583647038N11907750WA020950218800000
B1946033647023N11907775WA020870218000000
B1946083647012N11907802WA020810217100000
B1946133646999N11907827WA020740216300000
B1946183646986N11907854WA020670215900000
B1946233646974N11907882WA020590215000000
B1946283646963N11907911WA020520214300000
F194633
B1946333646951N11907939WA020450213400000
E194636STA
B1946363646945N11907957WA020410213000000
B1946383646939N11907968WA020380212600000
B1946433646928N11907996WA020320211900000
B1946483646916N11908025WA020250211000000
B1946533646908N11908056WA020200210500000
B1946583646901N11908088WA020130209800000
B1947033646894N11908119WA020080209200000
B1947083646885N11908150WA020020208600000
B1947133646874N11908183WA019960208000000
B1947183646865N11908215WA019890207400000
B1947233646855N11908245WA019830206600000
B1947283646846N11908278WA019750206000000
B1947333646835N11908310WA019680205300000
B1947383646827N11908342WA019640205000000
B1947433646816N11908372WA019570204200000
B1947483646805N11908401WA019490203400000
B1947533646796N11908435WA019420202700000
B1947583646785N11908466WA019360201900000
B1948033646773N11908497WA019270201300000
B1948083646763N11908530WA019210200600000
B1948133646754N11908563WA019140199700000
B1948183646745N11908595WA019080199300000
B1948233646735N11908627WA019030198600000
B1948283646725N11908658WA018970197900000
B1948333646713N11908690WA018900197000000
B1948383646701N11908722WA018840196200000
B1948433646690N11908755WA018800195800000
B1948483646681N11908790WA018720195400000
B1948533646672N11908827WA018660195300000
B1948583646659N11908860WA018600194600000
B1949033646646N11908894WA018530193700000
B1949083646634N11908928WA018460193000000
F194913
B1949133646618N11908961WA018390192400000
B1949183646604N11908995WA018320191600000
B1949233646591N11909028WA018230190800000
B1949283646578N11909062WA018150190300000
B1949333646568N11909096WA018090189000000
B1949383646563N11909131WA018030188300000
B1949433646557N11909165WA017960187400000
F194948
B1949483646555N11909201WA017890186300000
B1949533646549N11909235WA017830185900000
B1949583646543N11909266WA017770185500000
B1950033646537N11909300WA017700185300000
B1950083646533N11909333WA017650185100000
B1950133646527N11909365WA017580184000000
B1950183646525N11909401WA017520183100000
B1950233646520N11909436WA017410182300000
B1950283646523N11909477WA017240181400000
B1950333646526N11909518WA017090180300000
B1950383646517N11909557WA016950178800000
F195043
B1950433646513N11909597WA016820177300000
B1950483646510N11909639WA016650175200000
B1950533646504N11909675WA016530173800000
B1950583646496N11909717WA016350172300000
B1951033646482N11909742WA016440172200000
B1951083646471N11909757WA016450172200000
B1951133646462N11909775WA016490172300000
B1951183646463N11909794WA016510172000000
B1951233646461N11909817WA016540172200000
F195128
B1951283646452N11909844WA016610172700000
B1951333646449N11909872WA016610172700000
B1951383646442N11909899WA016630172700000
B1951433646435N11909924WA016630172600000
B1951483646434N11909955WA016580172600000
B1951533646435N11909983WA016580172300000
B1951583646437N11910021WA016580172900000
B1952033646438N11910051WA016540172500000
F195208
B1952083646437N11910085WA016560172800000
B1952133646435N11910120WA016570172600000
B1952183646431N11910153WA016570172500000
B1952233646426N11910186WA016560172400000
B1952283646419N11910220WA016590172700000
B1952333646410N11910257WA016630172700000
B1952383646406N11910282WA016710172900000
B1952433646406N11910320WA016680173000000
B1952483646406N11910351WA016780173800000
B1952533646406N11910382WA016620173100000
B1952583646408N11910421WA016530172600000
B1953033646412N11910468WA016390170700000
B1953083646414N11910504WA016330169900000
F195313
B1953133646407N11910545WA016130168400000
B1953183646401N11910585WA015990166600000
B1953233646395N11910629WA015990166600000
B1953283646392N11910668WA015920166000000
B1953333646389N11910702WA015870165500000
B1953383646392N11910746WA015760164600000
B1953433646391N11910790WA015710164000000
B1953483646388N11910833WA015630163700000
F195353
B1953533646383N11910873WA015610163200000
B1953583646378N11910913WA015510162300000
B1954033646374N11910952WA015480162000000
B1954083646368N11910995WA015390161100000
B1954133646356N11911034WA015330160100000
B1954183646345N11911073WA015270159600000
B1954233646335N11911109WA015230159100000
B1954283646326N11911147WA015160158400000
B1954333646316N11911182WA015080157500000
B1954383646300N11911221WA015000156800000
B1954433646285N11911256WA014970156400000
B1954483646270N11911292WA014950156500000
B1954533646257N11911322WA014930156300000
B1954583646245N11911353WA014910155900000
B1955033646234N11911384WA014840155100000
F195508
B1955083646223N11911414WA014700153700000
B1955133646211N11911445WA014610152800000
B1955183646200N11911474WA014560152200000
B1955233646192N11911505WA014480151200000
B1955283646184N11911537WA014430150700000
B1955333646174N11911570WA014390150400000
B1955383646164N11911602WA014300149400000
B1955433646154N11911633WA014210148400000
B1955483646141N11911669WA014040146800000
B1955533646128N11911706WA013910145500000
B1955583646113N11911743WA013740143700000
B1956033646098N11911767WA013690143100000
B1956083646083N11911798WA013590141900000
B1956133646071N11911829WA013470140700000
F195618
B1956183646059N11911862WA013300139000000
B1956233646059N11911899WA013250138500000
B1956283646064N11911933WA013290138800000
B1956333646064N11911964WA013260138500000
B1956383646059N11911994WA013170137600000
B1956433646053N11912024WA013130136800000
B1956483646046N11912057WA013120136600000
B1956533646041N11912094WA012990135100000
B1956583646032N11912128WA012900134400000
B1957033646018N11912166WA012780133300000
B1957083646003N11912204WA012690132600000
B1957133645988N11912238WA012660132500000
B1957183645972N11912271WA012580131900000
B1957233645954N11912288WA012630131900000
B1957283645938N11912300WA012660132000000
B1957333645926N11912317WA012670132100000
B1957383645935N11912333WA012700132300000
B1957433645956N11912321WA012730132700000
F195748
B1957483645958N11912291WA012770133200000
B1957493645958N11912286WA012780133400000
B1957503645957N11912281WA012790133400000
B1957513645955N11912275WA012790133500000
B1957523645952N11912271WA012790133500000
B1957533645948N11912267WA012790133600000
B1957543645944N11912265WA012800133700000
B1957553645940N11912264WA012800133700000
B1957563645936N11912264WA012810133700000
B1957573645931N11912264WA012820133700000
B1957583645928N11912264WA012830133800000
B1957593645924N11912265WA012840134000000
B1958003645920N11912266WA012860134000000
B1958013645916N11912267WA012870134200000
B1958023645913N11912267WA012880134300000
B1958033645909N11912269WA012880134300000
B1958043645905N11912271WA012880134300000
B1958053645902N11912274WA012880134500000
B1958063645898N11912276WA012880134600000
B1958073645895N11912278WA012890134800000
B1958083645892N11912280WA012900134800000
B1958093645891N11912284WA012900134700000
B1958103645890N11912288WA012890134700000
B1958113645891N11912291WA012890134500000
B1958123645893N11912296WA012880134600000
B1958133645894N11912298WA012870134500000
B1958143645897N11912300WA012870134500000
B1958153645900N11912300WA012860134400000
B1958163645904N11912300WA012850134300000
B1958173645908N11912299WA012850134400000
F195818
B1958183645912N11912297WA012850134300000
B1958193645915N11912294WA012840134300000
B1958203645918N11912290WA012840134300000
B1958213645921N11912286WA012840134200000
B1958223645924N11912281WA012840134200000
B1958233645926N11912276WA012830134200000
B1958243645928N11912270WA012840134200000
B1958253645929N11912263WA012840134200000
B1958263645929N11912257WA012840134300000
B1958273645929N11912250WA012850134200000
B1958283645928N11912243WA012850134300000
B1958293645926N11912236WA012850134300000
B1958303645924N11912230WA012860134500000
B1958313645922N11912223WA012870134600000
B1958323645920N11912218WA012890134700000
B1958333645918N11912214WA012890134800000
B1958343645915N11912208WA012890134700000
B1958353645912N11912204WA012890134700000
B1958363645909N11912199WA012890134700000
B1958373645906N11912195WA012890134700000
B1958383645902N11912192WA012900134700000
B1958393645898N11912190WA012890134700000
B1958403645893N11912191WA012890134600000
B1958413645888N11912193WA012890134600000
B1958423645885N11912196WA012880134600000
B1958433645882N11912200WA012880134600000
B1958443645880N11912203WA012890134800000
B1958453645879N11912206WA012900135000000
B1958463645878N11912209WA012910135000000
B1958473645877N11912212WA012910135000000
B1958483645877N11912216WA012910135000000
B1958493645877N11912219WA012920135000000
B1958503645877N11912223WA012920135000000
B1958513645878N11912226WA012930135100000
B1958523645879N11912229WA012930135100000
B1958533645880N11912231WA012930135000000
B1958543645881N11912234WA012920135100000
B1958553645881N11912238WA012900134800000
B1958563645881N11912242WA012890134700000
B1958573645879N11912247WA012880134800000
B1958583645876N11912250WA012880134800000
B1958593645872N11912253WA012880134800000
F195900
B1959003645868N11912255WA012880134700000
B1959013645864N11912257WA012880134700000
B1959023645860N11912259WA012870134600000
B1959033645855N11912260WA012870134500000
B1959043645851N11912262WA012860134500000
B1959053645846N11912263WA012850134400000
B1959063645841N11912265WA012850134400000
B1959073645835N11912265WA012850134400000
B1959083645830N11912266WA012850134400000
B1959093645825N11912267WA012840134300000
B1959103645819N11912268WA012840134300000
B1959113645814N11912268WA012840134300000
B1959123645808N11912269WA012840134300000
B1959133645803N11912270WA012840134300000
B1959143645797N11912271WA012840134200000
B1959153645792N11912273WA012830134300000
B1959203645767N11912278WA012810134000000
B1959253645742N11912284WA012720132900000
B1959303645711N11912295WA012620132100000
B1959353645682N11912306WA012570131500000
B1959403645658N11912318WA012490130900000
B1959453645636N11912334WA012410130400000
B1959503645615N11912352WA012390130100000
B1959553645595N11912377WA012320129600000
B2000003645581N11912399WA012330129400000
B2000053645569N11912423WA012280128800000
B2000103645555N11912449WA012220128300000
B2000153645533N11912471WA012120127100000
B2000203645503N11912485WA012020126300000
B2000253645471N11912493WA011910125500000
B2000303645442N11912500WA011800123700000
B2000353645405N11912510WA011630122000000
B2000403645368N11912516WA011510120900000
F200045
B2000453645332N11912525WA011380119600000
B2000503645298N11912533WA011280118300000
B2000553645261N11912541WA011170117200000
B2001003645230N11912549WA011180117200000
B2001053645207N11912555WA011230116900000
B2001103645187N11912552WA011240116900000
B2001153645154N11912560WA011060115500000
B2001203645115N11912566WA010960114600000
B2001253645077N11912567WA010860113900000
B2001303645036N11912572WA010670111700000
B2001353644996N11912582WA010600111600000
F200140
B2001403644964N11912587WA010600111100000
B2001453644929N11912594WA010450109300000
B2001503644892N11912600WA010350108400000
B2001553644854N11912607WA010140106000000
B2002003644813N11912618WA009970104300000
B2002053644772N11912629WA009790102600000
F200210
B2002103644734N11912640WA009730102000000
B2002153644705N11912648WA009750101800000
B2002203644677N11912654WA009740101700000
B2002253644646N11912664WA009640100900000
B2002303644615N11912677WA009640100900000
B2002353644586N11912687WA009600100400000
B2002403644560N11912700WA009540100200000
F200245
B2002453644540N11912713WA009590100700000
B2002503644521N11912724WA009490099800000
B2002553644504N11912738WA009430099000000
B2003003644481N11912741WA009320097700000
B2003053644463N11912710WA009240097000000
B2003103644444N11912685WA009180096100000
B2003153644425N11912654WA009050095300000
B2003203644405N11912625WA008940094000000
B2003253644382N11912593WA008800092600000
B2003303644357N11912557WA008650092000000
B2003353644332N11912526WA008520090400000
B2003403644303N11912501WA008450089200000
B2003453644282N11912502WA008470089100000
F200350
B2003503644259N11912516WA008450089100000
B2003553644239N11912517WA008440088500000
B2004003644216N11912506WA008370087700000
B2004053644194N11912488WA008320087200000
B2004103644175N11912467WA008360087500000
B2004153644156N11912442WA008300086900000
B2004203644133N11912428WA008260086500000
B2004253644126N11912445WA008170085800000
B2004303644146N11912464WA008090085000000
B2004353644170N11912484WA008040084800000
F200440
B2004403644195N11912506WA007980084500000
B2004453644213N11912522WA008090085500000
B2004503644229N11912534WA008060085400000
B2004553644242N11912550WA007990084700000
B2005003644258N11912565WA007940084300000
B2005053644276N11912582WA007850083100000
B2005103644290N11912600WA007860082700000
B2005153644298N11912617WA007830082100000
F200520
B2005203644309N11912637WA007790081700000
B2005253644321N11912660WA007740081300000
B2005303644330N11912685WA007700081100000
B2005353644342N11912700WA007730081300000
B2005403644356N11912715WA007730081700000
B2005453644367N11912731WA007750081800000
B2005503644375N11912748WA007740081700000
B2005553644387N11912762WA007710081400000
B2006003644398N11912770WA007670080800000
F200605
B2006053644409N11912782WA007650080500000
B2006103644414N11912793WA007620080100000
B2006153644415N11912808WA007600079800000
B2006203644414N11912824WA007520079200000
B2006253644390N11912813WA007420078100000
B2006303644376N11912780WA007370077400000
B2006353644360N11912749WA007340077100000
B2006403644341N11912723WA007330077100000
B2006453644328N11912698WA007380077200000
B2006503644315N11912670WA007390077400000
B2006553644299N11912643WA007350076900000
B2007003644282N11912617WA007330076900000
B2007053644271N11912593WA007420077400000
F200710
B2007103644255N11912600WA007370077300000
B2007153644273N11912620WA007440077600000
B2007203644291N11912631WA007460077800000
B2007253644303N11912645WA007470078400000
B2007303644318N11912658WA007400077700000
B2007353644332N11912674WA007390077600000
B2007403644324N11912692WA007420077900000
B2007453644312N11912705WA007420077700000
B2007503644304N11912725WA007360077300000
B2007553644295N11912741WA007410078000000
B2008003644289N11912757WA007440078300000
B2008053644295N11912776WA007420078000000
F200810
B2008103644314N11912763WA007480078400000
B2008153644312N11912730WA007520078900000
B2008193644296N11912723WA007530078900000
B2008203644292N11912724WA007530079000000
B2008213644289N11912725WA007530079100000
B2008223644287N11912727WA007530079100000
B2008233644284N11912730WA007530079100000
B2008243644282N11912734WA007520078900000
B2008253644280N11912738WA007520078800000
B2008263644279N11912741WA007520078700000
B2008273644280N11912744WA007520078700000
B2008283644282N11912746WA007510078600000
B2008293644284N11912749WA007510078600000
B2008303644289N11912749WA007510078800000
B2008313644293N11912749WA007520078900000
B2008323644297N11912748WA007530079000000
B2008333644301N11912746WA007530079000000
B2008343644305N11912741WA007530079000000
B2008353644308N11912736WA007530078900000
B2008363644312N11912730WA007520078900000
B2008373644314N11912723WA007510078800000
B2008383644315N11912715WA007510078800000
B2008393644316N11912707WA007510078800000
B2008403644315N11912699WA007510078900000
B2008413644314N11912692WA007520079000000
B2008423644312N11912686WA007530079000000
B2008433644310N11912680WA007530079000000
B2008443644308N11912675WA007540079000000
B2008453644305N11912671WA007540078900000
B2008463644301N11912670WA007530078900000
B2008473644298N11912670WA007520078800000
B2008483644295N11912672WA007510078700000
B2008493644293N11912676WA007500078600000
B2008503644292N11912680WA007500078500000
B2008513644292N11912683WA007490078500000
B2008523644292N11912687WA007490078500000
F200853
B2008533644292N11912691WA007490078600000
B2008543644292N11912695WA007490078500000
B2008553644294N11912698WA007490078500000
B2008563644297N11912701WA007490078500000
B2008573644301N11912703WA007490078600000
B2008583644305N11912704WA007490078600000
B2008593644309N11912704WA007490078600000
B2009003644313N11912702WA007490078500000
B2009013644317N11912699WA007480078500000
B2009023644321N11912694WA007480078400000
B2009033644325N11912688WA007470078400000
B2009043644326N11912681WA007480078500000
B2009053644326N11912674WA007490078600000
B2009063644326N11912668WA007490078600000
B2009073644325N11912662WA007490078600000
B2009083644322N11912656WA007490078500000
B2009093644319N11912652WA007480078300000
B2009103644316N11912651WA007470078300000
B2009113644313N11912651WA007460078300000
B2009123644310N11912653WA007450078300000
B2009133644308N11912657WA007440078100000
B2009143644307N11912661WA007440078100000
B2009153644307N11912666WA007440078000000
B2009163644308N11912671WA007440078000000
B2009173644308N11912675WA007440078000000
B2009183644308N11912679WA007440077900000
B2009193644307N11912683WA007440077900000
B2009203644307N11912686WA007450078000000
B2009213644306N11912690WA007450078100000
B2009223644305N11912693WA007450078100000
B2009233644304N11912697WA007450078000000
B2009243644303N11912701WA007450077900000
B2009253644301N11912704WA007450077800000
B2009263644299N11912707WA007440077900000
B2009273644298N11912711WA007440077900000
B2009283644298N11912713WA007440078000000
B2009293644297N11912715WA007450078000000
B2009343644292N11912732WA007410077700000
B2009393644313N11912734WA007370077100000
B2009443644320N11912700WA007340077100000
F200949
B2009493644312N11912671WA007370077200000
B2009543644302N11912650WA007350077000000
B2009593644285N11912647WA007310076600000
B2010043644295N11912664WA007290076600000
B2010093644314N11912671WA007300076600000
B2010143644322N11912684WA007280076400000
B2010193644314N11912696WA007290076600000
B2010243644303N11912704WA007290076600000
B2010293644290N11912711WA007310077000000
B2010343644281N11912728WA007240076200000
B2010393644278N11912747WA007250076100000
B2010443644276N11912780WA007110074800000
B2010493644274N11912814WA007050074100000
B2010543644268N11912847WA006980073500000
B2010593644251N11912867WA006970073300000
B2011043644224N11912868WA006920072600000
B2011093644194N11912877WA006810071800000
B2011143644166N11912882WA006820071800000
B2011193644138N11912882WA006820072000000
B2011243644115N11912883WA006810071800000
F201129
B2011293644095N11912877WA006860072000000
B2011343644078N11912879WA006860071800000
B2011393644070N11912890WA006870072000000
B2011443644075N11912907WA006830071800000
B2011493644062N11912919WA006750071000000
B2011543644035N11912923WA006580069400000
B2011593644007N11912928WA006520068800000
B2012043643978N11912941WA006460068400000
B2012093643948N11912955WA006360067800000
B2012143643925N11912968WA006320066900000
B2012193643908N11912980WA006260065900000
B2012243643885N11912994WA006180065400000
B2012293643864N11913001WA006190065200000
B2012343643844N11913010WA006160064900000
B2012393643820N11913003WA006100064400000
B2012443643799N11912984WA006000063200000
F201249
B2012493643772N11912957WA005840062700000
B2012543643743N11912930WA005730061500000
B2012593643718N11912906WA005680060900000
B2013043643690N11912882WA005570060000000
B2013093643661N11912860WA005500059200000
B2013143643643N11912834WA005410058000000
B2013193643636N11912799WA005330056900000
B2013243643647N11912765WA005260056100000
F201329
B2013293643664N11912734WA005210055400000
B2013343643684N11912718WA005170054800000
B2013393643700N11912728WA005080054100000
B2013443643702N11912750WA005010053700000
B2013493643700N11912764WA005020053600000
B2013543643696N11912768WA005020053200000
B2013593643691N11912772WA005020053300000
B2014043643688N11912778WA005010053200000
B2014093643686N11912777WA005020053300000
B2014143643686N11912778WA005020053300000
B2014193643686N11912778WA005020053100000
B2014243643686N11912777WA005020053200000
B2014293643686N11912777WA005020053200000
B2014343643686N11912777WA005020053200000
B2014393643686N11912777WA005020053200000
F201444
B2014443643686N11912777WA005020053200000
B2014493643685N11912778WA005020053100000
B2014543643686N11912778WA005010053100000
B2014593643687N11912778WA005010053300000
B2015043643687N11912777WA005010053300000
B2015093643688N11912777WA005010053200000
B2015143643688N11912777WA005010053300000
B2015193643687N11912778WA005010053100000
B2015243643683N11912779WA005010053100000
B2015293643681N11912781WA005010053000000
F201534
B2015343643680N11912782WA005010053000000
B2015393643680N11912783WA005010053000000
B2015443643680N11912783WA005010053000000
B2015493643680N11912783WA005010053000000
B2015543643680N11912783WA005010053000000
B2015593643680N11912783WA005010053000000
B2016043643680N11912783WA005010053000000
B2016093643680N11912783WA005010053000000
B2016143643680N11912783WA005010053000000
B2016193643680N11912783WA005010053000000
F201624
B2016243643680N11912783WA005010053000000
B2016293643680N11912783WA005010053000000
B2016343643681N11912783WA005010052900000
B2016393643681N11912783WA005010052900000
B2016443643681N11912783WA005020052900000
B2016493643681N11912783WA005010052800000
B2016543643681N11912783WA005010052900000
B2016593643681N11912783WA005010052900000
B2017043643681N11912783WA005010052900000
B2017093643681N11912783WA005010052900000
F201714
B2017143643681N11912783WA005010052900000
B2017193643681N11912783WA005010052900000
B2017243643681N11912783WA005010052900000
B2017293643681N11912783WA005010052900000
B2017343643681N11912783WA005010052900000
B2017393643681N11912783WA005010052900000
B2017443643681N11912783WA005010052900000
B2017493643681N11912783WA005010052900000
F201754
B2017543643681N11912783WA005010052900000
B2017593643681N11912783WA005010052900000
B2018043643681N11912783WA005000052900000
B2018093643681N11912783WA005000052900000
B2018143643681N11912783WA005000052900000
B2018193643681N11912783WA005000052900000
B2018243643681N11912783WA005000052900000
B2018293643681N11912783WA005010052900000
B2018343643681N11912783WA005000052900000
B2018393643681N11912783WA005000052900000
B2018443643681N11912783WA005010052900000
B2018493643681N11912783WA005010052900000
B2018543643681N11912783WA005010052900000
B2018593643681N11912783WA005010052900000
B2019043643681N11912783WA005010052900000
B2019093643681N11912783WA005010052900000
B2019143643681N11912783WA005010052900000
F201919
B2019193643681N11912783WA005010052900000
B2019243643681N11912783WA005010052900000
B2019293643681N11912783WA005010052900000
B2019343643681N11912783WA005010052900000
B2019393643681N11912783WA005010052900000
B2019443643681N11912783WA005010052900000
B2019493643681N11912783WA005010052900000
B2019543643681N11912783WA005010052900000
B2019593643681N11912783WA005010052900000
B2020043643681N11912783WA005010052900000
F202009
B2020093643681N11912783WA005010052900000
B2020143643681N11912783WA005010052900000
B2020193643681N11912783WA005010052900000
B2020243643681N11912783WA005010052900000
B2020293643681N11912783WA005010052900000
B2020343643681N11912783WA005010052900000
F202039
B2020393643681N11912783WA005010052900000
B2020443643681N11912783WA005010052900000
B2020493643681N11912783WA005010052900000
B2020543643681N11912783WA005010052900000
B2020593643681N11912783WA005010052900000
B2021043643681N11912783WA005010052900000
F202109
B2021093643681N11912783WA005010052900000
B2021143643681N11912783WA005010052900000
B2021193643681N11912783WA005010052900000
B2021243643681N11912783WA005010052900000
B2021293643681N11912783WA005010052900000
B2021343643681N11912783WA005010052900000
B2021393643681N11912783WA005010052900000
B2021443643681N11912783WA005010052900000
B2021493643681N11912783WA005010052900000
B2021543643681N11912783WA005000052900000
B2021593643681N11912783WA005010052900000
B2022043643681N11912783WA005010052900000
B2022093643681N11912783WA005000052900000
B2022143643681N11912783WA005000052900000
B2022193643681N11912783WA005000052900000
F202224
B2022243643681N11912783WA005010052900000
B2022293643681N11912783WA005000052900000
B2022343643681N11912783WA005000052900000
B2022393643681N11912783WA005000052900000
B2022443643681N11912783WA005000052900000
B2022493643681N11912783WA005000052900000
F202254
B2022543643681N11912783WA005000052900000
B2022593643681N11912783WA005000052900000
B2023043643681N11912783WA005000052900000
B2023093643681N11912783WA005010052900000
B2023143643681N11912783WA005000052900000
B2023193643681N11912783WA005010052900000
B2023243643681N11912783WA005010052900000
B2023293643681N11912783WA005010052900000
B2023343643681N11912783WA005010052900000
B2023393643681N11912783WA005010052900000
B2023443643681N11912783WA005010052900000
B2023493643681N11912783WA005010052900000
B2023543643681N11912783WA005010052900000
F202359
B2023593643681N11912783WA005010052900000
B2024043643681N11912783WA005010052900000
B2024093643681N11912783WA005010052900000
B2024143643681N11912783WA005010052900000
B2024193643682N11912783WA005010052900000
B2024243643682N11912783WA005010053000000
B2024293643681N11912783WA005020053000000
B2024343643681N11912783WA005020053000000
B2024393643681N11912783WA005020053100000
B2024443643681N11912783WA005020053100000
Gfd2f1ca879f4fdaf
G88ac62f25c92cef4
Gde7e2f2749244cd7
Gdbe84e8c239797b3
Gaac8a9d0a8c34166
G9510d1dead548523
G60ce9e0044cdfbc6
G4cb4660c6e8fa6d6
