AXFY0AI,FS 00368
HFDTE100814
HFDTM100WGS84
HFGPSu-Blox,NEO-6(Hw:00040007,Sw:7.03 (45969)),50Ch,50000m
HFPRSPRESSALTSENSOR:INTERSEMA,MS5401BM,12000m
HFFTYFRTYPE:Flytec,SensBox
HFRFWFIRMWAREVERSION:FS.01.20
HFRHWHARDWAREVERSION:1
I083638FXA3940SIU4141LAD4242LOD4346VAR4749ACX5052ACY5355ACZ
B2248233933625N12221922WA001370008300310560000-09000005
B2248533933629N12221925WA001370008300609170000-10000003
B2249233933629N12221926WA001370008600810190000-09000004
B2249533933629N12221926WA001380008300508950001001002009
B2250233933630N12221926WA001390008300509160000002002009
B2250533933630N12221926WA001390008400610650000-02003009
B2251233933630N12221926WA001390008600410390001-02002009
B2251533933629N12221926WA001400008500311740001-02-01009
B2252233933627N12221924WA00139000840041079-001001000009
E225253STA
B2252533933615N12221913WA001380008700511240000004001009
B2252543933611N12221911WA001390008700511710003004001009
Gb68d21d82167336ba77b17a845b1456bd06fc81e8f2e8bb46d8d8da2dee36a31
Gee5ffcd0cb6ef274e071367c8a5f49cb2943f034a8ad823abfd73ccf9224f426
Gd26ae72d839fcfc627332e90b330996bde43a86459c668b24edb6c87530f834b
G49d0afb667d223e920e4de90bd945af91df1708b9d4fd9657b7bf12b16ea6148
G2dfec0ebb9bc3da13bf06a2704762ba50c2e0710d3dfa06ed01ed0fe8cfc2337
G895610298dec7e5fc140b4937f97a5540bf5f5861d467159ef4393b8bf6370c8
