<?xml version="1.0" encoding="UTF-8" ?><kml creator="SPOT Inc http://www.findmespot.com/" xmlns="http://earth.google.com/kml/2.0">
  <Document> <Folder>
 <name>Waypoints</name><Placemark><name>1-track</name><Point><altitudeMode>clampedToGround</altitudeMode><coordinates>-122.4902,37.94996,0.000000</coordinates></Point><Snippet><![CDATA[0-8119100 @ 05/25/2011 11:29:13 AM]]></Snippet><description><![CDATA[<h2>0-8119100 @ 05/25/2011 11:29:13 AM</h2> <p> ""</p>]]></description><styleUrl>#gv_waypoint</styleUrl></Placemark><Placemark><name>2-track</name><Point><altitudeMode>clampedToGround</altitudeMode><coordinates>-122.49011,37.94994,0.000000</coordinates></Point><Snippet><![CDATA[0-8119100 @ 05/25/2011 11:38:12 AM]]></Snippet><description><![CDATA[<h2>0-8119100 @ 05/25/2011 11:38:12 AM</h2> <p> ""</p>]]></description><styleUrl>#gv_waypoint</styleUrl></Placemark><Placemark><name>3-track</name><Point><altitudeMode>clampedToGround</altitudeMode><coordinates>-122.49002,37.94993,0.000000</coordinates></Point><Snippet><![CDATA[0-8119100 @ 05/25/2011 11:48:17 AM]]></Snippet><description><![CDATA[<h2>0-8119100 @ 05/25/2011 11:48:17 AM</h2> <p> ""</p>]]></description><styleUrl>#gv_waypoint</styleUrl></Placemark><Placemark><name>4-track</name><Point><altitudeMode>clampedToGround</altitudeMode><coordinates>-122.49002,37.95002,0.000000</coordinates></Point><Snippet><![CDATA[0-8119100 @ 05/25/2011 11:58:17 AM]]></Snippet><description><![CDATA[<h2>0-8119100 @ 05/25/2011 11:58:17 AM</h2> <p> ""</p>]]></description><styleUrl>#gv_waypoint</styleUrl></Placemark><Placemark><name>5-track</name><Point><altitudeMode>clampedToGround</altitudeMode><coordinates>-119.09781,36.76517,0.000000</coordinates></Point><Snippet><![CDATA[0-8119100 @ 05/28/2011 10:55:10 AM]]></Snippet><description><![CDATA[<h2>0-8119100 @ 05/28/2011 10:55:10 AM</h2> <p> ""</p>]]></description><styleUrl>#gv_waypoint</styleUrl></Placemark><Placemark><name>6-track</name><Point><altitudeMode>clampedToGround</altitudeMode><coordinates>-119.09776,36.76514,0.000000</coordinates></Point><Snippet><![CDATA[0-8119100 @ 05/28/2011 11:04:39 AM]]></Snippet><description><![CDATA[<h2>0-8119100 @ 05/28/2011 11:04:39 AM</h2> <p> ""</p>]]></description><styleUrl>#gv_waypoint</styleUrl></Placemark><Placemark><name>7-track</name><Point><altitudeMode>clampedToGround</altitudeMode><coordinates>-119.11664,36.76397,0.000000</coordinates></Point><Snippet><![CDATA[0-8119100 @ 05/28/2011 11:14:35 AM]]></Snippet><description><![CDATA[<h2>0-8119100 @ 05/28/2011 11:14:35 AM</h2> <p> ""</p>]]></description><styleUrl>#gv_waypoint</styleUrl></Placemark><Placemark><name>8-track</name><Point><altitudeMode>clampedToGround</altitudeMode><coordinates>-119.12444,36.77123,0.000000</coordinates></Point><Snippet><![CDATA[0-8119100 @ 05/28/2011 11:24:35 AM]]></Snippet><description><![CDATA[<h2>0-8119100 @ 05/28/2011 11:24:35 AM</h2> <p> ""</p>]]></description><styleUrl>#gv_waypoint</styleUrl></Placemark><Placemark><name>9-track</name><Point><altitudeMode>clampedToGround</altitudeMode><coordinates>-119.153,36.785,0.000000</coordinates></Point><Snippet><![CDATA[0-8119100 @ 05/28/2011 11:34:37 AM]]></Snippet><description><![CDATA[<h2>0-8119100 @ 05/28/2011 11:34:37 AM</h2> <p> ""</p>]]></description><styleUrl>#gv_waypoint</styleUrl></Placemark><Placemark><name>10-track</name><Point><altitudeMode>clampedToGround</altitudeMode><coordinates>-119.17413,36.78155,0.000000</coordinates></Point><Snippet><![CDATA[0-8119100 @ 05/28/2011 11:44:34 AM]]></Snippet><description><![CDATA[<h2>0-8119100 @ 05/28/2011 11:44:34 AM</h2> <p> ""</p>]]></description><styleUrl>#gv_waypoint</styleUrl></Placemark><Placemark><name>11-track</name><Point><altitudeMode>clampedToGround</altitudeMode><coordinates>-119.20288,36.76531,0.000000</coordinates></Point><Snippet><![CDATA[0-8119100 @ 05/28/2011 11:54:36 AM]]></Snippet><description><![CDATA[<h2>0-8119100 @ 05/28/2011 11:54:36 AM</h2> <p> ""</p>]]></description><styleUrl>#gv_waypoint</styleUrl></Placemark><Placemark><name>12-track</name><Point><altitudeMode>clampedToGround</altitudeMode><coordinates>-119.20683,36.74563,0.000000</coordinates></Point><Snippet><![CDATA[0-8119100 @ 05/28/2011 12:04:33 PM]]></Snippet><description><![CDATA[<h2>0-8119100 @ 05/28/2011 12:04:33 PM</h2> <p> ""</p>]]></description><styleUrl>#gv_waypoint</styleUrl></Placemark><Placemark><name>13-track</name><Point><altitudeMode>clampedToGround</altitudeMode><coordinates>-119.21819,36.72229,0.000000</coordinates></Point><Snippet><![CDATA[0-8119100 @ 05/28/2011 12:14:32 PM]]></Snippet><description><![CDATA[<h2>0-8119100 @ 05/28/2011 12:14:32 PM</h2> <p> ""</p>]]></description><styleUrl>#gv_waypoint</styleUrl></Placemark><Placemark><name>14-track</name><Point><altitudeMode>clampedToGround</altitudeMode><coordinates>-119.21472,36.63972,0.000000</coordinates></Point><Snippet><![CDATA[0-8119100 @ 05/28/2011 12:34:31 PM]]></Snippet><description><![CDATA[<h2>0-8119100 @ 05/28/2011 12:34:31 PM</h2> <p> ""</p>]]></description><styleUrl>#gv_waypoint</styleUrl></Placemark><Placemark><name>15-track</name><Point><altitudeMode>clampedToGround</altitudeMode><coordinates>-119.21307,36.59748,0.000000</coordinates></Point><Snippet><![CDATA[0-8119100 @ 05/28/2011 12:44:34 PM]]></Snippet><description><![CDATA[<h2>0-8119100 @ 05/28/2011 12:44:34 PM</h2> <p> ""</p>]]></description><styleUrl>#gv_waypoint</styleUrl></Placemark><Placemark><name>16-track</name><Point><altitudeMode>clampedToGround</altitudeMode><coordinates>-119.16701,36.47425,0.000000</coordinates></Point><Snippet><![CDATA[0-8119100 @ 05/28/2011 12:55:05 PM]]></Snippet><description><![CDATA[<h2>0-8119100 @ 05/28/2011 12:55:05 PM</h2> <p> ""</p>]]></description><styleUrl>#gv_waypoint</styleUrl></Placemark><Placemark><name>17-track</name><Point><altitudeMode>clampedToGround</altitudeMode><coordinates>-119.16701,36.47425,0.000000</coordinates></Point><Snippet><![CDATA[0-8119100 @ 05/28/2011 01:05:05 PM]]></Snippet><description><![CDATA[<h2>0-8119100 @ 05/28/2011 01:05:05 PM</h2> <p> ""</p>]]></description><styleUrl>#gv_waypoint</styleUrl></Placemark><Placemark><name>18-track</name><Point><altitudeMode>clampedToGround</altitudeMode><coordinates>-119.16701,36.47425,0.000000</coordinates></Point><Snippet><![CDATA[0-8119100 @ 05/28/2011 01:15:05 PM]]></Snippet><description><![CDATA[<h2>0-8119100 @ 05/28/2011 01:15:05 PM</h2> <p> ""</p>]]></description><styleUrl>#gv_waypoint</styleUrl></Placemark><Placemark><name>19-track</name><Point><altitudeMode>clampedToGround</altitudeMode><coordinates>-119.15588,36.45656,0.000000</coordinates></Point><Snippet><![CDATA[0-8119100 @ 05/28/2011 01:24:29 PM]]></Snippet><description><![CDATA[<h2>0-8119100 @ 05/28/2011 01:24:29 PM</h2> <p> ""</p>]]></description><styleUrl>#gv_waypoint</styleUrl></Placemark><Placemark><name>20-track</name><Point><altitudeMode>clampedToGround</altitudeMode><coordinates>-119.13811,36.41046,0.000000</coordinates></Point><Snippet><![CDATA[0-8119100 @ 05/28/2011 01:34:31 PM]]></Snippet><description><![CDATA[<h2>0-8119100 @ 05/28/2011 01:34:31 PM</h2> <p> ""</p>]]></description><styleUrl>#gv_waypoint</styleUrl></Placemark><Placemark><name>21-track</name><Point><altitudeMode>clampedToGround</altitudeMode><coordinates>-119.14197,36.3614,0.000000</coordinates></Point><Snippet><![CDATA[0-8119100 @ 05/28/2011 01:44:27 PM]]></Snippet><description><![CDATA[<h2>0-8119100 @ 05/28/2011 01:44:27 PM</h2> <p> ""</p>]]></description><styleUrl>#gv_waypoint</styleUrl></Placemark><Placemark><name>22-track</name><Point><altitudeMode>clampedToGround</altitudeMode><coordinates>-119.13367,36.34501,0.000000</coordinates></Point><Snippet><![CDATA[0-8119100 @ 05/28/2011 01:54:30 PM]]></Snippet><description><![CDATA[<h2>0-8119100 @ 05/28/2011 01:54:30 PM</h2> <p> ""</p>]]></description><styleUrl>#gv_waypoint</styleUrl></Placemark><Placemark><name>23-track</name><Point><altitudeMode>clampedToGround</altitudeMode><coordinates>-119.1235,36.30778,0.000000</coordinates></Point><Snippet><![CDATA[0-8119100 @ 05/28/2011 02:04:26 PM]]></Snippet><description><![CDATA[<h2>0-8119100 @ 05/28/2011 02:04:26 PM</h2> <p> ""</p>]]></description><styleUrl>#gv_waypoint</styleUrl></Placemark><Placemark><name>24-track</name><Point><altitudeMode>clampedToGround</altitudeMode><coordinates>-119.11632,36.28835,0.000000</coordinates></Point><Snippet><![CDATA[0-8119100 @ 05/28/2011 02:14:29 PM]]></Snippet><description><![CDATA[<h2>0-8119100 @ 05/28/2011 02:14:29 PM</h2> <p> ""</p>]]></description><styleUrl>#gv_waypoint</styleUrl></Placemark><Placemark><name>25-track</name><Point><altitudeMode>clampedToGround</altitudeMode><coordinates>-119.09682,36.23271,0.000000</coordinates></Point><Snippet><![CDATA[0-8119100 @ 05/28/2011 02:24:25 PM]]></Snippet><description><![CDATA[<h2>0-8119100 @ 05/28/2011 02:24:25 PM</h2> <p> ""</p>]]></description><styleUrl>#gv_waypoint</styleUrl></Placemark><Placemark><name>26-track</name><Point><altitudeMode>clampedToGround</altitudeMode><coordinates>-119.08804,36.1974,0.000000</coordinates></Point><Snippet><![CDATA[0-8119100 @ 05/28/2011 02:34:30 PM]]></Snippet><description><![CDATA[<h2>0-8119100 @ 05/28/2011 02:34:30 PM</h2> <p> ""</p>]]></description><styleUrl>#gv_waypoint</styleUrl></Placemark><Placemark><name>27-track</name><Point><altitudeMode>clampedToGround</altitudeMode><coordinates>-119.07617,36.16541,0.000000</coordinates></Point><Snippet><![CDATA[0-8119100 @ 05/28/2011 02:44:24 PM]]></Snippet><description><![CDATA[<h2>0-8119100 @ 05/28/2011 02:44:24 PM</h2> <p> ""</p>]]></description><styleUrl>#gv_waypoint</styleUrl></Placemark><Placemark><name>28-track</name><Point><altitudeMode>clampedToGround</altitudeMode><coordinates>-119.07005,36.11114,0.000000</coordinates></Point><Snippet><![CDATA[0-8119100 @ 05/28/2011 02:54:26 PM]]></Snippet><description><![CDATA[<h2>0-8119100 @ 05/28/2011 02:54:26 PM</h2> <p> ""</p>]]></description><styleUrl>#gv_waypoint</styleUrl></Placemark><Placemark><name>29-track</name><Point><altitudeMode>clampedToGround</altitudeMode><coordinates>-119.07681,36.07643,0.000000</coordinates></Point><Snippet><![CDATA[0-8119100 @ 05/28/2011 03:04:26 PM]]></Snippet><description><![CDATA[<h2>0-8119100 @ 05/28/2011 03:04:26 PM</h2> <p> ""</p>]]></description><styleUrl>#gv_waypoint</styleUrl></Placemark><Placemark><name>30-track</name><Point><altitudeMode>clampedToGround</altitudeMode><coordinates>-119.07173,36.04847,0.000000</coordinates></Point><Snippet><![CDATA[0-8119100 @ 05/28/2011 03:14:25 PM]]></Snippet><description><![CDATA[<h2>0-8119100 @ 05/28/2011 03:14:25 PM</h2> <p> ""</p>]]></description><styleUrl>#gv_waypoint</styleUrl></Placemark><Placemark><name>31-track</name><Point><altitudeMode>clampedToGround</altitudeMode><coordinates>-119.05119,35.98617,0.000000</coordinates></Point><Snippet><![CDATA[0-8119100 @ 05/28/2011 03:24:37 PM]]></Snippet><description><![CDATA[<h2>0-8119100 @ 05/28/2011 03:24:37 PM</h2> <p> ""</p>]]></description><styleUrl>#gv_waypoint</styleUrl></Placemark><Placemark><name>32-track</name><Point><altitudeMode>clampedToGround</altitudeMode><coordinates>-119.03476,35.97401,0.000000</coordinates></Point><Snippet><![CDATA[0-8119100 @ 05/28/2011 03:34:21 PM]]></Snippet><description><![CDATA[<h2>0-8119100 @ 05/28/2011 03:34:21 PM</h2> <p> ""</p>]]></description><styleUrl>#gv_waypoint</styleUrl></Placemark><Placemark><name>33-track</name><Point><altitudeMode>clampedToGround</altitudeMode><coordinates>-119.0494,35.91804,0.000000</coordinates></Point><Snippet><![CDATA[0-8119100 @ 05/28/2011 03:44:26 PM]]></Snippet><description><![CDATA[<h2>0-8119100 @ 05/28/2011 03:44:26 PM</h2> <p> ""</p>]]></description><styleUrl>#gv_waypoint</styleUrl></Placemark><Placemark><name>34-track</name><Point><altitudeMode>clampedToGround</altitudeMode><coordinates>-119.04828,35.88246,0.000000</coordinates></Point><Snippet><![CDATA[0-8119100 @ 05/28/2011 03:54:26 PM]]></Snippet><description><![CDATA[<h2>0-8119100 @ 05/28/2011 03:54:26 PM</h2> <p> ""</p>]]></description><styleUrl>#gv_waypoint</styleUrl></Placemark><Placemark><name>35-track</name><Point><altitudeMode>clampedToGround</altitudeMode><coordinates>-119.05382,35.83039,0.000000</coordinates></Point><Snippet><![CDATA[0-8119100 @ 05/28/2011 04:04:26 PM]]></Snippet><description><![CDATA[<h2>0-8119100 @ 05/28/2011 04:04:26 PM</h2> <p> ""</p>]]></description><styleUrl>#gv_waypoint</styleUrl></Placemark><Placemark><name>36-track</name><Point><altitudeMode>clampedToGround</altitudeMode><coordinates>-119.04845,35.80676,0.000000</coordinates></Point><Snippet><![CDATA[0-8119100 @ 05/28/2011 04:14:21 PM]]></Snippet><description><![CDATA[<h2>0-8119100 @ 05/28/2011 04:14:21 PM</h2> <p> ""</p>]]></description><styleUrl>#gv_waypoint</styleUrl></Placemark><Placemark><name>37-track</name><Point><altitudeMode>clampedToGround</altitudeMode><coordinates>-119.04871,35.76814,0.000000</coordinates></Point><Snippet><![CDATA[0-8119100 @ 05/28/2011 04:24:21 PM]]></Snippet><description><![CDATA[<h2>0-8119100 @ 05/28/2011 04:24:21 PM</h2> <p> ""</p>]]></description><styleUrl>#gv_waypoint</styleUrl></Placemark><Placemark><name>38-track</name><Point><altitudeMode>clampedToGround</altitudeMode><coordinates>-119.07088,35.70092,0.000000</coordinates></Point><Snippet><![CDATA[0-8119100 @ 05/28/2011 04:34:24 PM]]></Snippet><description><![CDATA[<h2>0-8119100 @ 05/28/2011 04:34:24 PM</h2> <p> ""</p>]]></description><styleUrl>#gv_waypoint</styleUrl></Placemark><Placemark><name>39-track</name><Point><altitudeMode>clampedToGround</altitudeMode><coordinates>-119.06834,35.66376,0.000000</coordinates></Point><Snippet><![CDATA[0-8119100 @ 05/28/2011 04:44:20 PM]]></Snippet><description><![CDATA[<h2>0-8119100 @ 05/28/2011 04:44:20 PM</h2> <p> ""</p>]]></description><styleUrl>#gv_waypoint</styleUrl></Placemark><Placemark><name>40-track</name><Point><altitudeMode>clampedToGround</altitudeMode><coordinates>-119.08684,35.58362,0.000000</coordinates></Point><Snippet><![CDATA[0-8119100 @ 05/28/2011 04:54:26 PM]]></Snippet><description><![CDATA[<h2>0-8119100 @ 05/28/2011 04:54:26 PM</h2> <p> ""</p>]]></description><styleUrl>#gv_waypoint</styleUrl></Placemark><Placemark><name>41-track</name><Point><altitudeMode>clampedToGround</altitudeMode><coordinates>-119.07939,35.5475,0.000000</coordinates></Point><Snippet><![CDATA[0-8119100 @ 05/28/2011 05:04:22 PM]]></Snippet><description><![CDATA[<h2>0-8119100 @ 05/28/2011 05:04:22 PM</h2> <p> ""</p>]]></description><styleUrl>#gv_waypoint</styleUrl></Placemark><Placemark><name>42-track</name><Point><altitudeMode>clampedToGround</altitudeMode><coordinates>-119.08684,35.54921,0.000000</coordinates></Point><Snippet><![CDATA[0-8119100 @ 05/28/2011 05:15:25 PM]]></Snippet><description><![CDATA[<h2>0-8119100 @ 05/28/2011 05:15:25 PM</h2> <p> ""</p>]]></description><styleUrl>#gv_waypoint</styleUrl></Placemark><Placemark><name>43-</name><Point><altitudeMode>clampedToGround</altitudeMode><coordinates>-119.08716,35.54921,0.000000</coordinates></Point><Snippet><![CDATA[0-8119100 @ 05/28/2011 05:20:12 PM]]></Snippet><description><![CDATA[<h2>0-8119100 @ 05/28/2011 05:20:12 PM</h2> <p> "PWC pilot #28 Josh Cohn landed OK (0-7341433)"</p>]]></description><styleUrl>#gv_waypoint</styleUrl></Placemark>   <visibility>1</visibility>
    </Folder><Snippet><![CDATA[created at <A href="http://www.findmespot.com">SPOT Inc</A>]]></Snippet>     <Style id="gv_waypoint">       <IconStyle>
        <Icon>
          <href>http://maps.google.com/mapfiles/kml/pal4/icon56.png</href>
        </Icon>
        <color>FFFFFFFF</color>
        <colorMode>normal</colorMode>
        <hotSpot x="0.5" xunits="fraction" y="0.5" yunits="fraction" />
      </IconStyle>
      <LabelStyle>
        <color>FFFFFFFF</color>
      </LabelStyle>
    </Style>
    <open>0</open>
    <visibility>1</visibility>
  </Document>
</kml>

