AFLY06032
HFDTE180809
HFFXA100
HFPLTPILOT:     not set      
HFGTYGLIDERTYPE:     not set      
HFGIDGLIDERID:     not set      
HFDTM100GPSDATUM:WGS84
HFGPSGPS:FURUNO GH-81
HFRFWFIRMWAREVERSION:3.28
HFRHWHARDWAREVERSION:1.00
HFFTYFRTYPE:FLYTEC,6030
C4017992N11137487WTAKEOFF         
C4018079N11137553WINSPOL          
C4036155N11146099WHOUNDS          
C4028417N11153549WNORTHS          
C4028417N11153549WNORTHS          
C4028437N11153496WLANDING         
I013638TAS
B1940434017955N11137342WA0202802109000
B1940484017956N11137341WA0202902109000
B1940534017956N11137341WA0202902109000
B1940584017956N11137340WA0202902109000
B1941034017957N11137340WA0202902109000
B1941084017957N11137341WA0202902109000
B1941134017957N11137341WA0202902109000
B1941184017957N11137341WA0202902109000
B1941234017958N11137341WA0202902110000
B1941284017957N11137341WA0202902111000
B1941334017957N11137341WA0202902111000
B1941384017957N11137341WA0202902112000
B1941434017957N11137341WA0202902112000
B1941484017957N11137341WA0202902113000
B1941534017957N11137341WA0202902114000
B1941584017957N11137341WA0202902114000
B1942034017957N11137341WA0202902114000
B1942084017956N11137342WA0202902115000
B1942134017956N11137342WA0202902115000
B1942184017957N11137342WA0202902116000
B1942234017957N11137342WA0202902116000
B1942284017957N11137341WA0202902117000
B1942334017957N11137340WA0202902117000
B1942384017956N11137340WA0202902118000
B1942434017955N11137341WA0202802118000
B1942584017946N11137355WA0201202118025
B1943034017950N11137385WA0201102117025
B1943084017954N11137418WA0201302115030
B1943134017967N11137450WA0201502113028
B1943184017986N11137477WA0201902110029
B1943234017992N11137505WA0202002109032
B1943284017973N11137505WA0201702107032
B1943334017978N11137469WA0201902105033
B1943384018006N11137458WA0202602105029
B1943434018020N11137480WA0202602106034
B1943484018003N11137485WA0202602108035
B1943534018012N11137453WA0202502109032
B1943584018040N11137449WA0202302110033
B1944034018056N11137476WA0202902110025
B1944084018073N11137507WA0203002112032
B1944134018088N11137533WA0203202113033
B1944184018104N11137554WA0204202115027
B1944234018112N11137572WA0204502118032
B1944284018097N11137585WA0204102120035
B1944334018084N11137609WA0205302122030
B1944384018077N11137624WA0206102124035
B1944434018092N11137630WA0205802129040
B1944484018098N11137588WA0205802132032
B1944534018079N11137562WA0206902135031
B1944584018063N11137557WA0207602140033
B1945034018053N11137570WA0207902144031
B1945084018058N11137592WA0208202151030
B1945134018084N11137591WA0208502157040
B1945184018083N11137554WA0208902162033
B1945244018063N11137545WA0209502169030
B1945294018056N11137564WA0209902175035
B1945344018078N11137571WA0210102180035
B1945394018085N11137532WA0210202184036
B1945444018072N11137503WA0211102189030
B1945494018058N11137477WA0212002193031
B1945544018039N11137468WA0212802198032
B1945594018033N11137482WA0212602201035
B1946044018053N11137492WA0213102206035
B1946094018073N11137465WA0213402211036
B1946144018060N11137438WA0214302216032
B1946194018046N11137445WA0214602219034
B1946244018064N11137458WA0214802224036
B1946294018084N11137429WA0215102229035
B1946344018070N11137396WA0215702233030
B1946394018049N11137373WA0216202238031
B1946444018030N11137350WA0217102242032
B1946494018014N11137326WA0217402248037
B1946544017999N11137340WA0218302253030
B1946594018001N11137358WA0218202257039
B1947044018022N11137337WA0218702262033
B1947094018015N11137302WA0219802267037
B1947144017996N11137302WA0220602272039
B1947194017985N11137318WA0220802278032
B1947244017970N11137340WA0219902283043
B1947294017955N11137365WA0219302285039
B1947344017937N11137391WA0218702286041
B1947394017915N11137420WA0218802286041
B1947444017895N11137447WA0220002288028
B1947494017886N11137467WA0221102291029
B1947544017874N11137485WA0222402296030
B1947594017860N11137502WA0223502303033
B1948044017845N11137515WA0224802310030
B1948094017829N11137526WA0225802318032
B1948144017816N11137541WA0226802326033
B1948194017816N11137562WA0228002335033
B1948244017839N11137562WA0228702345034
B1948294017859N11137530WA0229102354037
B1948344017852N11137488WA0229602361033
B1948394017828N11137478WA0230702369034
B1948444017807N11137481WA0231702377032
B1948504017786N11137490WA0232402386035
B1948554017765N11137495WA0233202394034
B1949004017740N11137495WA0233702403031
B1949054017714N11137495WA0234302410031
B1949104017690N11137496WA0234802418034
B1949154017671N11137508WA0235402425034
B1949204017672N11137529WA0236202433034
B1949254017690N11137524WA0236802440036
B1949304017704N11137489WA0237502448039
B1949354017688N11137450WA0238602456029
B1949404017665N11137452WA0239302465033
B1949454017662N11137474WA0240602473038
B1949504017682N11137469WA0241302481040
B1949554017682N11137428WA0242102489035
B1950004017655N11137405WA0242702497041
B1950054017640N11137421WA0243902505038
B1950104017653N11137432WA0244902514034
B1950154017668N11137405WA0245302523036
B1950204017655N11137365WA0245602530032
B1950254017626N11137358WA0246602538034
B1950304017619N11137379WA0247302545043
B1950354017637N11137388WA0247902553036
B1950404017659N11137367WA0248602560033
B1950454017676N11137341WA0248602568034
B1950504017696N11137317WA0248002574039
B1950554017723N11137282WA0247602576052
B1951004017751N11137247WA0248302578035
B1951054017774N11137213WA0248602581031
B1951104017791N11137182WA0248702584041
B1951154017807N11137146WA0249202587031
B1951204017813N11137096WA0248902590036
B1951254017810N11137051WA0249002591038
B1951304017811N11137007WA0249402593032
B1951354017803N11136961WA0249602594034
B1951404017786N11136917WA0249702596037
B1951454017756N11136891WA0250002598037
B1951504017729N11136874WA0250302600036
B1951554017703N11136860WA0250602604032
B1952004017677N11136853WA0250602607035
B1952054017654N11136849WA0250402609032
B1952104017630N11136841WA0249702610032
B1952154017615N11136855WA0248402609040
B1952204017611N11136880WA0246702605044
B1952254017603N11136914WA0246502599045
B1952304017596N11136935WA0247502595033
B1952354017595N11136952WA0248302594031
B1952414017594N11136965WA0248302594035
B1952464017610N11136953WA0248602594040
B1952514017616N11136912WA0249702595031
B1952564017617N11136868WA0251102599029
B1953014017605N11136829WA0251102604038
B1953064017584N11136833WA0251302607034
B1953114017577N11136848WA0252102610031
B1953164017584N11136859WA0252802613034
B1953214017601N11136849WA0253502618033
B1953264017618N11136821WA0253902624044
B1953314017601N11136776WA0255302630035
B1953364017575N11136774WA0256002638035
B1953414017577N11136788WA0256902642032
B1953464017595N11136771WA0257302651042
B1953514017592N11136721WA0258102659038
B1953564017564N11136689WA0258802667034
B1954014017542N11136697WA0258802673047
B1954064017540N11136713WA0258402677039
B1954114017537N11136737WA0258502682037
B1954164017526N11136749WA0258202686040
B1954214017517N11136776WA0257502689054
B1954264017520N11136811WA0256802690050
B1954314017531N11136847WA0257002689045
B1954364017540N11136877WA0257202689052
B1954414017545N11136915WA0259102690033
B1954464017553N11136931WA0259202692038
B1954514017577N11136935WA0259502695038
B1954564017599N11136907WA0259902698039
B1955014017588N11136869WA0260302701038
B1955064017556N11136858WA0260702704036
B1955114017548N11136874WA0261302707033
B1955164017557N11136889WA0261102710034
B1955214017579N11136894WA0261202714034
B1955264017605N11136873WA0261702718033
B1955314017607N11136834WA0261202721036
B1955364017582N11136826WA0260702722044
B1955414017557N11136846WA0260002722058
B1955464017533N11136869WA0261202722034
B1955514017518N11136881WA0261502724037
B1955564017507N11136902WA0262502727034
B1956014017499N11136921WA0264002731029
B1956064017496N11136942WA0265502738035
B1956114017508N11136958WA0266802746040
B1956174017526N11136938WA0268502754041
B1956224017523N11136904WA0270802765039
B1956274017504N11136908WA0272002777038
B1956324017519N11136925WA0273602789038
B1956374017537N11136902WA0275102801041
B1956424017526N11136876WA0277102815041
B1956474017510N11136886WA0278602827031
B1956524017511N11136916WA0279802842038
B1956574017524N11136893WA0280402856044
B1957024017508N11136871WA0282302871035
B1957074017488N11136875WA0284102886039
B1957124017503N11136885WA0285102902047
B1957174017509N11136853WA0286702919033
B1957224017501N11136822WA0288802936026
B1957274017493N11136793WA0290002953034
B1957324017481N11136760WA0291202969036
B1957374017464N11136728WA0292602983033
B1957424017441N11136722WA0293402996031
B1957474017432N11136744WA0294803008038
B1957524017448N11136742WA0296603021042
B1957574017436N11136708WA0297503034041
B1958024017417N11136715WA0298903047038
B1958074017425N11136733WA0300003060035
B1958124017443N11136724WA0300903073034
B1958174017441N11136688WA0302303085031
B1958224017416N11136672WA0304103097036
B1958274017406N11136689WA0305903110034
B1958324017426N11136692WA0306603124034
B1958374017442N11136661WA0308003137031
B1958424017437N11136619WA0309003151042
B1958474017417N11136613WA0310703163030
B1958524017430N11136626WA0311903177038
B1958574017452N11136603WA0313103193043
B1959024017442N11136559WA0313503207045
B1959074017421N11136549WA0314203217034
B1959124017420N11136565WA0314703224040
B1959174017431N11136578WA0315803232036
B1959224017453N11136570WA0316503244041
B1959274017446N11136532WA0315903254052
B1959324017423N11136536WA0316403262035
B1959374017412N11136559WA0316803269041
B1959424017410N11136583WA0318003277039
B1959474017423N11136604WA0319203285035
B1959524017437N11136629WA0320503294042
B1959574017458N11136636WA0320703303041
B2000034017473N11136602WA0321803312029
B2000084017463N11136563WA0322203319038
B2000134017442N11136531WA0322803327039
B2000184017418N11136522WA0323503334035
B2000234017401N11136536WA0324203341036
B2000284017407N11136556WA0325203348035
B2000334017429N11136557WA0325803356045
B2000384017433N11136521WA0326403364037
B2000434017409N11136499WA0326603371040
B2000484017383N11136501WA0327003377036
B2000534017378N11136526WA0327603384039
B2000584017400N11136523WA0328303391037
B2001034017405N11136488WA0328603397033
B2001084017395N11136448WA0328903403040
B2001134017378N11136411WA0329203408037
B2001184017353N11136410WA0329503412037
B2001234017346N11136431WA0329803416038
B2001284017346N11136456WA0330003419039
B2001334017353N11136483WA0330003422041
B2001384017371N11136506WA0330403425042
B2001434017392N11136499WA0330703429035
B2001484017407N11136469WA0331003432038
B2001534017402N11136434WA0331103436042
B2001584017379N11136402WA0331003439043
B2002034017358N11136377WV0331000000036
B2002084017335N11136336WA0331103440037
B2002134017316N11136303WA0331103441039
B2002184017296N11136270WA0331303441040
B2002234017279N11136232WA0332403442028
B2002284017257N11136222WA0332003444046
B2002334017259N11136242WA0332903446039
B2002384017283N11136224WA0333403450039
B2002434017274N11136185WA0333603454036
B2002484017250N11136179WA0333703459034
B2002534017236N11136200WA0333903463038
B2002584017229N11136226WA0335103468033
B2003034017229N11136250WA0335803474041
B2003084017248N11136244WA0336303480030
B2003134017243N11136206WA0336603485037
B2003184017219N11136181WA0337303491037
B2003234017195N11136191WA0338103497041
B2003284017210N11136201WA0338703504041
B2003334017213N11136165WA0338903509037
B2003384017187N11136143WA0339203514039
B2003434017170N11136159WA0339403518038
B2003494017174N11136180WA0339503522038
B2003544017192N11136164WA0339303524037
B2003594017192N11136122WA0339503526041
B2004044017184N11136078WA0340303528034
B2004094017157N11136056WA0340903531040
B2004144017152N11136076WA0341203534044
B2004194017170N11136061WA0341803537038
B2004244017160N11136021WA0342203540041
B2004294017130N11136012WA0342503543042
B2004344017116N11136033WA0342603545037
B2004394017131N11136048WA0342403548043
B2004444017153N11136045WA0342803551041
B2004494017177N11136044WA0342203553042
B2004544017204N11136050WA0341803554047
B2004594017235N11136058WA0341803554048
B2005044017263N11136067WA0342103555048
B2005094017286N11136081WA0342503556036
B2005144017303N11136090WA0342603559041
B2005194017319N11136098WA0342603561041
B2005244017338N11136109WA0342303562044
B2005294017358N11136118WA0342403563046
B2005344017379N11136126WA0342503563046
B2005394017401N11136134WA0342503564047
B2005444017425N11136142WA0342703564043
B2005494017446N11136151WA0342503565047
B2005544017467N11136162WA0342403565046
B2005594017493N11136173WA0342003564044
B2006044017516N11136180WA0341503563046
B2006094017539N11136186WA0341003560046
B2006144017565N11136188WA0340503557046
B2006194017590N11136189WA0339903554045
B2006244017615N11136188WA0339203550045
B2006294017642N11136190WA0338303545050
B2006344017668N11136196WA0337403540055
B2006394017696N11136209WA0336703534051
B2006444017722N11136221WA0335503527055
B2006494017748N11136236WA0334603520050
B2006544017774N11136252WA0333303512054
B2006594017799N11136270WA0332403504051
B2007054017826N11136290WA0331403495055
B2007104017855N11136308WA0330403486051
B2007154017885N11136328WA0329503476053
B2007204017912N11136350WA0328503466054
B2007254017941N11136372WA0327403456052
B2007304017967N11136401WA0326403446055
B2007354017991N11136433WA0325803436055
B2007404018014N11136469WA0326103428047
B2007454018032N11136499WA0326103423045
B2007504018056N11136525WA0326503418042
B2007554018080N11136548WA0327503415047
B2008004018098N11136572WA0328503415036
B2008054018114N11136591WA0329103417035
B2008104018133N11136564WA0329103419046
B2008154018116N11136530WA0330103420034
B2008204018093N11136528WA0330403423041
B2008254018080N11136552WA0331203426036
B2008304018093N11136574WA0331603430037
B2008354018115N11136561WA0331803434037
B2008404018128N11136527WA0332103439037
B2008454018113N11136491WA0332403443038
B2008504018092N11136502WA0332503447038
B2008554018097N11136531WA0333303451030
B2009004018113N11136550WA0333303455041
B2009054018139N11136543WA0333503459035
B2009104018141N11136506WA0332803461037
B2009154018115N11136490WA0332803462038
B2009204018106N11136520WA0332503463038
B2009254018128N11136535WA0332703463036
B2009304018150N11136528WA0332603464039
B2009354018164N11136494WA0332103464041
B2009404018169N11136455WA0332403463038
B2009454018173N11136417WA0332503463034
B2009504018168N11136378WA0332303463041
B2009554018146N11136359WA0332003462036
B2010004018118N11136356WA0332403462035
B2010054018096N11136365WA0332503463038
B2010104018081N11136385WA0332903464034
B2010154018088N11136410WA0333103466034
B2010204018111N11136411WA0332903467037
B2010254018132N11136386WA0332803467035
B2010304018132N11136346WA0332603467043
B2010364018112N11136319WA0332703466035
B2010414018085N11136312WA0332503464041
B2010464018061N11136325WA0332903463036
B2010514018047N11136345WA0332703463037
B2010564018051N11136374WA0332303462032
B2011014018058N11136398WA0332003461035
B2011064018072N11136420WA0331503459038
B2011114018094N11136440WA0331103456037
B2011164018118N11136420WA0330803454034
B2011214018121N11136384WA0330103451038
B2011264018126N11136344WA0329603447038
B2011314018124N11136300WA0329403443043
B2011364018111N11136265WA0329203440039
B2011414018093N11136227WA0329303438037
B2011464018074N11136198WA0329403437034
B2011514018047N11136190WA0329403436039
B2011564018031N11136208WA0329803436033
B2012014018020N11136230WA0329903437030
B2012064018019N11136255WA0329703437038
B2012114018031N11136272WA0329403437036
B2012164018050N11136287WA0329603436035
B2012214018075N11136271WA0329303436037
B2012264018093N11136235WA0329703436036
B2012314018096N11136199WA0329403437034
B2012364018081N11136163WA0329303436035
B2012414018060N11136137WA0329003435037
B2012464018036N11136141WA0328803434038
B2012514018026N11136166WA0328503433037
B2012564018024N11136204WA0328303431037
B2013014018026N11136233WA0328303430034
B2013064018042N11136254WA0327703428038
B2013114018064N11136272WA0328403426035
B2013164018085N11136283WA0328903426037
B2013214018106N11136267WA0328703427038
B2013264018108N11136229WA0328103426036
B2013314018096N11136198WA0327603425035
B2013364018073N11136173WA0327003422041
B2013414018047N11136166WA0327003419036
B2013464018022N11136177WA0327303417035
B2013514018011N11136205WA0327203415033
B2013564018006N11136235WA0327203414035
B2014014018013N11136262WA0327203413036
B2014064018026N11136281WA0327103412032
B2014124018051N11136275WA0327003411039
B2014174018064N11136243WA0327203411036
B2014224018063N11136204WA0327603412035
B2014274018039N11136178WA0327703413035
B2014324018010N11136182WA0327703414037
B2014374017988N11136205WA0327703415039
B2014424017983N11136234WA0327503415041
B2014474017998N11136253WA0327203415037
B2014524018019N11136261WA0326703414035
B2014574018038N11136278WA0326003411047
B2015024018053N11136305WA0326403409034
B2015074018064N11136331WA0325603407042
B2015124018075N11136362WA0325003405043
B2015174018089N11136390WA0324203401046
B2015224018103N11136416WA0323503397045
B2015274018118N11136444WA0323003392041
B2015324018134N11136470WA0322303386048
B2015374018150N11136495WA0322003381044
B2015424018166N11136518WA0321603376047
B2015474018182N11136542WA0321103372045
B2015524018201N11136565WA0320503367045
B2015574018220N11136588WA0319703361044
B2016024018242N11136615WA0318603355057
B2016074018263N11136645WA0318103349052
B2016124018283N11136675WA0317303344054
B2016174018303N11136704WA0316603337053
B2016224018322N11136734WA0315603330051
B2016274018342N11136760WA0314603322049
B2016324018366N11136786WA0312803312057
B2016374018387N11136812WA0311403302052
B2016424018410N11136839WA0309703290054
B2016474018435N11136867WA0308203278053
B2016524018464N11136895WA0307003264055
B2016574018492N11136919WA0306103251057
B2017024018519N11136937WA0306203240040
B2017074018541N11136953WA0305103229052
B2017124018572N11136973WA0304303219052
B2017174018603N11136992WA0303303209053
B2017224018631N11137021WA0301903199053
B2017274018656N11137052WA0300703188054
B2017324018684N11137085WA0299703177057
B2017374018716N11137114WA0298903167054
B2017424018745N11137141WA0298003157049
B2017474018775N11137165WA0297203147052
B2017524018802N11137182WA0297503139034
B2017574018821N11137206WA0297803133029
B2018034018836N11137225WA0297603127034
B2018084018865N11137225WA0296803122042
B2018134018899N11137207WA0296803118038
B2018184018920N11137229WA0296703114035
B2018234018919N11137255WA0297103111032
B2018284018911N11137281WA0297203110037
B2018334018889N11137294WA0296903109032
B2018384018862N11137273WA0295903106041
B2018434018864N11137231WA0295403104040
B2018484018893N11137199WA0295203100031
B2018534018924N11137171WA0294503096035
B2018584018958N11137164WA0294203091037
B2019034018960N11137180WA0293903087050
B2019084018945N11137173WA0293803084033
B2019134018928N11137171WA0293303080037
B2019184018907N11137173WA0292303076054
B2019234018879N11137191WA0291803071051
B2019284018856N11137206WA0291203066038
B2019334018846N11137234WA0290403060045
B2019384018846N11137268WA0289503054044
B2019434018849N11137308WA0288403046052
B2019484018860N11137350WA0287703038042
B2019534018864N11137391WA0286503030054
B2019584018850N11137428WA0286303022041
B2020034018837N11137459WA0285203014042
B2020084018833N11137494WA0284503006043
B2020134018832N11137536WA0283802997039
B2020184018807N11137551WA0282802990047
B2020234018775N11137544WA0281802982044
B2020284018734N11137529WA0280802973054
B2020334018697N11137511WA0279802964055
B2020384018657N11137493WA0279202955050
B2020434018618N11137473WA0278302946054
B2020484018582N11137453WA0277502938050
B2020534018560N11137441WV0276700000055
B2020584018512N11137413WA0275802922056
B2021034018483N11137383WA0275702913050
B2021084018456N11137351WA0275302906053
B2021134018431N11137315WA0274502898053
B2021184018398N11137282WA0273302890056
B2021234018365N11137252WA0273302881052
B2021294018342N11137217WA0274802876034
B2021344018323N11137186WA0275302873035
B2021394018300N11137164WA0276602873037
B2021444018280N11137143WA0278402876033
B2021494018260N11137143WA0280002881042
B2021544018277N11137147WA0281602889043
B2021594018284N11137107WA0283902900040
B2022044018263N11137086WA0285402913040
B2022094018266N11137099WA0286802924035
B2022144018288N11137088WA0289002938040
B2022194018283N11137052WA0291002953049
B2022244018282N11137063WA0293302966040
B2022294018302N11137037WA0295602985039
B2022344018287N11137005WA0297603004040
B2022394018294N11137012WA0299203019050
B2022444018298N11136976WA0301203039040
B2022494018287N11136981WA0302703053038
B2022544018306N11136980WA0304703073037
B2022594018313N11136941WA0306603093039
B2023044018296N11136931WA0308103109038
B2023094018302N11136949WA0310303127037
B2023144018323N11136933WA0311703148041
B2023194018323N11136891WA0313503168033
B2023244018304N11136886WA0315103187040
B2023294018313N11136904WA0317003205041
B2023344018331N11136878WA0317903224044
B2023394018319N11136839WA0319903242034
B2023444018296N11136834WA0321803259040
B2023494018303N11136852WA0323603277040
B2023544018327N11136838WA0325103296039
B2023594018325N11136789WA0326503317044
B2024044018305N11136786WA0328403334034
B2024094018304N11136808WA0329903352041
B2024144018325N11136796WA0331303369042
B2024194018322N11136757WA0332403385043
B2024244018299N11136754WA0333903400033
B2024294018297N11136774WA0335003415036
B2024344018314N11136784WA0336003429040
B2024394018341N11136763WA0337303443035
B2024444018343N11136720WA0338703457039
B2024494018324N11136697WA0340303471034
B2024544018306N11136703WA0341803486041
B2024594018313N11136718WA0342603497038
B2025044018339N11136715WA0343203511040
B2025094018357N11136676WA0344203524039
B2025144018359N11136630WA0345803537036
B2025194018344N11136597WA0347403550039
B2025244018323N11136589WA0348803563037
B2025304018310N11136603WA0350503574035
B2025354018309N11136620WA0351203584040
B2025404018334N11136614WA0351203598037
B2025454018357N11136578WA0351503610036
B2025504018372N11136530WA0352403619037
B2025554018362N11136484WA0353403629038
B2026004018343N11136467WA0354603639033
B2026054018323N11136458WA0355903649032
B2026104018303N11136454WA0357303661030
B2026154018284N11136452WA0358703673033
B2026204018277N11136465WA0359803683042
B2026254018300N11136459WA0361303696033
B2026304018313N11136416WA0362403709038
B2026354018297N11136378WA0363203722036
B2026404018274N11136369WA0364503734039
B2026454018262N11136380WA0365303743036
B2026504018276N11136392WA0366603755033
B2026554018298N11136379WA0367403767033
B2027004018309N11136332WA0367903778043
B2027054018294N11136294WA0368503788038
B2027104018272N11136290WA0368703797036
B2027154018267N11136309WA0368603803039
B2027204018285N11136319WA0369303810033
B2027254018306N11136310WA0369503816036
B2027304018328N11136283WA0369403821044
B2027354018325N11136229WA0369803825044
B2027404018297N11136193WA0369803830038
B2027454018268N11136178WA0370803833035
B2027504018242N11136157WA0371303837038
B2027554018219N11136122WA0371803842036
B2028004018193N11136085WA0372303846036
B2028054018171N11136082WA0373203851039
B2028104018177N11136090WA0374603855034
B2028154018196N11136092WA0375303863034
B2028204018218N11136093WA0375303871038
B2028254018243N11136104WA0375103876047
B2028304018267N11136115WA0373903880055
B2028354018300N11136134WA0372903880056
B2028414018331N11136147WA0371903879052
B2028464018363N11136162WA0372703878040
B2028514018381N11136166WA0372503877045
B2028564018399N11136172WA0372603877042
B2029014018422N11136178WA0372603877045
B2029064018446N11136183WA0372403876047
B2029114018470N11136187WA0372103876049
B2029164018496N11136198WA0371803875050
B2029214018522N11136208WA0371503873053
B2029264018548N11136218WA0371403871053
B2029314018574N11136227WA0371103869052
B2029364018598N11136237WA0370303867054
B2029414018618N11136253WA0370003863051
B2029464018638N11136268WA0369403860053
B2029514018657N11136282WA0368703856054
B2029564018677N11136294WA0368003852052
B2030014018697N11136305WA0367003847054
E203001PEV
B2030014018697N11136305WA0367003847054
B2030024018701N11136308WA0366803846054
B2030074018721N11136320WA0365903840053
B2030124018742N11136332WA0364903833054
B2030174018763N11136343WA0363903825055
B2030224018784N11136354WA0362903817055
B2030274018804N11136364WA0361703808056
B2030324018826N11136374WA0360603799053
B2030374018848N11136384WA0359503789055
B2030424018872N11136392WA0358403779055
B2030474018895N11136403WA0357403769054
B2030524018923N11136415WA0356403756054
B2030574018947N11136425WA0355603746054
B2031024018970N11136434WA0354503735055
B2031074018993N11136447WA0353403725054
B2031124019018N11136463WA0352403714058
B2031174019033N11136473WV0351200000058
B2031224019066N11136500WA0350103697061
B2031274019091N11136518WA0348803686060
B2031324019121N11136537WA0347703674055
B2031374019150N11136563WA0346103660067
B2031424019172N11136585WA0346603648034
B2031474019195N11136603WA0345003637063
B2031524019224N11136627WA0344703627046
B2031574019249N11136651WA0343703617055
B2032024019270N11136674WA0342703615054
B2032084019296N11136697WA0341503605054
B2032134019322N11136719WA0340703595053
B2032184019348N11136739WA0339703588054
B2032234019375N11136759WA0339003582050
B2032284019399N11136777WA0337903577055
B2032334019418N11136796WA0337103577049
B2032384019437N11136812WA0335603575052
B2032434019464N11136834WA0334603565059
B2032484019492N11136860WA0334203555053
B2032534019520N11136877WA0333003542059
B2032584019549N11136895WA0332503529052
B2033034019578N11136914WA0331903516053
B2033084019604N11136934WA0331403503057
B2033134019631N11136956WA0331303494054
B2033184019655N11136979WA0330903486053
B2033234019681N11137003WA0330503477055
B2033284019709N11137025WA0329903470058
B2033334019738N11137046WA0329503462053
B2033384019761N11137054WA0328503455046
B2033434019791N11137065WA0327703450051
B2033484019820N11137078WA0326703442055
B2033534019847N11137094WA0325903434052
B2033584019870N11137113WA0324903426052
B2034034019890N11137134WA0323803417057
B2034084019910N11137158WA0323403407050
B2034134019929N11137177WA0322603398054
B2034184019945N11137202WA0322103389051
B2034234019960N11137226WA0321703380051
B2034284019971N11137248WA0320603371055
B2034334019988N11137276WA0320003361048
B2034384020010N11137297WA0319203352062
B2034434020037N11137309WA0318803345051
B2034484020070N11137319WA0318703338056
B2034534020091N11137323WA0318403333044
B2034584020120N11137328WA0317503327052
B2035034020150N11137332WA0316403321059
B2035084020180N11137337WA0316103316048
B2035134020210N11137344WA0315203310056
B2035184020239N11137354WA0314803304053
B2035234020270N11137361WA0314003298055
B2035284020301N11137367WA0313403292052
B2035334020332N11137374WA0312603285053
B2035384020364N11137380WA0312003278054
B2035434020395N11137382WA0311203272053
B2035494020426N11137381WA0310503265053
B2035544020457N11137380WA0309603257053
B2035594020487N11137380WA0308803250052
B2036044020514N11137383WA0308003242054
B2036094020539N11137386WA0307203234053
B2036144020563N11137390WA0306303226053
B2036194020585N11137394WA0305203218054
B2036244020608N11137396WA0304303209052
B2036294020631N11137395WA0303303200054
B2036344020653N11137397WA0301703191058
B2036394020677N11137410WA0300403180063
B2036444020702N11137425WA0300103169052
B2036494020726N11137433WA0299703160058
B2036544020748N11137439WA0299603152049
B2036594020769N11137450WA0298503144061
B2037044020794N11137460WA0298103136054
B2037094020816N11137464WA0296703128050
B2037144020841N11137466WA0294303119068
B2037194020869N11137472WA0292303107063
B2037244020897N11137477WA0289903093065
B2037294020925N11137487WA0288503079057
B2037344020948N11137492WA0287403064055
B2037394020969N11137498WA0287303051053
B2037444020987N11137498WA0286303039054
B2037494021006N11137502WA0285503027051
B2037544021023N11137513WA0284703016053
B2037594021042N11137529WA0284003004052
B2038044021063N11137537WA0283002994053
B2038094021084N11137539WA0281302984048
B2038144021111N11137533WA0280902973029
B2038194021130N11137529WA0280402963042
B2038244021149N11137529WA0280502955044
B2038294021167N11137533WA0280802948041
B2038344021187N11137545WA0281602943046
B2038394021204N11137555WA0282602940039
B2038444021223N11137567WA0282402939038
B2038494021241N11137575WA0283102939036
B2038544021257N11137586WA0282702940053
B2038594021276N11137607WA0283402940046
B2039044021297N11137626WA0283602941050
B2039104021313N11137644WA0283602942056
B2039154021328N11137656WA0284302943039
B2039204021333N11137663WA0284602944042
B2039254021346N11137666WA0286002947031
B2039304021358N11137672WA0287402950035
B2039354021368N11137675WA0288902955038
B2039404021374N11137686WA0289802961036
B2039454021380N11137693WA0290702967032
B2039504021384N11137699WA0291502974033
B2039554021390N11137711WA0292402981043
B2040004021391N11137726WA0292902989035
B2040054021390N11137742WA0292802996038
B2040104021396N11137758WA0293103004036
B2040154021406N11137768WA0294203010033
B2040204021416N11137779WA0294303018045
B2040254021426N11137789WA0294903025038
B2040304021442N11137791WA0295103034035
B2040354021462N11137797WA0294603041038
B2040404021485N11137810WA0293603042057
B2040454021510N11137827WA0293903045046
B2040504021528N11137837WA0293803046039
B2040554021544N11137850WA0295103048028
B2041004021561N11137858WA0295603051040
B2041054021579N11137867WA0296503054038
B2041104021594N11137879WA0297403058038
B2041154021605N11137887WA0298403061037
B2041204021617N11137895WA0299203066037
B2041254021633N11137900WA0299703072034
B2041304021647N11137907WA0300303079034
B2041354021661N11137918WA0300703086034
B2041404021677N11137933WA0301403094042
B2041454021690N11137948WA0302503102035
B2041504021706N11137966WA0303303110036
B2041554021726N11137982WA0303903118040
B2042004021748N11138006WA0304903126034
B2042054021767N11138032WA0305403134041
B2042104021791N11138051WA0306103141036
B2042154021816N11138064WA0306103148047
B2042204021842N11138067WA0307603155029
B2042254021864N11138076WA0308203162046
B2042304021884N11138086WA0308903170038
B2042354021909N11138095WA0308103177042
B2042404021938N11138114WA0307703180052
B2042454021965N11138134WA0309403184030
B2042514021984N11138137WA0309703190031
B2042564022002N11138159WA0310403195037
B2043014022020N11138178WA0311403202029
B2043064022042N11138200WA0313003209039
B2043114022063N11138206WA0314103218037
B2043164022082N11138207WA0316203229026
B2043214022101N11138200WA0317603240031
B2043264022119N11138191WA0318603252034
B2043314022136N11138191WA0318403264039
B2043364022149N11138208WA0316903272059
B2043414022165N11138237WA0316103277054
B2043464022180N11138266WA0315303279056
B2043514022199N11138292WA0314603279050
B2043564022223N11138323WA0314303277058
B2044014022239N11138346WA0314003275048
B2044064022244N11138390WA0315203273034
B2044114022254N11138414WA0315603274045
B2044164022262N11138446WA0316403276035
B2044214022267N11138480WA0317803278041
B2044264022270N11138500WA0318703283042
B2044314022282N11138528WA0319403289040
B2044364022291N11138550WA0320703295037
B2044414022296N11138561WA0321203299038
B2044464022304N11138575WA0322603305043
B2044514022312N11138585WA0324503312032
B2044564022319N11138595WA0326003319031
B2045014022331N11138609WA0327403332041
B2045064022343N11138625WA0329103346033
B2045114022363N11138625WA0331103362035
B2045164022371N11138584WA0332603378040
B2045214022351N11138563WA0334103394044
B2045264022360N11138573WA0335403410048
B2045314022376N11138540WA0337403426037
B2045364022360N11138506WA0338903442038
B2045414022353N11138521WA0340303458045
B2045464022367N11138538WA0341903474035
B2045514022378N11138558WA0343503491030
B2045564022389N11138585WA0344603506047
B2046014022403N11138609WA0346403522038
B2046064022420N11138626WA0347103537041
B2046114022440N11138640WA0346603551040
B2046164022469N11138659WA0345403560057
B2046214022502N11138674WA0345003566056
B2046264022536N11138688WA0344703570058
B2046324022572N11138706WA0344403573054
B2046374022602N11138725WA0343803574054
B2046424022625N11138748WA0342703574053
B2046474022647N11138771WA0341003571058
B2046524022669N11138795WA0339803566056
B2046574022696N11138817WA0339403560057
B2047024022722N11138838WA0341103556034
B2047074022742N11138839WA0341803555044
B2047124022760N11138845WA0342603555042
B2047174022777N11138855WA0343403557042
B2047224022792N11138867WA0343803559046
B2047274022805N11138884WA0343403561048
B2047324022828N11138891WA0343003563034
B2047374022850N11138905WA0341303562061
B2047424022879N11138924WA0341003560045
B2047474022906N11138939WA0339803556064
B2047524022932N11138952WA0340403552041
B2047574022953N11138960WA0340303550038
B2048024022975N11138974WA0339803547059
B2048074023000N11138990WA0339803546051
B2048124023024N11139009WA0339603545049
B2048174023049N11139029WA0338503543056
B2048224023068N11139055WA0337403540053
B2048274023089N11139083WA0336603535050
B2048324023112N11139107WA0335503530057
B2048374023139N11139130WA0334803524052
B2048424023167N11139153WA0333803517053
B2048474023194N11139172WA0332503509056
B2048524023228N11139189WA0331503501050
B2048574023266N11139207WA0331603491046
B2049024023292N11139215WA0332603484035
B2049074023321N11139207WA0333503480029
B2049124023354N11139198WA0335103479033
B2049174023380N11139204WA0337403481030
B2049224023404N11139209WA0339503487036
B2049274023418N11139227WA0341103495038
B2049324023431N11139247WA0342603506032
B2049374023451N11139261WA0344303518030
B2049424023472N11139274WA0344503530044
B2049474023497N11139296WA0344803539043
B2049524023521N11139312WA0345103548042
B2049574023543N11139331WA0345003555045
B2050024023569N11139353WA0344903560043
B2050074023595N11139375WA0344403564053
B2050124023625N11139399WA0343303566057
B2050174023658N11139420WA0341903566055
B2050234023690N11139439WA0341403564048
B2050284023718N11139448WA0342103562035
B2050334023740N11139460WA0342703561042
B2050384023757N11139473WA0342803561046
B2050434023781N11139500WA0344503562037
B2050484023798N11139513WA0346103565041
B2050534023815N11139527WA0347703571039
B2050584023832N11139534WV0350000000035
B2051034023860N11139538WA0351203585042
B2051084023883N11139553WA0352603595036
B2051134023898N11139569WA0352003605047
B2051184023926N11139592WA0351103612057
B2051234023958N11139612WA0350803617056
B2051284023992N11139632WA0350203621053
B2051334024025N11139651WA0349503623055
B2051384024055N11139669WA0348503624055
B2051434024088N11139690WA0348003623055
B2051484024117N11139714WA0347403621057
B2051534024146N11139737WA0346803618051
B2051584024175N11139759WA0346103614055
B2052034024203N11139779WA0345703611053
B2052084024229N11139800WA0345103607054
B2052134024253N11139823WA0344803602051
B2052184024277N11139849WA0344403598055
B2052234024303N11139871WA0344003594055
B2052284024332N11139893WA0344403589051
B2052334024357N11139908WA0344403587035
B2052384024386N11139919WA0344403585038
B2052434024411N11139921WA0344203583041
B2052484024437N11139928WA0344203581034
B2052534024465N11139941WA0343603579043
B2052584024496N11139954WA0343703577040
B2053034024524N11139969WA0343003575044
B2053084024550N11139990WA0341803572049
B2053134024583N11140020WA0341203567055
B2053184024612N11140045WA0340403562053
B2053234024643N11140071WA0339703556052
B2053284024673N11140094WA0338203550059
B2053334024705N11140120WA0338003543048
B2053384024737N11140143WA0337303537053
B2053434024769N11140160WA0337403531031
B2053484024794N11140175WA0337303526043
B2053534024814N11140190WA0337403522036
B2053594024834N11140208WA0338103519029
B2054044024855N11140223WA0337903517038
B2054094024878N11140239WA0337103515040
B2054144024904N11140263WA0336403511042
B2054194024931N11140291WA0336303508045
B2054244024954N11140311WA0335903505042
B2054294024980N11140331WA0336203502030
B2054344025004N11140342WA0336603499036
B2054394025027N11140353WA0337103498036
B2054444025053N11140363WA0337703498028
B2054494025075N11140384WA0337503499042
B2054544025095N11140412WA0338103500037
B2054594025114N11140439WA0339003501032
B2055044025134N11140466WA0339603504034
B2055094025153N11140496WA0339903508039
B2055144025170N11140530WA0340503511036
B2055194025187N11140562WA0341103516033
B2055244025205N11140595WA0341803520034
B2055294025228N11140624WA0342503525033
B2055344025249N11140653WA0342803531037
B2055394025266N11140682WA0344003536032
B2055444025278N11140707WA0345203542041
B2055494025290N11140726WA0346303549036
B2055544025307N11140745WA0347303558030
B2055594025320N11140761WA0348203566037
B2056044025331N11140778WA0348603574036
B2056094025348N11140807WA0348903583033
B2056144025364N11140837WA0349503589043
B2056194025390N11140852WA0350703596036
B2056244025423N11140828WA0352603605032
B2056294025432N11140788WA0353703615046
B2056344025421N11140784WA0355003623037
B2056394025424N11140811WA0356303636039
B2056444025450N11140832WA0357703648036
B2056494025476N11140849WA0359003661040
B2056544025485N11140873WA0360703673034
B2056594025473N11140871WA0361903683039
B2057044025479N11140832WA0362603698040
B2057094025513N11140818WA0363703712035
B2057144025531N11140837WA0364703724038
B2057194025529N11140853WA0366003731037
B2057244025525N11140868WA0367803739037
B2057294025522N11140880WA0369903749039
B2057344025517N11140853WA0370903768045
B2057404025553N11140831WA0371903786036
B2057454025588N11140840WA0374203802039
B2057504025601N11140859WA0376103817042
B2057554025597N11140827WA0377803832050
B2058004025631N11140808WA0379803849043
B2058054025642N11140821WA0381203864041
B2058104025630N11140798WA0382803882038
B2058154025642N11140754WA0384403901039
B2058204025679N11140744WA0385703920035
B2058254025703N11140761WA0387303937032
B2058304025723N11140779WA0387003953042
B2058354025744N11140807WA0386003965037
B2058404025765N11140838WA0383803973060
B2058454025789N11140871WA0382903977050
B2058504025811N11140903WA0381303978060
B2058554025835N11140935WA0380003976059
B2059004025861N11140968WA0378903971052
B2059054025886N11140998WA0377103965068
B2059104025914N11141032WA0375903957058
B2059154025941N11141065WA0375003948061
B2059204025968N11141092WA0374003938061
B2059254025990N11141118WA0373403929051
B2059304026009N11141148WA0372203919060
B2059354026023N11141178WA0371103909056
B2059404026045N11141217WA0369503898067
B2059454026074N11141253WA0368203887061
B2059504026098N11141291WA0367203875057
B2059554026118N11141331WA0366303864065
B2100004026138N11141366WA0366303851037
B2100054026150N11141390WA0363903841062
B2100104026170N11141432WA0362703828059
B2100154026188N11141470WA0361703816057
B2100204026209N11141505WA0360903805057
B2100254026228N11141535WA0359503793061
B2100304026247N11141568WA0358503782050
B2100354026264N11141599WA0357003769055
B2100404026282N11141630WA0355503757056
B2100454026304N11141661WA0354203745052
B2100504026329N11141691WA0352903733056
B2100554026352N11141717WA0351303725055
B2101004026373N11141750WA0350003711054
B2101054026389N11141780WA0348503697055
B2101114026405N11141813WA0347203682059
B2101164026423N11141848WA0345803667055
B2101214026444N11141884WA0344203652055
B2101264026467N11141920WA0342403637056
B2101314026488N11141959WA0341003622053
B2101364026510N11141987WA0340403608038
B2101414026529N11142022WA0338403594058
B2101464026547N11142060WA0337903580056
B2101514026563N11142092WA0337003568048
B2101564026581N11142127WA0335403554057
B2102014026603N11142167WA0334903541057
B2102064026621N11142204WA0334303529051
B2102114026641N11142242WA0332803517054
B2102164026665N11142278WA0331703506050
B2102214026689N11142311WA0330403495053
B2102264026711N11142344WA0328803483051
B2102314026733N11142380WA0326903471068
B2102364026756N11142421WA0326403457053
B2102414026771N11142454WA0325203445060
B2102464026787N11142490WA0324403433050
B2102514026803N11142521WA0322603421065
B2102564026820N11142560WA0321203409064
B2103014026837N11142597WA0319703396055
B2103064026849N11142632WA0319303383051
B2103114026859N11142665WA0319503372040
B2103164026864N11142686WA0317403364052
B2103214026870N11142714WA0315803352056
B2103264026873N11142742WA0314203339056
B2103314026875N11142780WA0312803323043
B2103364026879N11142811WA0310403309058
B2103414026886N11142841WA0308003294054
B2103464026897N11142873WA0305603277051
B2103514026905N11142904WA0303203259054
B2103564026916N11142940WA0301703240048
B2104014026924N11142973WA0299103220058
B2104064026936N11143003WA0297003201049
B2104114026949N11143034WA0295303181047
B2104164026957N11143061WA0293103161060
B2104214026959N11143092WA0291803141046
B2104264026963N11143120WA0289703121056
B2104314026972N11143150WA0288803102052
B2104364026985N11143174WA0288203085049
B2104414026997N11143194WA0286503068058
B2104464027008N11143218WA0285403052049
B2104514027019N11143241WA0284203037052
B2104574027029N11143263WA0283003022053
B2105024027043N11143285WA0281703007053
B2105074027063N11143302WA0280402993050
B2105124027088N11143319WA0278702978055
B2105174027114N11143335WA0277202964048
B2105224027140N11143353WA0275702949054
B2105274027160N11143369WA0274102934046
B2105324027181N11143392WA0273502919033
B2105374027199N11143405WA0272502905041
B2105424027217N11143410WA0272402893034
B2105474027235N11143412WA0272302881037
B2105524027255N11143416WA0272702872037
B2105574027271N11143422WA0274302867030
B2106024027290N11143422WA0275902864032
B2106074027311N11143420WA0278002865030
B2106124027325N11143414WA0279702868030
B2106174027336N11143414WA0280602872040
B2106224027322N11143431WA0281402880043
B2106274027293N11143406WA0282702889036
B2106324027301N11143381WA0283802899034
B2106374027315N11143378WA0285202905033
B2106424027325N11143384WA0286502912036
B2106474027335N11143392WA0287102920035
B2106524027353N11143390WA0287102934039
B2106574027373N11143383WA0288102946028
B2107024027393N11143379WA0289002957033
B2107074027410N11143379WA0290702965032
B2107124027425N11143357WA0291102977052
B2107174027393N11143340WA0292702989036
B2107224027377N11143357WA0293903000032
B2107274027359N11143377WA0294603010036
B2107324027343N11143396WA0295403020030
B2107374027330N11143420WA0296503029041
B2107424027318N11143445WA0298503039038
B2107474027299N11143465WA0300003051045
B2107524027271N11143450WA0300703063038
B2107574027279N11143411WA0301803074032
B2108024027294N11143381WA0303703087031
B2108074027305N11143354WA0304503101039
B2108124027321N11143329WA0306003114041
B2108174027329N11143340WA0307603124045
B2108224027302N11143341WA0308503138041
B2108274027297N11143300WA0309403151039
B2108324027313N11143287WA0310803164038
B2108374027331N11143281WA0312803177040
B2108424027346N11143279WA0315003188031
B2108474027361N11143283WA0316803204031
B2108534027356N11143306WA0317703219042
B2108584027343N11143326WA0319803237035
B2109034027333N11143349WA0321703254037
B2109084027300N11143340WA0322903271042
B2109134027303N11143304WA0324903288046
B2109184027317N11143302WA0326903299034
B2109234027321N11143323WA0328203317047
B2109284027297N11143330WA0328903335039
B2109334027279N11143293WA0329803351044
B2109384027299N11143281WA0331403366032
B2109434027321N11143281WA0332303380044
B2109484027344N11143272WA0332703393041
B2109534027371N11143267WA0332303404039
B2109584027407N11143263WA0331403412063
B2110034027445N11143253WA0332103418043
B2110084027479N11143242WA0331703424059
B2110134027511N11143237WA0331403428051
B2110184027547N11143233WA0331303431054
B2110234027580N11143231WA0331203433052
B2110284027616N11143229WA0331103435052
B2110334027654N11143230WA0330603436054
B2110384027691N11143237WA0329503436051
B2110434027730N11143218WA0328503433057
B2110484027767N11143198WA0327803429054
B2110534027802N11143173WA0328603425039
B2110584027815N11143151WA0328303422052
B2111034027836N11143131WA0328403419033
B2111084027869N11143108WA0327103415058
B2111134027894N11143095WA0327703412031
B2111184027921N11143075WA0326803409053
B2111234027945N11143048WA0327503405042
B2111284027967N11143028WA0328803405037
B2111334027991N11142998WA0328703405036
B2111384028020N11142971WA0328503406035
B2111434028049N11142963WA0328803406037
B2111484028080N11142964WA0327803406047
B2111534028113N11142962WA0327003405045
B2111584028151N11142960WA0325503402055
B2112034028192N11142963WA0324103397051
B2112084028234N11142972WA0323103391053
B2112134028275N11142981WA0322103384047
B2112184028316N11142986WA0321003376050
B2112244028357N11142995WA0319703368056
B2112294028397N11143008WA0318603359051
B2112344028437N11143024WA0317803349048
B2112394028472N11143038WA0316103340057
B2112444028510N11143055WA0315103329049
B2112494028547N11143074WA0314003319053
B2112544028577N11143100WA0312803309058
B2112594028607N11143126WA0313003299039
B2113044028632N11143144WA0311103290059
B2113094028662N11143165WA0309603280051
B2113144028693N11143187WA0308603270052
B2113194028725N11143209WA0307503259057
B2113244028756N11143230WA0306403249053
B2113294028782N11143253WA0305503238048
B2113344028807N11143273WA0304103227060
B2113394028831N11143300WA0304503217044
B2113444028846N11143318WA0305003208031
B2113494028857N11143329WA0304303204042
B2113544028872N11143340WA0303403197040
B2113594028893N11143361WA0302303189028
B2114044028910N11143384WA0300203180050
B2114094028939N11143408WA0298603170055
B2114144028972N11143433WA0297503159053
B2114194029003N11143456WA0296003149053
B2114244029041N11143489WA0294703135053
B2114294029071N11143518WA0293403123055
B2114344029102N11143546WA0291703110053
B2114394029135N11143579WA0290703097055
B2114444029167N11143605WA0289903085053
B2114494029198N11143631WA0289303073050
B2114544029228N11143660WA0288303061054
B2114594029259N11143690WA0287903050054
B2115044029287N11143715WA0287703041047
B2115094029309N11143737WA0287303032042
B2115144029333N11143759WA0286303025054
B2115194029364N11143784WA0286003017055
B2115244029394N11143800WA0285803009048
B2115294029428N11143814WA0285003002053
B2115344029460N11143830WA0284402994052
B2115394029492N11143849WA0283702987053
B2115444029524N11143866WA0283002979052
B2115504029556N11143881WA0282102972050
B2115554029588N11143895WA0281402965055
B2116004029618N11143914WA0280802957052
B2116054029648N11143932WA0279702950057
B2116104029679N11143949WA0279002943053
B2116154029712N11143964WA0277902934056
B2116204029746N11143980WA0277102926054
B2116254029781N11143995WA0276502918052
B2116304029817N11144007WA0275602910058
B2116354029850N11144015WA0274802901048
B2116404029886N11144027WA0273302892064
B2116454029928N11144040WA0272302883060
B2116504029968N11144048WA0271502873050
B2116554030006N11144057WA0270302863055
B2117004030045N11144060WA0269102853045
B2117054030081N11144065WA0268902843032
B2117104030115N11144074WA0267302834060
B2117154030153N11144090WA0266802826047
B2117204030195N11144099WA0265902817053
B2117254030241N11144106WA0264802809052
B2117304030290N11144110WA0264302800048
B2117354030334N11144113WA0265002792028
B2117404030371N11144106WA0265302786033
B2117454030408N11144100WA0265402781034
B2117504030445N11144105WA0265602778031
B2117554030478N11144116WA0265502775034
B2118004030490N11144143WA0265802773034
B2118054030487N11144160WA0265802772032
B2118104030474N11144147WA0265902770034
B2118154030471N11144116WA0266502769032
B2118204030468N11144083WA0266902769029
B2118254030462N11144059WA0266802769036
B2118304030465N11144073WA0266802769035
B2118354030490N11144087WA0267702770029
B2118404030516N11144102WA0268002772035
B2118454030533N11144124WA0269202775032
B2118504030548N11144149WA0270502779031
B2118554030558N11144174WA0271902784037
B2119004030557N11144189WA0273102788033
B2119054030550N11144180WA0273902793034
B2119104030543N11144167WA0274102798032
B2119154030545N11144136WA0273302808048
B2119204030579N11144125WA0274802815026
B2119254030598N11144151WA0276102823039
B2119304030588N11144151WA0276102829036
B2119364030601N11144113WA0276602836032
B2119414030611N11144078WA0277802843037
B2119464030605N11144075WA0278402848032
B2119514030617N11144103WA0278902856031
B2119564030631N11144130WA0278802864037
B2120014030620N11144130WA0278602869043
B2120064030626N11144090WA0278802875035
B2120114030627N11144052WA0278802880030
B2120164030615N11144030WA0278102883044
B2120214030611N11144050WA0278302884035
B2120264030606N11144074WA0278202885040
B2120314030601N11144092WV0277800000044
B2120364030592N11144120WA0277002886048
B2120414030580N11144154WA0276702884046
B2120464030569N11144183WA0277402881035
B2120514030565N11144210WA0278602881028
B2120564030568N11144234WA0280002882038
B2121014030579N11144261WA0281102886042
B2121064030577N11144279WA0282902891033
B2121114030569N11144271WA0284002896040
B2121164030594N11144245WA0285102906039
B2121214030621N11144260WA0286302917038
B2121264030618N11144273WA0287502924038
B2121314030630N11144243WA0288502935042
B2121364030662N11144237WA0290102947041
B2121414030678N11144264WA0291702959040
B2121464030669N11144267WA0293302967035
B2121514030689N11144233WA0294602985040
B2121564030716N11144247WA0296002999034
B2122014030712N11144266WA0297503010035
B2122064030703N11144259WA0298803020046
B2122114030731N11144246WA0300003037050
B2122164030737N11144269WA0301503052039
B2122214030725N11144259WA0303403064042
B2122264030746N11144229WA0304903081040
B2122314030767N11144246WA0305903097037
B2122364030756N11144256WA0307103110038
B2122414030755N11144228WA0308103125051
B2122464030775N11144244WA0309303139042
B2122514030761N11144248WA0310703153036
B2122564030769N11144220WA0311303166056
B2123014030784N11144241WA0313303182040
B2123064030772N11144236WA0315103192037
B2123114030790N11144208WA0316203210043
B2123164030809N11144232WA0317703226037
B2123214030796N11144234WA0319203239042
B2123274030798N11144195WA0320303253043
B2123324030822N11144210WA0320903266043
B2123374030814N11144220WA0322603274032
B2123424030810N11144191WA0322903287052
B2123474030836N11144198WA0324703300030
B2123524030846N11144216WA0325603312037
B2123574030856N11144242WA0326203324038
B2124024030870N11144267WA0324503330044
B2124074030886N11144314WA0322703333059
B2124124030897N11144345WA0321003337054
B2124174030916N11144375WA0320103339049
B2124224030932N11144401WA0318503338057
B2124274030950N11144429WA0317303334053
B2124324030972N11144453WA0316003328053
B2124374030996N11144479WA0314803320051
B2124424031014N11144501WA0313903312050
B2124474031031N11144523WA0314403304036
B2124524031042N11144537WA0315003298033
B2124574031052N11144551WA0315403295034
B2125024031064N11144565WA0315703291032
B2125074031079N11144587WA0316003289042
B2125124031097N11144604WA0315803287038
B2125174031117N11144621WA0315703286037
B2125224031134N11144631WA0315303285042
B2125274031155N11144653WA0316403284032
B2125324031174N11144668WA0317203285032
B2125374031189N11144685WA0317603287030
B2125424031210N11144702WA0318503289032
B2125474031234N11144714WA0319503293036
B2125524031262N11144731WA0320703299036
B2125574031290N11144744WA0322103305033
B2126024031315N11144759WA0322303312038
B2126074031325N11144790WA0322503318035
B2126124031330N11144822WA0323003324039
B2126174031335N11144851WA0323203330032
B2126224031342N11144886WA0323303335040
B2126274031353N11144921WA0323503339038
B2126324031357N11144959WA0324403344036
B2126374031360N11144995WA0325403348031
B2126424031367N11145029WA0325803354037
B2126474031375N11145064WA0326703359033
B2126524031375N11145097WA0327503365035
B2126574031368N11145128WA0328803371038
B2127024031362N11145154WA0330603380034
B2127084031362N11145186WA0331903389037
B2127134031363N11145213WA0333503400029
B2127184031368N11145243WA0334803411038
B2127234031372N11145270WA0335603422034
B2127284031392N11145296WA0337103433033
B2127334031410N11145324WA0338203444045
B2127384031398N11145332WA0339903454047
B2127434031422N11145319WA0341603466047
B2127484031427N11145346WA0343303480047
B2127534031426N11145322WA0344703495049
B2127584031450N11145339WA0347203511033
B2128034031439N11145355WA0348903529044
B2128084031441N11145324WA0350703548040
B2128134031470N11145330WA0352803566045
B2128184031466N11145355WA0354603584043
B2128234031459N11145329WA0356903603040
B2128284031487N11145324WA0359203623034
B2128334031499N11145348WA0360403644051
B2128384031481N11145347WA0362703662042
B2128434031497N11145321WA0365103681042
B2128484031516N11145335WA0366503700046
B2128534031500N11145346WA0368003718043
B2128584031508N11145313WA0369503733051
B2129034031517N11145334WA0370903751042
B2129084031497N11145338WA0372103771039
B2129134031474N11145333WA0374303790042
B2129184031488N11145304WA0376603809041
B2129234031501N11145320WA0377903828046
B2129284031483N11145326WA0379803847038
B2129334031481N11145295WA0381703866046
B2129384031505N11145295WA0383503885045
B2129434031494N11145323WA0385303904032
B2129484031472N11145325WA0385503924053
B2129534031486N11145312WA0387503937022
B2129584031505N11145313WA0388803952033
B2130034031528N11145314WA0389103967042
B2130084031557N11145320WA0389803982041
B2130134031586N11145322WA0389303994045
B2130184031626N11145328WA0388404002067
B2130234031669N11145330WA0388204008050
B2130284031712N11145337WA0387404012060
B2130334031755N11145344WA0386704015059
B2130384031798N11145352WA0386004015056
B2130434031842N11145355WA0384804014058
B2130484031887N11145356WA0383804011057
B2130534031930N11145360WA0383304006055
B2130584031969N11145361WA0382804001055
B2131044032008N11145361WA0382603996056
B2131094032045N11145362WA0382503991056
B2131144032082N11145365WA0382603987057
B2131194032118N11145371WA0382903984055
B2131244032153N11145378WA0382603982058
B2131294032187N11145385WA0381903980055
B2131344032222N11145392WA0380403977060
B2131394032266N11145402WA0378703972067
B2131444032309N11145407WA0377403965061
B2131494032355N11145408WA0375903957063
B2131544032401N11145406WA0374503949065
B2131594032448N11145405WA0373303939061
B2132044032496N11145407WA0372003928060
B2132094032542N11145419WA0371903918054
B2132144032582N11145423WA0370503909059
B2132194032624N11145434WA0370003899050
B2132244032650N11145438WA0369103890041
B2132294032689N11145448WA0367503879063
B2132344032729N11145456WA0366603869058
B2132394032776N11145468WA0365003857064
B2132444032822N11145485WA0363403845060
B2132494032863N11145515WA0362903834043
B2132544032903N11145541WA0361003823062
B2132594032943N11145562WA0360703811046
B2133044032981N11145582WA0358903799061
B2133094033021N11145606WA0358003787054
B2133144033063N11145624WA0356403775056
B2133194033117N11145648WA0354603761058
B2133244033165N11145670WA0353503747057
B2133294033216N11145687WA0353003734026
B2133344033255N11145687WA0351403722049
B2133394033306N11145713WA0351603709053
B2133444033339N11145730WA0351603699051
B2133494033385N11145754WA0351303690054
B2133544033428N11145775WA0350403682058
B2133594033474N11145797WA0349703675053
B2134044033521N11145816WA0348303667057
B2134094033569N11145824WA0347503659051
B2134144033617N11145837WA0346003650056
B2134194033659N11145853WA0345703641053
B2134244033697N11145862WA0344503632059
B2134294033734N11145877WA0343703623050
B2134344033771N11145895WA0342603614056
B2134394033806N11145911WA0341703605056
B2134444033838N11145925WA0340803595049
B2134494033869N11145940WA0339303584054
B2134554033905N11145949WA0338603574051
B2135004033944N11145961WA0337603563052
B2135054033984N11145975WA0336303553054
B2135104034025N11145985WA0335403542053
B2135154034064N11145993WA0334103531053
B2135204034103N11146001WA0332603519054
B2135254034147N11146005WA0331303507060
B2135304034190N11146010WA0330603494056
B2135354034231N11146014WA0329903483057
B2135404034272N11146020WA0329103472055
B2135454034312N11146023WA0328703462056
B2135504034350N11146028WA0328203452053
B2135554034389N11146035WA0327703444055
B2136004034428N11146037WA0327703436048
B2136054034465N11146042WA0327003429060
B2136104034504N11146052WA0327003423052
B2136154034542N11146056WA0326503418055
B2136204034582N11146055WA0326303412050
B2136254034622N11146050WA0325203407057
B2136304034664N11146047WA0324403401053
B2136354034709N11146049WA0323303395061
B2136404034749N11146057WA0322403387053
B2136454034790N11146066WA0321403380058
B2136504034834N11146072WA0320003371058
B2136554034879N11146082WA0319103362060
B2137004034923N11146087WA0319003353044
B2137054034964N11146089WA0317503343054
B2137104035009N11146096WA0316403334058
B2137154035052N11146101WA0315303324062
B2137204035093N11146110WA0315103315054
B2137254035135N11146116WA0314103306064
B2137304035178N11146121WA0313903298056
B2137354035223N11146127WA0313103290057
B2137404035266N11146131WA0312303282057
B2137454035307N11146130WA0310903273060
B2137504035351N11146133WA0309803263053
B2137554035395N11146134WA0308503253058
B2138004035437N11146137WA0307103242062
B2138054035480N11146144WA0306003231058
B2138104035522N11146150WA0304703219063
B2138154035565N11146157WA0304203208061
B2138204035604N11146164WA0303503198052
E213822PEV
B2138224035618N11146165WA0302903194050
B2138234035626N11146164WA0302503192050
B2138294035647N11146178WA0300703182059
B2138344035612N11146197WA0299703170043
B2138394035573N11146215WA0298003158067
B2138444035533N11146235WA0297803147047
B2138494035495N11146250WA0296203135057
B2138544035456N11146262WA0294803123061
B2138594035419N11146277WA0293503110057
B2139044035384N11146298WA0292003097059
B2139094035352N11146319WA0290703083060
B2139144035319N11146338WA0289203070054
B2139194035284N11146356WA0288003056058
B2139244035248N11146370WA0286703042056
B2139294035210N11146380WA0285203028058
B2139344035174N11146394WA0283903013058
B2139394035139N11146407WA0282903000056
B2139444035107N11146418WA0282202987046
B2139494035075N11146428WA0280802975055
B2139544035040N11146439WA0279402963062
B2139594035003N11146450WA0278302951058
B2140044034967N11146454WA0277202940049
B2140094034931N11146458WA0275702928050
B2140144034892N11146466WA0274402915057
B2140194034852N11146478WA0274002903046
B2140244034816N11146491WA0273502892052
B2140294034782N11146504WA0272902883052
B2140344034747N11146522WA0272602877051
B2140394034712N11146551WA0272402868054
B2140444034678N11146579WA0272502860032
B2140494034654N11146605WA0271702854044
B2140544034609N11146634WA0270902846054
B2140594034571N11146660WA0270302839053
B2141054034531N11146684WA0269602832053
B2141104034493N11146708WA0268802825051
B2141154034457N11146731WA0268002818048
B2141204034421N11146750WA0266602811055
B2141254034386N11146762WA0265402803054
B2141304034348N11146772WA0264202794050
B2141354034305N11146780WA0263202784055
B2141404034256N11146785WA0262602773048
B2141454034217N11146795WA0262102764052
B2141504034180N11146804WA0261302756052
B2141554034142N11146806WA0260702747050
B2142004034104N11146805WA0259602739055
B2142054034068N11146806WA0258802731053
B2142104034031N11146807WA0258102722052
B2142154033993N11146805WA0257102714053
B2142204033953N11146805WA0256102705051
B2142254033913N11146804WA0255002696051
B2142304033874N11146806WA0253602687057
B2142354033828N11146808WA0252402676060
B2142404033784N11146809WA0251402665058
B2142454033742N11146813WA0250602654059
B2142504033703N11146815WA0250402645054
B2142554033664N11146818WA0249102635060
B2143004033623N11146821WA0248402626060
B2143064033584N11146824WA0247302617057
B2143114033545N11146829WA0246002607059
B2143164033506N11146838WA0244702597059
B2143214033467N11146850WA0243402586058
B2143264033429N11146863WA0242002574057
B2143314033389N11146877WA0240402562062
B2143364033351N11146883WA0240202550043
B2143414033319N11146889WA0238702539054
B2143464033283N11146889WA0238402528047
B2143514033254N11146893WA0238302518039
B2143564033224N11146894WA0238002511038
B2144014033191N11146895WA0237602503039
B2144064033162N11146900WA0237702497036
B2144114033136N11146908WA0237902491035
B2144164033111N11146922WA0239002487030
B2144214033083N11146929WA0240602485034
B2144264033055N11146933WA0241502487039
B2144314033061N11146949WA0242202490037
B2144364033073N11146923WA0243402494037
B2144414033056N11146891WA0245002500038
B2144464033032N11146902WA0245902508039
B2144514033043N11146903WA0247002517043
B2144564033026N11146875WA0248402526035
B2145014033003N11146892WA0249502537038
B2145064033014N11146896WA0250402546040
B2145114033000N11146868WA0251502557038
B2145164032977N11146884WA0252502567039
B2145214032989N11146893WA0253102575034
B2145264032987N11146870WA0254002585039
B2145314032962N11146885WA0254702594037
B2145364032933N11146918WA0255302604036
B2145414032910N11146944WA0256502613034
B2145464032889N11146965WA0255302621040
B2145514032858N11146998WA0254102625051
B2145564032827N11147032WA0253102627055
B2146014032798N11147064WA0252302628047
B2146064032769N11147094WA0251102626055
B2146114032738N11147123WA0250002623049
B2146164032704N11147152WA0249402618048
B2146214032670N11147179WA0248902613051
B2146264032636N11147211WA0248302609045
B2146314032603N11147250WA0247802604050
B2146364032574N11147286WA0246802598057
B2146414032545N11147330WA0245902592058
B2146464032519N11147373WA0245102585060
B2146514032493N11147411WA0244802578053
B2146564032467N11147448WA0243702571053
B2147014032440N11147487WA0242702564057
B2147074032416N11147532WA0241602555056
B2147124032391N11147574WA0240702546051
B2147174032362N11147613WA0239802536052
B2147224032333N11147652WA0238802527048
B2147274032307N11147697WA0237402517062
B2147324032277N11147744WA0236302507052
B2147374032248N11147791WA0235402496047
B2147424032224N11147833WA0232902486062
B2147474032193N11147883WA0231202472065
B2147524032160N11147929WA0229902459061
B2147574032127N11147973WA0228202445056
B2148024032096N11148015WA0227102432053
B2148074032064N11148056WA0226402418049
B2148124032035N11148097WA0226302406046
B2148174032006N11148136WA0224902395053
B2148224031973N11148178WA0224302384048
B2148274031936N11148217WA0223902373051
B2148324031900N11148257WA0223402363050
B2148374031862N11148297WA0223302354045
B2148424031823N11148317WA0223302347035
B2148474031784N11148330WA0223102341033
B2148524031748N11148343WA0223002335031
B2148574031711N11148355WA0223602331030
B2149024031679N11148373WA0224802329023
B2149074031658N11148399WA0225202329037
B2149124031643N11148428WA0225702330033
B2149174031626N11148460WA0226402332031
B2149224031604N11148493WA0226802334040
B2149274031576N11148531WA0227202337036
B2149324031538N11148572WA0227402340041
B2149374031507N11148604WA0227402343040
B2149424031475N11148638WA0227702345041
B2149474031446N11148674WA0227702347040
B2149524031413N11148711WA0227202349053
B2149574031382N11148753WA0227102350050
B2150024031351N11148795WA0226402350054
B2150074031320N11148839WA0226202349048
B2150124031290N11148882WA0225702347050
B2150174031261N11148921WA0224602345052
B2150224031228N11148963WA0223602341049
B2150274031196N11149006WA0222702336052
B2150324031163N11149049WA0222802331044
B2150374031134N11149087WA0222802327044
B2150434031107N11149125WA0223002324039
B2150484031083N11149163WA0222802320044
B2150534031057N11149200WA0222402317045
B2150584031030N11149243WA0221502313054
B2151034031000N11149288WA0221202309052
B2151084030968N11149333WA0221102305050
B2151134030939N11149374WA0220202301053
B2151184030912N11149415WA0219502296049
B2151234030888N11149453WA0218202293047
B2151284030861N11149492WA0216602287051
B2151334030833N11149534WA0215302279051
B2151384030806N11149572WA0213202269054
B2151434030775N11149621WA0211202257059
B2151484030744N11149672WA0209302244056
B2151534030708N11149726WA0207502229056
B2151584030674N11149779WA0205802213057
B2152034030642N11149834WA0204502197054
B2152084030613N11149888WA0203602181055
B2152134030587N11149939WA0202702166045
B2152184030558N11149986WA0201902152050
B2152234030528N11150030WA0201102139052
B2152284030494N11150075WA0201202128045
B2152334030459N11150117WA0201402119043
B2152384030427N11150158WA0201702111042
B2152434030395N11150198WA0201802106042
B2152484030364N11150240WA0201902103042
B2152534030326N11150293WA0201202099050
B2152584030293N11150342WA0201202097050
B2153034030259N11150392WA0201102094050
B2153084030225N11150437WA0201902093038
B2153134030193N11150480WA0202002094049
B2153184030164N11150531WA0202502094049
B2153234030140N11150571WA0202802095036
B2153284030113N11150619WA0202202095051
B2153334030087N11150668WA0202102094053
B2153384030055N11150715WA0202402094049
B2153434030022N11150755WA0202302093047
B2153484029988N11150798WA0201902092061
B2153534029954N11150846WA0200902090054
B2153584029920N11150899WA0199302086059
B2154034029888N11150950WA0199702081044
B2154084029859N11150988WA0199402078057
B2154134029825N11151035WA0199202075042
B2154194029790N11151084WA0197902071057
B2154244029754N11151130WA0197802066039
B2154294029720N11151174WA0197202061050
B2154344029688N11151220WA0197402057053
B2154394029655N11151271WA0197502053049
B2154444029625N11151322WA0197002050039
B2154494029601N11151360WA0195102047053
B2154544029573N11151403WA0194502042045
B2154594029546N11151453WA0194002037050
B2155044029523N11151497WA0193802032049
B2155094029499N11151541WA0193702027039
B2155144029476N11151577WA0191702021060
B2155194029448N11151622WA0190902013050
B2155244029421N11151665WA0189602005060
B2155294029389N11151711WA0189001995053
B2155344029358N11151761WA0188801987049
B2155394029324N11151812WA0188901980057
B2155444029288N11151861WA0189201974059
B2155494029253N11151904WA0188501971052
B2155544029219N11151951WA0187901967055
B2155594029189N11151998WA0187901963053
B2156044029160N11152045WA0188001959058
B2156094029130N11152092WA0187701957054
B2156144029097N11152138WA0186601953057
B2156194029065N11152183WA0185701948058
B2156244029031N11152232WA0185301942057
B2156294028997N11152277WA0184401937057
E215633PEV
B2156334028962N11152325WA0184101930057
B2156344028955N11152334WA0184001929056
B2156394028923N11152380WA0183201923057
B2156444028893N11152424WA0183201917033
B2156494028867N11152457WA0182801911043
B2156544028840N11152491WA0182801907038
B2156594028816N11152527WA0182601903035
B2157044028792N11152564WA0182301899040
B2157094028769N11152604WA0181801895040
B2157144028743N11152644WA0181601891037
B2157194028718N11152679WA0181001887038
B2157244028694N11152724WA0181101883039
B2157294028668N11152761WA0182001880044
B2157344028642N11152792WA0183001880043
B2157394028619N11152827WA0184701882033
B2157454028599N11152864WA0185901886033
B2157504028577N11152903WA0186601891041
B2157554028554N11152945WA0187001896041
B2158004028530N11152985WA0188401902037
B2158054028507N11153021WA0190301909028
B2158104028485N11153054WA0191201919030
B2158154028464N11153091WA0191601928037
B2158204028452N11153129WA0191301935037
B2158254028448N11153171WA0190801941038
B2158304028444N11153211WA0189801944043
B2158354028441N11153251WA0188801947040
E215837PEV
B2158374028440N11153267WA0188401947042
B2158384028438N11153276WA0188201947042
B2158434028435N11153314WA0187301947038
B2158484028443N11153310WA0186601946034
B2158534028442N11153286WA0185801942036
B2158584028441N11153261WA0185101938037
B2159034028443N11153237WA0184401933036
B2159084028446N11153216WA0184101928035
B2159134028450N11153199WA0183501924040
B2159184028451N11153173WA0183201917037
B2159234028451N11153146WA0183301911037
B2159284028455N11153123WA0183501911038
B2159334028458N11153098WA0183901912037
B2159384028465N11153077WA0184201913039
B2159434028469N11153055WA0184701914039
B2159484028472N11153032WA0185001915037
B2159534028473N11153009WA0184801915041
B2159584028473N11152986WA0184401915040
B2200034028478N11152957WA0184301914036
B2200084028481N11152932WA0184201912039
B2200134028482N11152906WA0184301910040
B2200184028482N11152888WA0184701910031
B2200234028481N11152863WA0185601910033
B2200284028481N11152840WA0186101911035
B2200334028486N11152821WV0186500000033
B2200384028492N11152799WA0187101914032
B2200434028498N11152787WA0188501917029
B2200484028504N11152780WA0189401920033
B2200534028507N11152769WA0189201925038
B2200584028471N11152757WA0188901931037
B2201034028440N11152787WA0189601935030
B2201084028421N11152823WA0190401939032
B2201134028412N11152854WA0191101944033
B2201184028413N11152878WA0191701948031
B2201234028423N11152895WA0192101953034
B2201284028432N11152906WA0192101958037
B2201334028441N11152904WA0192401963035
B2201384028449N11152900WA0192701968032
B2201444028454N11152904WA0193401973032
B2201494028452N11152929WA0194301979040
B2201544028439N11152966WA0195601986033
B2201594028428N11153001WA0196801992031
B2202044028422N11153035WA0197901998036
B2202094028427N11153046WA0199602003030
B2202144028430N11153041WA0201602009032
B2202194028432N11153046WA0202502016035
B2202244028437N11153054WA0202802024036
B2202294028442N11153062WA0203002033033
B2202344028446N11153064WA0203102041033
B2202394028449N11153067WA0202802049034
B2202444028451N11153079WA0202302055034
B2202494028455N11153089WA0202002061034
B2202544028459N11153100WA0202302066034
B2202594028462N11153104WA0202502070037
B2203044028464N11153107WA0202702074033
B2203094028468N11153106WA0203002077030
B2203144028471N11153109WA0202302080044
B2203194028453N11153141WA0201702084043
B2203244028407N11153142WA0201602088037
B2203294028357N11153147WA0202002089035
B2203344028323N11153179WA0202302091037
B2203394028318N11153204WA0202402091032
B2203444028318N11153216WA0202002091034
B2203494028318N11153236WA0200802090043
B2203544028311N11153268WA0199702088042
B2203594028317N11153264WA0198902086040
B2204044028325N11153248WA0198402082040
B2204094028330N11153242WA0197702079042
B2204144028341N11153239WA0197102074038
B2204194028349N11153232WA0196402069041
B2204244028356N11153228WA0195302064039
B2204294028364N11153230WA0194802058034
B2204344028369N11153231WA0193802052039
B2204394028375N11153219WA0192702045038
B2204444028383N11153214WA0191802038036
B2204494028383N11153240WA0190902025040
B2204544028379N11153273WA0190202013040
B2204594028375N11153305WA0189402003038
B2205044028379N11153332WA0188501993037
B2205094028387N11153347WA0187801987039
B2205144028397N11153343WA0187401980040
B2205194028398N11153318WA0186401970044
B2205244028395N11153284WA0185401960039
B2205294028392N11153248WA0185001951039
B2205344028399N11153232WA0185301945038
B2205394028407N11153236WA0185901942034
B2205444028416N11153240WA0186401939034
B2205494028426N11153244WA0186901937030
B2205554028438N11153247WA0187001936041
B2206004028447N11153244WA0187701935032
B2206054028456N11153241WA0187601935039
B2206104028466N11153226WA0188001935038
B2206154028477N11153218WA0188301935040
B2206204028489N11153223WA0188901936032
B2206254028502N11153227WA0190301939035
B2206304028509N11153229WA0191701942036
B2206354028521N11153211WA0193501951028
B2206404028532N11153188WA0195001961041
B2206454028544N11153180WA0196701969029
B2206504028551N11153186WA0197301976040
B2206554028542N11153219WA0198201991036
B2207004028503N11153232WA0198702006032
B2207054028463N11153221WA0199602018035
B2207104028437N11153188WA0201002030034
B2207154028437N11153160WA0202302042039
B2207204028444N11153160WA0203502048034
B2207254028430N11153188WA0204202059039
B2207304028389N11153199WA0205002069033
B2207354028353N11153173WA0206002079032
B2207404028341N11153137WA0207202088029
B2207454028345N11153119WA0208202095037
B2207504028350N11153117WA0209802102035
B2207554028346N11153137WA0211002115037
B2208004028313N11153158WA0211702130035
B2208054028268N11153140WA0212402143036
B2208104028248N11153100WA0213302156036
B2208154028250N11153079WA0214602164034
B2208204028255N11153078WA0215502171033
B2208254028262N11153080WA0216202179035
B2208304028270N11153084WA0216902187035
B2208354028273N11153082WA0218202195033
B2208404028276N11153078WA0219902203030
B2208454028280N11153079WA0221202212031
B2208504028286N11153076WA0222402222034
B2208554028291N11153065WA0223402232033
B2209004028295N11153053WA0223902242038
B2209054028300N11153047WA0223602252036
B2209104028308N11153044WA0222902260037
B2209154028317N11153033WA0221702268051
B2209204028333N11153017WA0221402276045
B2209254028349N11153000WA0219702279057
B2209304028363N11152977WA0219702281043
B2209354028377N11152951WA0219502280054
B2209404028389N11152922WA0219702280050
B2209454028398N11152891WA0219502279045
B2209504028408N11152858WA0218902277045
B2209554028418N11152832WA0218802276040
B2210014028427N11152809WA0218502275037
B2210064028435N11152788WA0218402273045
B2210114028441N11152775WA0218202272038
B2210164028448N11152775WA0217702270037
B2210214028455N11152782WA0217202268040
B2210264028462N11152787WA0216902265042
B2210314028471N11152788WA0216402263043
B2210364028478N11152793WA0215802260037
B2210414028483N11152806WA0215002257040
B2210464028485N11152821WA0214402253040
B2210514028482N11152834WA0213402248046
B2210564028483N11152858WA0213302240029
B2211014028483N11152879WA0212802234041
B2211064028484N11152904WA0212002227059
B2211114028490N11152937WA0211702223045
B2211164028495N11152957WA0210202214036
B2211214028504N11152986WA0209102203050
B2211264028516N11153009WA0207602195051
B2211314028536N11153032WA0206702186046
B2211364028554N11153050WA0205802176053
B2211414028569N11153041WA0204402167051
B2211464028588N11153026WA0203902156043
B2211514028606N11153011WA0203002146049
B2211564028627N11153005WA0202302136047
B2212014028652N11153004WA0201702126043
B2212064028674N11153008WA0200902116047
B2212114028693N11153017WA0200402107039
B2212164028706N11153009WA0199402102038
B2212214028718N11153005WA0198302096036
B2212264028729N11153004WA0197802090032
B2212314028738N11152999WA0197502083035
B2212364028745N11152989WA0197502076031
B2212414028750N11152986WA0196502070033
B2212464028758N11152991WA0195702064037
B2212514028766N11152994WA0195102057035
B2212564028773N11152991WA0194302051035
B2213014028750N11152967WA0193202038039
B2213064028711N11152976WA0192402027038
B2213114028683N11153013WA0191702018041
B2213164028671N11153059WA0191102010036
B2213214028678N11153084WA0190202005040
B2213264028686N11153076WA0189702001035
B2213314028690N11153061WA0188701997038
B2213364028693N11153043WA0187801990034
B2213414028683N11153015WA0186901980043
B2213464028692N11153014WA0186401973035
B2213514028699N11153023WA0185501967037
B2213564028689N11153000WA0184801957040
B2214014028650N11153015WA0184001946043
B2214064028630N11153060WA0183401937036
B2214124028617N11153108WA0182401927048
B2214174028606N11153154WA0183001918034
B2214224028592N11153185WA0183701911040
B2214274028582N11153215WA0184501907031
B2214324028576N11153248WA0184401904036
B2214374028571N11153282WA0185801904032
B2214424028575N11153300WA0186801905048
B2214474028580N11153286WA0188801909031
B2214524028587N11153277WA0190501914035
B2214574028596N11153274WA0191801921045
B2215024028608N11153270WA0192701929047
B2215074028626N11153271WA0194401943038
B2215124028636N11153265WA0196001953053
B2215174028652N11153256WA0198101967036
B2215224028656N11153246WA0198601976037
B2215274028655N11153269WA0199801991027
B2215324028646N11153304WA0200502005041
B2215374028633N11153339WA0201102017046
B2215424028625N11153380WA0202102028031
B2215474028618N11153416WA0202402038038
B2215524028622N11153416WA0202702045042
B2215574028617N11153396WA0202702052036
B2216024028614N11153377WA0202702058041
B2216074028614N11153360WA0202802063038
B2216124028615N11153377WA0202902069034
B2216174028606N11153418WA0202802076034
B2216224028596N11153459WA0202502081034
B2216274028584N11153499WA0202002084031
B2216324028572N11153539WA0201202084035
B2216374028565N11153576WA0200102083033
B2216424028559N11153622WA0199102079037
B2216474028546N11153663WA0198002074037
B2216524028532N11153704WA0197202068034
B2216574028533N11153738WA0196002061037
B2217024028542N11153765WA0194702054043
B2217074028558N11153774WA0193602046037
B2217124028569N11153769WA0192102040041
B2217174028578N11153762WA0191402034034
B2217224028587N11153771WA0190602023038
B2217274028587N11153798WA0189602010044
B2217324028570N11153835WA0188801999035
B2217374028533N11153857WA0187701989034
B2217424028500N11153884WA0186401977039
B2217474028483N11153920WA0184901965044
B2217524028494N11153927WA0184001956041
B2217574028498N11153910WA0183001947037
B2218024028464N11153890WA0181601933049
B2218074028455N11153918WA0180301919041
B2218124028464N11153922WA0179301912040
B2218174028473N11153925WA0178301904037
B2218234028479N11153949WA0177301888034
B2218284028489N11153965WA0176401875037
B2218334028501N11153967WA0176001869043
B2218384028469N11153957WA0175401855063
B2218434028458N11153954WA0173901847074
B2218484028429N11153969WA0173101840067
B2218534028435N11153954WA0174301838023
B2218584028428N11153930WA0174401830036
B2219034028432N11153914WA0174101826037
B2219084028441N11153903WA0173601822037
B2219134028452N11153901WA0173901817037
B2219184028463N11153903WA0173701812036
B2219234028477N11153911WA0173501805037
B2219284028484N11153943WA0173601798037
B2219334028495N11153936WA0173501795044
B2219384028482N11153972WA0173101792044
B2219434028458N11153953WA0173401792035
B2219484028460N11153936WA0173901792042
B2219534028467N11153939WA0174001792042
B2219584028474N11153927WA0174501792032
B2220034028472N11153945WA0174101792051
B2220084028452N11153932WA0173401792062
B2220134028434N11153936WA0172101791059
B2220184028424N11153948WA0170801790075
B2220234028411N11153944WA0170001789062
B2220284028390N11153975WA0170501786032
B2220334028377N11154007WA0170201783043
B2220384028390N11154010WA0170701779039
B2220434028398N11154020WA0170601777042
B2220484028409N11154021WA0170701775043
B2220534028422N11154016WA0170501773049
B2220584028439N11154009WA0170701770048
B2221034028456N11154001WA0170801765051
B2221084028473N11153989WA0171001763047
B2221134028490N11153979WA0171101761048
B2221184028505N11153968WA0171801761047
B2221234028518N11153960WA0171201761049
B2221284028535N11153967WA0170501760049
B2221334028548N11153991WA0171101758047
B2221384028559N11154008WA0171801759045
B2221434028564N11154004WA0171501760032
B2221484028574N11154005WA0170601760039
B2221534028583N11154006WA0170001761046
B2221584028576N11153981WA0169001760034
B2222034028562N11153955WA0167301755040
B2222084028553N11153972WA0165501749047
B2222134028519N11153957WA0164101741046
B2222184028513N11153968WA0163201734031
B2222234028509N11153982WA0161301727048
B2222294028508N11153960WA0159801718048
B2222344028510N11153942WA0158601711047
B2222394028506N11153908WA0157701699040
B2222444028495N11153868WA0157001685039
B2222494028482N11153828WA0157201673042
B2222544028466N11153795WA0158601663035
B2222594028447N11153759WA0159901656034
B2223044028435N11153729WA0159901652045
B2223094028421N11153703WA0159501650043
B2223144028409N11153679WA0159301647032
B2223194028399N11153656WA0159001644000
B2223244028391N11153638WA0158201642044
B2223294028385N11153625WA0157801640040
B2223344028386N11153611WA0157801638031
B2223394028368N11153591WA0157301633032
B2223444028375N11153590WA0157501631031
B2223494028379N11153604WA0157001629041
B2223544028378N11153593WA0156501627029
B2223594028384N11153587WA0155801624035
B2224044028393N11153582WA0155101621035
B2224094028401N11153571WA0154901617026
B2224144028409N11153565WA0154201613036
B2224194028412N11153543WA0153701606034
B2224244028423N11153524WA0153201600030
B2224294028434N11153510WA0152901596000
B2224344028436N11153498WA0152901595000
B2224394028436N11153492WA0153001593000
B2224444028436N11153491WA0153001591000
B2224494028435N11153491WA0153001590000
B2224544028436N11153492WA0153001589000
B2224594028435N11153493WA0153001587000
B2225044028435N11153494WA0153001585000
B2225094028436N11153493WA0153001583000
B2225144028436N11153495WA0153001580000
B2225194028435N11153497WA0153001577000
B2225244028434N11153498WA0153001575000
B2225294028433N11153499WA0152901574000
B2225344028436N11153498WA0152901574000
B2225394028437N11153497WA0152901574000
B2225444028437N11153497WA0152901574000
B2225494028437N11153497WA0152901573000
B2225544028437N11153496WA0153001573000
B2225594028437N11153496WA0153001574000
GB3F7F3EA85F617E6EFE8293EA9387990
G2DDAB226D7FEF40F408A9ED254D33D6E
G0301549B17DE37E4FC01F6AF0170530B
G00000000000000000047000000000000
