AXCT20550c314a3c887c
HFFTYFRTYPE:Google Pixel 4a 11
HFRFWFIRMWAREVERSION:0.9.6.1-beta
HFPRSPRESSALTSENSOR:Bosch 8709
HFPLTPILOTINCHARGE:Josh Cohn
HOSITSite:Ed Levin
HOCCLCOMPETITION CLASS:FAI-3
HFGTYGLIDERTYPE:OZONE Z Alps
HODTM100GPSDATUM:WGS-84
HFALPALTPRESSURE:ISA
HFALG:GEO
HFDTEDATE:240821,04
LXCTDEVICE eyJjYXBhYmlsaXRpZXMiOnsibWVtQ2xhc3MiOjI1NiwibWVtTGFyZ2VDbGFzcyI6N
LXCTDEVICE TEyLCJuYW4iOnRydWV9LCJkZXZpY2UiOnsiYW5kcm9pZElkIjoiMjA1NTBjMzE0YT
LXCTDEVICE NjODg3YyIsImJvYXJkIjoic3VuZmlzaCIsImJ1aWxkSWQiOiJSUTNBLjIxMDgwNS4
LXCTDEVICE wMDEuQTEiLCJjcHVBQkkiOiJhcm02NC12OGEiLCJjcHVBQkkyIjoiIiwiZGV2UXVl
LXCTDEVICE dWVCdWlsZCI6ImYyM2FhZjE0OGU1ZmEwY2MwYTA1MDNlYTgxNjU5N2M5YmM0ODA4M
LXCTDEVICE GQiLCJkZXZpY2VTdHJpbmciOiJHb29nbGUgUGl4ZWwgNGEgMTEiLCJkaXNwbGF5Ij
LXCTDEVICE p7ImgiOjIxNjAsIm1tIjoxNy4zMjI4MzQsInciOjEwODB9LCJmaW5nZXJwcmludCI
LXCTDEVICE 6Imdvb2dsZS9zdW5maXNoL3N1bmZpc2g6MTEvUlEzQS4yMTA4MDUuMDAxLkExLzc0
LXCTDEVICE NzQxNzQ6dXNlci9yZWxlYXNlLWtleXMiLCJoYXJkd2FyZSI6InN1bmZpc2giLCJtY
LXCTDEVICE W51ZmFjdHVyZXIiOiJHb29nbGUiLCJtb2RlbCI6IlBpeGVsIDRhIiwicHJvZHVjdC
LXCTDEVICE I6InN1bmZpc2giLCJzZGsiOjMwLCJ0aW1lem9uZSI6IkFtZXJpY2EvTG9zX0FuZ2V
LXCTDEVICE sZXMifSwieGN0cmFjayI6eyJ2ZXJzaW9uQ29kZSI6OTA2MDIsInZlcnNpb25OYW1l
LXCTDEVICE IjoiMC45LjYuMS1iZXRhIn19
LXCTSENSOR Sensors: SENSOR_NETWORK_TCP, external GPS:false, external baro:fa
LXCTSENSOR lse, internal baro:Bosch 8709, internal GPS nmea: true
I023636LAD3737LOD
LXCTEARTHMODEL WGS84
C2408211654520000000000-2 Competition task
C3727669N12151651WTAKEOFF Ed Levin
C0000000N00000000ELANDING
B1654523727672N12151645WA003440034342
B1654533727672N12151645WA003430034342
B1654543727672N12151645WA003430034342
B1654553727672N12151645WA003440034342
B1654563727672N12151645WA003440034342
B1654573727672N12151645WA003440034342
B1654583727672N12151645WA003440034342
B1654593727672N12151645WA003440034341
B1655003727672N12151645WA003440034341
B1655013727672N12151645WA003430034331
B1655023727672N12151645WA003430034331
B1655033727672N12151645WA003440034341
B1655043727672N12151645WA003440034250
B1655053727672N12151644WA003440034258
B1655063727672N12151645WA003440034315
B1655073727671N12151646WA003430034370
B1655083727671N12151646WA003430034242
B1655093727670N12151646WA003420034284
B1655103727670N12151647WA003420034232
B1655113727669N12151648WA003420034276
B1655123727668N12151651WA003410034261
B1655133727666N12151654WA003390034152
B1655143727663N12151656WA003370033945
B1655153727660N12151657WA003360033808
B1655163727656N12151658WA003350033987
B1655173727653N12151659WA003350033982
B1655183727650N12151659WA003360034061
B1655193727647N12151658WA003360034013
B1655203727643N12151656WA003360034048
B1655213727639N12151654WA003360034099
B1655223727636N12151650WA003360034043
B1655233727633N12151648WA003360034252
B1655243727630N12151646WA003360034233
B1655253727627N12151644WA003360034112
B1655263727622N12151642WA003350034090
B1655273727618N12151641WA003330033882
B1655283727615N12151641WA003320033709
B1655293727613N12151645WA003300033613
B1655303727613N12151650WA003280033425
B1655313727615N12151655WA003260033224
B1655323727618N12151658WA003240033187
B1655333727623N12151660WA003230033133
B1655343727627N12151660WA003220033088
B1655353727632N12151661WA003220032947
B1655363727636N12151662WA003220032955
B1655373727640N12151663WA003220032856
B1655383727644N12151665WA003220032903
B1655393727647N12151667WA003220032985
B1655403727651N12151669WA003210032856
B1655413727654N12151672WA003210032739
B1655423727656N12151677WA003200032792
B1655433727658N12151681WA003190032673
B1655443727659N12151685WA003180032677
B1655453727659N12151690WA003180032551
B1655463727657N12151694WA003170032584
LXCTACTIVITY IN_VEHICLE 90
B1655473727656N12151698WA003160032333
B1655483727653N12151701WA003150032275
B1655493727651N12151704WA003140032176
B1655503727650N12151707WA003140032019
B1655513727648N12151711WA003130032067
B1655523727647N12151716WA003120031932
B1655533727646N12151720WA003110031809
B1655543727644N12151725WA003090031765
B1655553727642N12151729WA003090031788
B1655563727641N12151734WA003090031971
B1655573727641N12151737WA003100032045
B1655583727640N12151739WA003120032103
B1655593727639N12151740WA003130032315
B1656003727638N12151741WA003140032343
B1656013727636N12151745WA003130032407
B1656023727633N12151749WA003120032269
B1656033727632N12151753WA003120032212
B1656043727630N12151755WA003130032488
B1656053727629N12151758WA003140032572
B1656063727628N12151760WA003150032659
B1656073727627N12151764WA003150032613
B1656083727625N12151766WA003150032534
B1656093727622N12151768WA003140032494
B1656103727620N12151771WA003130032287
B1656113727618N12151776WA003110031963
B1656123727617N12151780WA003100031805
B1656133727616N12151783WA003090031854
B1656143727615N12151786WA003090031875
B1656153727615N12151789WA003090031809
B1656163727613N12151793WA003090031770
B1656173727612N12151796WA003080031633
B1656183727611N12151799WA003070031614
B1656193727610N12151802WA003070031653
B1656203727609N12151805WA003060031515
B1656213727608N12151809WA003040031435
B1656223727607N12151815WA003030031480
B1656233727606N12151819WA003010031299
B1656243727605N12151823WA002990031270
B1656253727603N12151824WA002970031089
B1656263727600N12151827WA002950030853
B1656273727597N12151830WA002930030696
B1656283727593N12151832WA002910030447
B1656293727589N12151836WA002890030370
B1656303727586N12151837WA002870030154
B1656313727584N12151840WA002850030094
B1656323727582N12151845WA002840029772
B1656333727579N12151847WA002820029377
B1656343727576N12151850WA002800029132
B1656353727573N12151854WA002780028957
B1656363727571N12151856WA002760028706
B1656373727567N12151858WA002760028599
B1656383727565N12151860WA002760028579
B1656393727563N12151864WA002750028450
B1656403727560N12151864WA002740028233
B1656413727557N12151865WA002720027936
B1656423727553N12151867WA002700027685
B1656433727550N12151869WA002680027401
B1656443727547N12151870WA002660027300
B1656453727543N12151871WA002640027165
B1656463727540N12151872WA002610026859
B1656473727537N12151874WA002590026609
B1656483727534N12151877WA002570026302
B1656493727530N12151878WA002550025938
B1656503727526N12151880WA002530025976
B1656513727523N12151882WA002510025747
B1656523727519N12151884WA002480025599
B1656533727515N12151886WA002450025371
B1656543727512N12151887WA002440025217
B1656553727509N12151890WA002420025101
B1656563727505N12151891WA002400024801
B1656573727501N12151892WA002390024729
B1656583727497N12151895WA002390024635
B1656593727493N12151897WA002390024653
B1657003727490N12151898WA002400024642
B1657013727488N12151899WA002410024617
B1657023727484N12151898WA002410024410
B1657033727480N12151894WA002390024452
B1657043727476N12151886WA002370024298
B1657053727477N12151879WA002350024114
B1657063727478N12151872WA002340024088
B1657073727480N12151866WA002350024038
B1657083727481N12151861WA002350023940
B1657093727483N12151855WA002360023803
B1657103727482N12151849WA002360023871
B1657113727484N12151843WA002350023851
B1657123727486N12151836WA002340023787
B1657133727488N12151830WA002330023689
B1657143727492N12151824WA002320023348
B1657153727496N12151821WA002310023351
B1657163727502N12151821WA002300023113
B1657173727505N12151822WA002290022943
B1657183727507N12151825WA002290022926
B1657193727509N12151827WA002280023016
B1657203727510N12151830WA002270023040
B1657213727511N12151832WA002260022998
B1657223727513N12151836WA002240022779
B1657233727515N12151840WA002220022761
B1657243727516N12151844WA002200022735
B1657253727515N12151849WA002200022764
B1657263727516N12151852WA002190022538
B1657273727516N12151856WA002180022545
B1657283727516N12151860WA002170022629
B1657293727515N12151866WA002160022560
B1657303727515N12151871WA002140022218
B1657313727514N12151876WA002130022232
B1657323727512N12151881WA002110022115
B1657333727511N12151885WA002100021925
B1657343727510N12151889WA002100021802
B1657353727509N12151893WA002100021773
B1657363727510N12151897WA002100021504
B1657373727509N12151900WA002090021589
B1657383727510N12151904WA002090021415
B1657393727509N12151908WA002090021380
B1657403727509N12151911WA002080021356
B1657413727510N12151914WA002080021384
B1657423727512N12151917WA002080021229
B1657433727513N12151921WA002070021212
B1657443727514N12151924WA002060021006
B1657453727514N12151928WA002050021000
B1657463727514N12151932WA002030021045
B1657473727514N12151936WA002010020928
B1657483727514N12151940WA001990020938
B1657493727514N12151945WA001970020825
B1657503727514N12151950WA001950020785
B1657513727515N12151955WA001930020589
B1657523727515N12151960WA001900020469
B1657533727515N12151966WA001880020361
B1657543727515N12151971WA001870020021
B1657553727515N12151975WA001870019924
B1657563727514N12151980WA001870019931
B1657573727514N12151985WA001850019814
B1657583727513N12151990WA001840019612
B1657593727512N12151995WA001820019535
B1658003727511N12152000WA001800019318
B1658013727510N12152006WA001780019192
B1658023727510N12152011WA001760018864
B1658033727509N12152017WA001740018674
B1658043727509N12152023WA001720018522
B1658053727508N12152027WA001710018368
B1658063727508N12152031WA001710018239
B1658073727508N12152035WA001710018078
B1658083727508N12152038WA001710017846
B1658093727507N12152041WA001710017882
B1658103727507N12152043WA001710017721
B1658113727506N12152045WA001710017673
B1658123727506N12152047WA001710017545
B1658133727506N12152050WA001700017421
B1658143727506N12152052WA001700017320
B1658153727505N12152054WA001700017294
B1658163727505N12152056WA001700017262
B1658173727505N12152058WA001700017360
B1658183727505N12152058WA001700017159
B1658193727505N12152059WA001700017051
B1658203727505N12152059WA001700017070
B1658213727505N12152058WA001700017083
B1658223727505N12152057WA001700017077
B1658233727505N12152057WA001700017173
B1658243727505N12152057WA001700017170
B1658253727505N12152057WA001700017172
B1658263727505N12152057WA001700017183
B1658273727505N12152057WA001700017184
LXCTACTIVITY ON_FOOT 80
B1658283727505N12152057WA001700017196
B1658293727505N12152057WA001700017196
B1658303727505N12152057WA001700017197
LXCTSTATS eyJzdGF0cyI6eyJ0ZXJyYWluQm1wQ2FjaGUiOnsiYWxsb2MiOjExMiwiYWxsb2NGYW
LXCTSTATS lsIjowLCJtYXhzaXplIjoxMjgsIm1heHNpemVJbml0IjoxMjgsInJldXNlIjowfSwi
LXCTSTATS R1BTIjp7ImFsdEZpeE1ldGhvZCI6eyJkaWZmQXBpR2VvaWQiOjAsImRpZmZBcGlOb0
LXCTSTATS NvcnJlY3Rpb24iOjB9LCJhcGlDbnQiOjAsImJlYXJpbmdDb21wdXRlZCI6MCwibm1l
LXCTSTATS YUNudCI6MTMxOTkzNywic3BlZWRDb21wdXRlZCI6MH0sIm9wdGlTdGF0cyI6eyJvcH
LXCTSTATS RpTENvdW50IjoxNzU2LCJvcHRpVGltZU1tcyI6MjczNzc2MTQ1M319fQ==
LXCTFAICIVLCOMPLIANT true
G35FBA993F919E6F536C7D4D5430CA0CA871F5ABABC3E28F00848ED103766F4DA
GAA9F59849BE2ACB323D1EF20DA78A01E1F3285172C1B6FB98C55E04057A63D7A
G76A134E82C4533480A97DE3206A9C16653B83BF8AB160F384BE8B3939EF0D116
G4B705EB6D8A7C6A93FCF32D3EC8B21DCA07821D83E1E632EDD4CA0864532B262
