AXCT1786bebe619c83f6
HFFTYFRTYPE:Google Pixel 7 13 Client:xctrack FlightId:110115cf-854c-4236-a5ee-bb8de9ecdfd6
HFRFWFIRMWAREVERSION:0.9.8.6 LIVE:UNKNOWN
HFPLTPILOTINCHARGE:Josh Cohn
HOSITSite:Mussel Rock
HSCCLCOMPETITION CLASS:FAI-3 (PG)
HFGTYGLIDERTYPE:NIVIUK Icepeak X-One
HODTM100GPSDATUM:WGS-84
HFALPALTPRESSURE:ISA
HFALG:GEO
HFDTEDATE:150423,00
I023636LAD3737LOD
LXCTDEVICE eyJjYXBhYmlsaXRpZXMiOnsibWVtQ2xhc3MiOjI1NiwibWVtTGFyZ2VDbGFzcyI6N
LXCTDEVICE TEyLCJuYW4iOnRydWV9LCJkZXZpY2UiOnsiYW5kcm9pZElkIjoiMTc4NmJlYmU2MT
LXCTDEVICE ljODNmNiIsImJvYXJkIjoicGFudGhlciIsImJ1aWxkSWQiOiJUUTJBLjIzMDMwNS4
LXCTDEVICE wMDgiLCJjcHVBQkkiOiJhcm02NC12OGEiLCJjcHVBQkkyIjoiIiwiZGV2UXVldWVC
LXCTDEVICE dWlsZCI6ImYyM2FhZjE0OGU1ZmEwY2MwYTA1MDNlYTgxNjU5N2M5YmM0ODA4MGQiL
LXCTDEVICE CJkZXZpY2VTdHJpbmciOiJHb29nbGUgUGl4ZWwgNyAxMyIsImRpc3BsYXkiOnsiaC
LXCTDEVICE I6MjIwMSwibW0iOjE2LjUzNTQzMywidyI6MTA4MH0sImZpbmdlcnByaW50IjoiZ29
LXCTDEVICE vZ2xlL3BhbnRoZXIvcGFudGhlcjoxMy9UUTJBLjIzMDMwNS4wMDgvOTU5NTQ1Mjp1
LXCTDEVICE c2VyL3JlbGVhc2Uta2V5cyIsImhhcmR3YXJlIjoicGFudGhlciIsIm1hbnVmYWN0d
LXCTDEVICE XJlciI6Ikdvb2dsZSIsIm1vZGVsIjoiUGl4ZWwgNyIsInByb2R1Y3QiOiJwYW50aG
LXCTDEVICE VyIiwic2RrIjozMywidGltZXpvbmUiOiJBbWVyaWNhL0xvc19BbmdlbGVzIn0sInh
LXCTDEVICE jdHJhY2siOnsidmVyc2lvbkNvZGUiOjkwODYxLCJ2ZXJzaW9uTmFtZSI6IjAuOS44
LXCTDEVICE LjYifX0=
B2237313740168N12229662WA-00280004357
B2237323740168N12229662WA-00280004344
B2237333740168N12229662WA-00280004332
B2237343740168N12229661WA-00280004318
B2237353740167N12229661WA-00280004482
B2237363740167N12229660WA-00270004466
B2237373740167N12229660WA-00270004431
B2237383740167N12229659WA-00270004428
B2237393740166N12229659WA-00270004493
B2237403740166N12229659WA-00270004491
B2237413740166N12229658WA-00270004473
B2237423740166N12229657WA-00260004466
B2237433740166N12229656WA-00260004458
B2237443740166N12229656WA-00260004462
B2237453740166N12229656WA-00270004372
B2237463740166N12229656WA-00270004387
B2237473740167N12229657WA-00270004314
B2237483740167N12229658WA-00280004381
B2237493740168N12229659WA-00290004335
B2237503740168N12229661WA-00270004436
B2237513740167N12229664WA-00280004477
B2237523740166N12229668WA-00290004568
B2237533740165N12229672WA-00300004584
B2237543740165N12229674WA-00290004583
B2237553740166N12229676WA-00290004455
B2237563740167N12229678WA-00290004476
B2237573740168N12229681WA-00290004420
B2237583740168N12229683WA-00280004548
B2237593740168N12229686WA-00290004498
B2238003740170N12229689WA-00290004403
B2238013740171N12229691WA-00290004451
B2238023740173N12229692WA-00290004293
B2238033740176N12229692WA-00290004222
B2238043740178N12229691WA-00290004184
B2238053740181N12229690WA-00290004084
B2238063740184N12229689WA-00290004089
B2238073740187N12229690WA-00300003974
B2238083740190N12229691WA-00300003919
B2238093740192N12229693WA-00300003949
B2238103740194N12229695WA-00300003994
B2238113740197N12229696WA-00300003882
B2238123740201N12229696WA-00300003815
B2238133740205N12229696WA-00300003805
B2238143740209N12229696WA-00300003854
B2238153740213N12229696WA-00300003880
B2238163740217N12229695WA-00300003897
B2238173740221N12229695WA-00300003994
B2238183740225N12229695WA-00290003944
B2238193740229N12229695WA-00290003900
B2238203740232N12229694WA-00290003975
B2238213740237N12229693WA-00290003907
B2238223740241N12229693WA-00280003911
B2238233740244N12229693WA-00280003982
B2238243740248N12229693WA-00280003949
B2238253740252N12229694WA-00280004018
B2238263740256N12229695WA-00280004033
B2238273740260N12229694WA-00280004087
B2238283740265N12229693WA-00280004135
B2238293740269N12229692WA-00270004125
B2238303740272N12229691WA-00260004129
B2238313740275N12229691WA-00260004113
B2238323740278N12229690WA-00260004112
B2238333740281N12229688WA-00260004066
B2238343740285N12229686WA-00270004147
B2238353740289N12229685WA-00270004069
B2238363740293N12229685WA-00280004046
B2238373740296N12229685WA-00280004063
B2238383740299N12229685WA-00270004083
B2238393740303N12229685WA-00270004102
B2238403740306N12229685WA-00270004138
B2238413740309N12229686WA-00270004184
B2238423740313N12229686WA-00260004102
B2238433740316N12229685WA-00260004125
B2238443740319N12229684WA-00260004275
B2238453740323N12229683WA-00250004346
B2238463740327N12229683WA-00240004321
B2238473740331N12229682WA-00240004402
B2238483740334N12229680WA-00230004468
B2238493740338N12229678WA-00220004518
B2238503740341N12229676WA-00210004638
B2238513740344N12229674WA-00200004628
B2238523740347N12229673WA-00200004616
B2238533740349N12229673WA-00200004694
B2238543740352N12229674WA-00200004656
B2238553740355N12229676WA-00200004711
B2238563740357N12229677WA-00190004742
B2238573740359N12229678WA-00190004884
B2238583740362N12229679WA-00180004822
B2238593740365N12229679WA-00170004908
B2239003740367N12229680WA-00170004988
B2239013740370N12229681WA-00160005018
B2239023740372N12229682WA-00150005097
B2239033740375N12229683WA-00140005150
B2239043740378N12229682WA-00120005203
B2239053740381N12229681WA-00120005433
B2239063740383N12229681WA-00110005562
B2239073740386N12229681WA-00110005408
B2239083740388N12229683WA-00120005551
B2239093740391N12229684WA-00110005506
B2239103740393N12229685WA-00120005674
B2239113740396N12229685WA-00120005668
B2239123740399N12229686WA-00110005682
B2239133740403N12229688WA-00080005500
B2239143740406N12229690WA-00090005556
B2239153740411N12229693WA-00090005813
B2239163740415N12229694WA-00080006116
B2239173740417N12229695WA-00060006320
B2239183740418N12229695WA-00050006369
B2239193740419N12229697WA-00040006480
B2239203740422N12229698WA-00040006534
B2239213740425N12229699WA-00040006653
B2239223740428N12229699WA-00050006676
B2239233740431N12229699WA-00050006799
B2239243740435N12229700WA-00050006827
B2239253740438N12229701WA-00050006823
B2239263740440N12229701WA-00050006894
B2239273740443N12229700WA-00040006767
B2239283740446N12229699WA-00040006869
B2239293740450N12229699WA-00050006804
B2239303740453N12229698WA-00050006898
B2239313740457N12229697WA-00050006875
B2239323740461N12229695WA-00050006855
B2239333740465N12229693WA-00050006917
B2239343740468N12229692WA-00050007090
B2239353740472N12229690WA-00050007059
B2239363740476N12229689WA-00030007219
B2239373740479N12229689WA-00010007201
B2239383740481N12229688WA000010007326
B2239393740483N12229688WA000030007463
B2239403740486N12229688WA000050007514
B2239413740488N12229688WA000060007677
B2239423740491N12229688WA000080007746
B2239433740494N12229688WA000090007755
B2239443740497N12229688WA000110007853
B2239453740500N12229688WA000120007920
B2239463740503N12229687WA000140008106
B2239473740505N12229686WA000150008297
B2239483740508N12229685WA000160008279
B2239493740511N12229685WA000170008480
B2239503740514N12229684WA000170008546
B2239513740517N12229684WA000180008657
B2239523740520N12229684WA000190008766
B2239533740523N12229684WA000210008935
B2239543740525N12229683WA000230009096
B2239553740528N12229682WA000250009134
B2239563740530N12229681WA000270009284
B2239573740534N12229680WA000280009419
B2239583740537N12229681WA000280009542
B2239593740540N12229681WA000290009618
B2240003740543N12229682WA000300009618
B2240013740546N12229684WA000310009822
B2240023740548N12229684WA000330009979
B2240033740551N12229684WA000340010077
B2240043740554N12229684WA000360010051
B2240053740557N12229683WA000360010049
B2240063740560N12229685WA000360010280
B2240073740563N12229686WA000360010379
B2240083740566N12229688WA000370010426
B2240093740568N12229689WA000390010567
B2240103740571N12229690WA000400010605
B2240113740573N12229691WA000410010683
B2240123740577N12229691WA000420010707
B2240133740580N12229691WA000430010849
B2240143740584N12229691WA000440010947
B2240153740588N12229691WA000460011036
B2240163740592N12229691WA000470011105
B2240173740595N12229692WA000490011311
B2240183740598N12229693WA000510011411
B2240193740600N12229694WA000530011676
B2240203740603N12229696WA000540011832
B2240213740606N12229697WA000550011827
B2240223740609N12229699WA000560012070
B2240233740613N12229699WA000560012219
B2240243740615N12229700WA000570012481
B2240253740618N12229701WA000590012602
B2240263740619N12229702WA000600012619
B2240273740619N12229705WA000620012754
B2240283740618N12229708WA000630012773
B2240293740615N12229711WA000630012686
B2240303740609N12229712WA000620012596
B2240313740602N12229711WA000610012423
B2240323740593N12229707WA000600012667
B2240333740586N12229699WA000600012705
B2240343740579N12229690WA000620012864
B2240353740574N12229682WA000650012726
B2240363740568N12229675WA000670012865
B2240373740562N12229669WA000690012835
B2240383740555N12229664WA000700013076
B2240393740548N12229660WA000700013365
B2240403740541N12229657WA000700013671
B2240413740535N12229655WA000710013800
B2240423740529N12229654WA000720013904
B2240433740523N12229654WA000730014085
B2240443740518N12229655WA000740014160
B2240453740513N12229655WA000750014297
B2240463740509N12229656WA000770014349
B2240473740505N12229658WA000780014415
B2240483740502N12229660WA000800014503
B2240493740499N12229662WA000810014559
B2240503740498N12229665WA000820014582
B2240513740499N12229668WA000820014580
B2240523740501N12229671WA000820014583
B2240533740502N12229673WA000830014688
B2240543740503N12229676WA000840014611
B2240553740503N12229677WA000850014738
B2240563740503N12229679WA000860014764
B2240573740504N12229681WA000870014836
B2240583740505N12229684WA000870014800
B2240593740505N12229687WA000860014981
B2241003740506N12229690WA000860014976
B2241013740507N12229693WA000860015098
B2241023740509N12229696WA000870015139
B2241033740510N12229699WA000880015155
B2241043740511N12229702WA000880015250
B2241053740512N12229704WA000890015266
B2241063740514N12229707WA000890015217
B2241073740515N12229711WA000880015390
B2241083740518N12229714WA000880015512
B2241093740520N12229717WA000890015641
B2241103740522N12229719WA000900015751
B2241113740524N12229720WA000910015768
B2241123740526N12229722WA000920015875
B2241133740528N12229724WA000930015995
B2241143740530N12229726WA000940015995
B2241153740532N12229728WA000950016073
B2241163740534N12229729WA000960016017
B2241173740535N12229731WA000970016071
B2241183740537N12229732WA000970016068
B2241193740540N12229734WA000960016107
B2241203740542N12229736WA000960016259
B2241213740544N12229738WA000970016395
B2241223740546N12229739WA000980016376
B2241233740548N12229740WA000990016352
B2241243740550N12229740WA001000016434
B2241253740552N12229740WA001010016475
B2241263740555N12229740WA001020016450
B2241273740559N12229737WA001020016515
B2241283740563N12229732WA001020016539
B2241293740567N12229726WA001020016566
B2241303740571N12229718WA001010016521
B2241313740573N12229708WA001020016590
B2241323740573N12229696WA001020016693
B2241333740571N12229684WA001020016793
B2241343740568N12229672WA001030016761
B2241353740564N12229662WA001040016810
B2241363740558N12229654WA001050016936
B2241373740552N12229652WA001060016810
B2241383740545N12229650WA001080016735
B2241393740539N12229651WA001090016939
B2241403740535N12229655WA001100017005
B2241413740533N12229658WA001120017009
B2241423740531N12229661WA001130017030
B2241433740533N12229663WA001150017006
B2241443740535N12229664WA001160017148
B2241453740538N12229665WA001180017321
B2241463740541N12229665WA001180017467
B2241473740545N12229666WA001170017504
B2241483740548N12229667WA001170017655
B2241493740552N12229668WA001170017809
B2241503740554N12229670WA001180018082
B2241513740556N12229671WA001190018072
B2241523740558N12229672WA001200018160
B2241533740560N12229673WA001210018150
B2241543740562N12229674WA001220018250
B2241553740564N12229675WA001230018360
B2241563740566N12229675WA001240018388
B2241573740569N12229676WA001240018429
B2241583740571N12229677WA001250018588
B2241593740574N12229678WA001270018770
B2242003740577N12229677WA001280018753
B2242013740580N12229676WA001290018880
B2242023740584N12229675WA001290018922
B2242033740587N12229675WA001290019061
B2242043740591N12229675WA001290019137
B2242053740594N12229676WA001290019365
B2242063740597N12229677WA001300019441
B2242073740599N12229677WA001310019488
B2242083740602N12229678WA001320019527
B2242093740604N12229679WA001330019656
B2242103740606N12229680WA001340019878
B2242113740608N12229681WA001360019978
B2242123740610N12229683WA001370020081
B2242133740612N12229684WA001380020064
B2242143740614N12229685WA001400020134
B2242153740616N12229686WA001410020120
B2242163740618N12229686WA001420020265
B2242173740621N12229687WA001430020351
B2242183740624N12229687WA001440020436
B2242193740627N12229688WA001450020511
B2242203740629N12229688WA001460020777
B2242213740632N12229689WA001470020861
B2242223740635N12229689WA001480020944
B2242233740638N12229689WA001500021036
B2242243740641N12229689WA001500021125
B2242253740644N12229689WA001510021217
B2242263740647N12229690WA001520021413
B2242273740649N12229691WA001520021573
B2242283740652N12229692WA001530021614
B2242293740654N12229693WA001540021642
B2242303740656N12229693WA001550021684
B2242313740659N12229693WA001540021637
B2242323740662N12229694WA001530021657
B2242333740666N12229696WA001520021618
B2242343740669N12229699WA001500021788
B2242353740673N12229703WA001490021861
B2242363740677N12229705WA001490021859
B2242373740681N12229707WA001500021929
B2242383740684N12229709WA001520022063
B2242393740687N12229710WA001540022175
B2242403740690N12229712WA001550022271
B2242413740693N12229713WA001570022329
B2242423740695N12229716WA001580022453
B2242433740697N12229719WA001590022554
B2242443740699N12229722WA001610022549
B2242453740701N12229726WA001620022621
B2242463740702N12229728WA001640022775
B2242473740704N12229729WA001670022916
B2242483740705N12229730WA001690022942
B2242493740707N12229730WA001710023019
B2242503740709N12229732WA001720023110
B2242513740711N12229733WA001710023269
B2242523740714N12229736WA001710023322
B2242533740716N12229738WA001710023494
B2242543740719N12229739WA001720023509
B2242553740721N12229741WA001730023600
B2242563740723N12229742WA001740023612
B2242573740725N12229743WA001750023765
B2242583740728N12229745WA001750023812
B2242593740730N12229746WA001750023999
B2243003740733N12229748WA001760023943
B2243013740736N12229749WA001760024001
B2243023740738N12229749WA001770024065
B2243033740741N12229749WA001770024018
B2243043740743N12229750WA001770024095
B2243053740747N12229751WA001770024004
B2243063740750N12229752WA001770024127
B2243073740753N12229753WA001770024238
B2243083740756N12229754WA001770024247
B2243093740759N12229755WA001780024232
B2243103740762N12229755WA001780024248
B2243113740765N12229756WA001780024375
B2243123740769N12229757WA001790024314
B2243133740772N12229758WA001790024424
B2243143740775N12229759WA001800024424
B2243153740777N12229760WA001800024577
B2243163740779N12229762WA001810024634
B2243173740780N12229764WA001820024637
B2243183740780N12229767WA001820024737
B2243193740779N12229771WA001820024762
B2243203740777N12229774WA001820024779
B2243213740774N12229778WA001810024772
B2243223740770N12229781WA001810024823
B2243233740764N12229783WA001810024872
B2243243740759N12229784WA001820024922
B2243253740754N12229784WA001830024968
B2243263740750N12229785WA001840025014
B2243273740745N12229786WA001850024930
B2243283740739N12229786WA001850024992
B2243293740733N12229785WA001850024923
B2243303740725N12229783WA001840024996
B2243313740718N12229781WA001840025013
B2243323740710N12229777WA001840025046
B2243333740703N12229772WA001840025045
B2243343740696N12229766WA001840024938
B2243353740689N12229760WA001840024918
B2243363740682N12229754WA001840024919
B2243373740675N12229749WA001840024913
B2243383740668N12229744WA001830024912
B2243393740661N12229739WA001830025004
B2243403740654N12229735WA001830025002
B2243413740647N12229731WA001830025003
B2243423740640N12229727WA001830025118
B2243433740633N12229724WA001840025141
B2243443740626N12229719WA001840025179
B2243453740619N12229715WA001840025293
B2243463740613N12229710WA001850025225
B2243473740606N12229705WA001860025365
B2243483740600N12229700WA001870025436
B2243493740593N12229696WA001880025492
B2243503740587N12229692WA001890025544
B2243513740581N12229688WA001900025605
B2243523740574N12229684WA001910025772
B2243533740568N12229679WA001920025867
B2243543740562N12229674WA001940025858
B2243553740556N12229670WA001950025962
B2243563740550N12229665WA001960025987
B2243573740545N12229661WA001960026037
B2243583740539N12229658WA001960026123
B2243593740533N12229656WA001970026133
B2244003740529N12229657WA001970026048
B2244013740525N12229660WA001960026070
B2244023740523N12229663WA001960026153
B2244033740524N12229666WA001960026129
B2244043740524N12229670WA001970026025
B2244053740525N12229672WA001980026034
B2244063740527N12229672WA001990026148
B2244073740531N12229675WA002010026032
B2244083740534N12229676WA002020025954
B2244093740537N12229678WA002020025961
B2244103740540N12229680WA002020025931
B2244113740542N12229681WA002020025988
B2244123740545N12229683WA002020025915
B2244133740547N12229685WA002030025926
B2244143740549N12229687WA002030026028
B2244153740551N12229689WA002040026026
B2244163740552N12229691WA002050026190
B2244173740554N12229692WA002050026210
B2244183740555N12229693WA002060026204
B2244193740556N12229695WA002050026323
B2244203740557N12229698WA002050026421
B2244213740558N12229701WA002050026542
B2244223740559N12229703WA002060026765
B2244233740560N12229705WA002070026875
B2244243740561N12229707WA002080026951
B2244253740562N12229708WA002090027005
B2244263740562N12229710WA002100027040
B2244273740562N12229711WA002110027188
B2244283740563N12229713WA002110027219
B2244293740563N12229716WA002110027241
B2244303740564N12229717WA002110027318
B2244313740565N12229719WA002120027432
B2244323740566N12229719WA002120027477
B2244333740568N12229719WA002130027493
B2244343740571N12229718WA002140027421
B2244353740574N12229715WA002140027595
B2244363740578N12229711WA002140027589
B2244373740582N12229707WA002140027684
B2244383740586N12229702WA002150027784
B2244393740590N12229697WA002160027824
B2244403740593N12229692WA002160027831
B2244413740596N12229685WA002170027926
B2244423740598N12229677WA002160027985
B2244433740600N12229667WA002160027976
B2244443740601N12229656WA002150028052
B2244453740601N12229644WA002150028109
B2244463740599N12229634WA002160028125
B2244473740596N12229624WA002170028118
B2244483740591N12229615WA002170028272
B2244493740586N12229606WA002170028314
B2244503740579N12229599WA002170028421
B2244513740571N12229593WA002180028552
B2244523740564N12229588WA002190028547
B2244533740558N12229586WA002200028632
B2244543740553N12229584WA002220028604
B2244553740548N12229583WA002220028612
B2244563740543N12229583WA002220028623
B2244573740538N12229585WA002210028773
B2244583740536N12229589WA002200028772
B2244593740534N12229592WA002210028782
B2245003740533N12229594WA002220028836
B2245013740532N12229596WA002230028853
B2245023740532N12229597WA002240028833
B2245033740532N12229598WA002250028928
B2245043740532N12229601WA002240028901
B2245053740531N12229603WA002240029077
B2245063740531N12229607WA002240029041
B2245073740531N12229609WA002240029107
B2245083740530N12229611WA002250029167
B2245093740530N12229613WA002260029145
B2245103740530N12229615WA002260029256
B2245113740530N12229617WA002260029289
B2245123740531N12229620WA002260029345
B2245133740532N12229622WA002260029428
B2245143740532N12229624WA002270029482
B2245153740533N12229625WA002290029583
B2245163740534N12229626WA002310029540
B2245173740534N12229626WA002320029688
B2245183740535N12229628WA002310029533
B2245193740536N12229630WA002290029409
B2245203740537N12229634WA002260029459
B2245213740539N12229639WA002230029452
B2245223740542N12229642WA002220029537
B2245233740544N12229645WA002230029599
B2245243740546N12229647WA002250029465
B2245253740547N12229648WA002270029452
B2245263740548N12229649WA002280029353
B2245273740549N12229650WA002290029268
B2245283740551N12229653WA002270029214
B2245293740552N12229656WA002260029185
B2245303740554N12229660WA002240029180
B2245313740557N12229663WA002230029025
B2245323740559N12229666WA002230029076
B2245333740561N12229668WA002230028969
B2245343740563N12229670WA002240028928
B2245353740565N12229672WA002240028805
B2245363740567N12229674WA002230028715
B2245373740569N12229677WA002210028792
B2245383740573N12229680WA002190028746
B2245393740576N12229683WA002190028767
B2245403740579N12229686WA002190028767
B2245413740582N12229688WA002200028726
B2245423740584N12229690WA002200028646
B2245433740586N12229692WA002210028635
B2245443740588N12229695WA002210028641
B2245453740590N12229697WA002210028716
B2245463740591N12229700WA002220028840
B2245473740591N12229701WA002240028889
B2245483740592N12229702WA002270028823
B2245493740593N12229702WA002280028846
B2245503740595N12229703WA002280028826
B2245513740597N12229706WA002260028882
B2245523740600N12229709WA002240028861
B2245533740603N12229711WA002230028843
B2245543740605N12229712WA002240028877
B2245553740607N12229713WA002250028855
B2245563740608N12229714WA002260028770
B2245573740610N12229715WA002260028720
B2245583740612N12229716WA002250028747
B2245593740614N12229718WA002240028688
B2246003740617N12229721WA002240028601
B2246013740618N12229723WA002230028671
B2246023740619N12229724WA002230028597
B2246033740621N12229726WA002220028569
B2246043740623N12229729WA002210028463
B2246053740625N12229732WA002200028493
B2246063740628N12229735WA002190028445
B2246073740630N12229738WA002180028351
B2246083740632N12229740WA002180028373
B2246093740635N12229742WA002190028307
B2246103740636N12229745WA002190028362
B2246113740638N12229748WA002190028320
B2246123740640N12229751WA002190028322
B2246133740642N12229754WA002190028370
B2246143740645N12229756WA002190028315
B2246153740647N12229759WA002200028420
B2246163740648N12229760WA002210028489
B2246173740650N12229762WA002230028426
B2246183740651N12229764WA002230028472
B2246193740653N12229765WA002240028489
B2246203740656N12229767WA002230028429
B2246213740658N12229770WA002210028494
B2246223740661N12229773WA002200028379
B2246233740664N12229778WA002180028494
B2246243740668N12229783WA002170028434
B2246253740671N12229787WA002180028535
B2246263740673N12229790WA002190028577
B2246273740675N12229792WA002210028469
B2246283740677N12229794WA002220028449
B2246293740679N12229797WA002220028443
B2246303740681N12229800WA002210028483
B2246313740684N12229804WA002190028362
B2246323740687N12229808WA002180028448
B2246333740690N12229813WA002170028432
B2246343740692N12229816WA002160028576
B2246353740694N12229819WA002170028585
B2246363740696N12229822WA002180028463
B2246373740698N12229825WA002180028440
B2246383740700N12229828WA002180028450
B2246393740702N12229831WA002170028375
B2246403740705N12229835WA002150028224
B2246413740708N12229839WA002130028119
B2246423740711N12229845WA002110028120
B2246433740714N12229850WA002080028043
B2246443740717N12229855WA002070028034
B2246453740719N12229859WA002070027997
B2246463740722N12229863WA002070027859
B2246473740725N12229867WA002070027846
B2246483740728N12229871WA002060027765
B2246493740732N12229875WA002050027618
B2246503740735N12229879WA002030027689
B2246513740739N12229884WA002020027582
B2246523740743N12229888WA002010027531
B2246533740747N12229892WA002000027428
B2246543740750N12229897WA002000027392
B2246553740754N12229901WA002000027321
B2246563740757N12229905WA002000027397
B2246573740761N12229909WA002000027237
B2246583740764N12229913WA002000027197
B2246593740768N12229917WA002000027136
B2247003740771N12229921WA001990027087
B2247013740775N12229926WA001970026822
B2247023740779N12229931WA001950026607
B2247033740782N12229937WA001920026588
B2247043740787N12229944WA001880026406
B2247053740791N12229952WA001840026313
B2247063740795N12229960WA001810026220
B2247073740798N12229966WA001790026174
B2247083740802N12229973WA001790025942
B2247093740805N12229979WA001800025855
B2247103740808N12229985WA001790025710
B2247113740811N12229992WA001780025560
B2247123740814N12229998WA001770025494
B2247133740818N12230004WA001750025349
B2247143740822N12230011WA001730025115
B2247153740825N12230018WA001710025053
B2247163740828N12230025WA001690024883
B2247173740832N12230032WA001660024704
B2247183740834N12230038WA001660024744
B2247193740836N12230043WA001680024671
B2247203740838N12230046WA001700024552
B2247213740840N12230048WA001740024543
B2247223740841N12230049WA001770024594
B2247233740842N12230050WA001790024483
B2247243740843N12230051WA001800024271
B2247253740845N12230052WA001780024226
B2247263740847N12230054WA001760024125
B2247273740849N12230057WA001740024162
B2247283740852N12230059WA001730024014
B2247293740854N12230061WA001730023943
B2247303740856N12230062WA001740023814
B2247313740858N12230063WA001730023718
B2247323740860N12230065WA001720023628
B2247333740862N12230068WA001710023570
B2247343740865N12230070WA001690023443
B2247353740868N12230072WA001670023305
B2247363740870N12230074WA001660023260
B2247373740874N12230074WA001640023115
B2247383740878N12230073WA001630023037
B2247393740883N12230070WA001610022808
B2247403740888N12230065WA001600022828
B2247413740893N12230059WA001580022620
B2247423740897N12230050WA001570022567
B2247433740901N12230041WA001560022524
B2247443740904N12230031WA001560022408
B2247453740905N12230021WA001560022328
B2247463740904N12230010WA001550022269
B2247473740901N12230000WA001540022071
B2247483740896N12229989WA001510022174
B2247493740890N12229979WA001490022223
B2247503740883N12229969WA001480022254
B2247513740878N12229960WA001490022225
B2247523740874N12229952WA001500022248
B2247533740870N12229945WA001510022030
B2247543740865N12229937WA001510021995
B2247553740860N12229929WA001500021997
B2247563740855N12229921WA001490022035
B2247573740849N12229913WA001480021975
B2247583740844N12229905WA001480021907
B2247593740838N12229898WA001470021820
B2248003740832N12229890WA001470021852
B2248013740826N12229882WA001470021795
B2248023740821N12229874WA001470021705
B2248033740815N12229866WA001460021706
B2248043740808N12229858WA001450021797
B2248053740802N12229851WA001450021653
B2248063740796N12229844WA001450021630
B2248073740790N12229837WA001450021501
B2248083740783N12229830WA001450021573
B2248093740777N12229823WA001450021436
B2248103740770N12229817WA001450021481
B2248113740764N12229811WA001450021530
B2248123740757N12229806WA001460021590
B2248133740752N12229801WA001470021416
B2248143740746N12229797WA001470021330
B2248153740740N12229792WA001470021241
B2248163740734N12229786WA001460021208
B2248173740727N12229781WA001450021228
B2248183740720N12229777WA001460021331
B2248193740713N12229772WA001460021363
B2248203740706N12229767WA001460021397
B2248213740700N12229762WA001470021329
B2248223740693N12229758WA001470021352
B2248233740686N12229753WA001470021372
B2248243740679N12229747WA001470021489
B2248253740673N12229742WA001470021505
B2248263740666N12229737WA001480021531
B2248273740659N12229732WA001480021581
B2248283740653N12229727WA001490021544
B2248293740646N12229722WA001490021576
B2248303740639N12229717WA001490021688
B2248313740632N12229713WA001490021670
B2248323740625N12229708WA001490021755
B2248333740618N12229704WA001500021864
B2248343740612N12229701WA001510021900
B2248353740605N12229698WA001520021965
B2248363740599N12229697WA001520022041
B2248373740593N12229696WA001530022046
B2248383740587N12229697WA001540022182
B2248393740584N12229699WA001550022042
B2248403740582N12229702WA001560022071
B2248413740581N12229705WA001560022062
B2248423740582N12229709WA001550022115
B2248433740583N12229712WA001550022106
B2248443740583N12229714WA001560022189
B2248453740584N12229716WA001560022166
B2248463740586N12229718WA001560022235
B2248473740589N12229720WA001560022209
B2248483740591N12229722WA001560022288
B2248493740594N12229724WA001560022241
B2248503740597N12229725WA001560022314
B2248513740599N12229726WA001560022353
B2248523740601N12229726WA001570022364
B2248533740604N12229726WA001570022321
B2248543740606N12229725WA001570022386
B2248553740609N12229725WA001570022383
B2248563740612N12229725WA001570022381
B2248573740616N12229725WA001580022313
B2248583740619N12229725WA001580022385
B2248593740623N12229725WA001580022367
B2249003740627N12229725WA001580022315
B2249013740630N12229725WA001590022431
B2249023740633N12229724WA001600022426
B2249033740636N12229724WA001600022401
B2249043740639N12229723WA001610022408
B2249053740642N12229723WA001610022447
B2249063740645N12229723WA001610022475
B2249073740649N12229723WA001610022505
B2249083740652N12229723WA001620022529
B2249093740655N12229724WA001620022553
B2249103740659N12229725WA001620022602
B2249113740662N12229726WA001630022631
B2249123740665N12229726WA001640022735
B2249133740668N12229726WA001650022715
B2249143740670N12229726WA001660022793
B2249153740673N12229726WA001660022784
B2249163740676N12229726WA001660022774
B2249173740679N12229726WA001650022778
B2249183740683N12229727WA001650022824
B2249193740686N12229727WA001650022889
B2249203740690N12229728WA001650022821
B2249213740693N12229727WA001650022809
B2249223740695N12229727WA001650022848
B2249233740698N12229728WA001650022812
B2249243740701N12229729WA001640022861
B2249253740705N12229730WA001630022851
B2249263740709N12229730WA001620022859
B2249273740713N12229731WA001630022941
B2249283740716N12229730WA001650022838
B2249293740718N12229730WA001660022853
B2249303740721N12229730WA001660022722
B2249313740724N12229730WA001650022732
B2249323740728N12229730WA001640022857
B2249333740732N12229731WA001640022870
B2249343740736N12229731WA001650022932
B2249353740739N12229730WA001660022958
B2249363740742N12229730WA001670022961
B2249373740745N12229729WA001680022978
B2249383740749N12229729WA001690022918
B2249393740752N12229730WA001690023071
B2249403740756N12229730WA001690023014
B2249413740759N12229730WA001700023114
B2249423740761N12229730WA001710023184
B2249433740764N12229730WA001710023126
B2249443740767N12229731WA001710023131
B2249453740770N12229732WA001700023180
B2249463740773N12229733WA001700023283
B2249473740775N12229735WA001710023272
B2249483740775N12229737WA001710023294
B2249493740773N12229740WA001700023261
B2249503740768N12229742WA001690023217
B2249513740761N12229744WA001680023281
B2249523740755N12229744WA001680023315
B2249533740749N12229744WA001690023302
B2249543740743N12229744WA001710023372
B2249553740738N12229744WA001720023364
B2249563740733N12229744WA001720023268
B2249573740728N12229745WA001720023337
B2249583740722N12229746WA001720023399
B2249593740717N12229748WA001720023426
B2250003740711N12229750WA001710023474
B2250013740706N12229752WA001710023443
B2250023740700N12229754WA001700023463
B2250033740694N12229756WA001700023446
B2250043740687N12229758WA001690023487
B2250053740681N12229760WA001700023523
B2250063740675N12229761WA001710023604
B2250073740669N12229762WA001720023554
B2250083740663N12229763WA001730023693
B2250093740658N12229764WA001730023547
B2250103740653N12229766WA001720023519
B2250113740647N12229770WA001710023550
B2250123740641N12229773WA001690023427
B2250133740634N12229778WA001670023460
B2250143740627N12229782WA001650023474
B2250153740620N12229786WA001640023574
B2250163740614N12229789WA001650023516
B2250173740607N12229792WA001660023592
B2250183740602N12229794WA001660023448
B2250193740597N12229797WA001660023357
B2250203740592N12229800WA001650023207
B2250213740585N12229804WA001640023171
B2250223740578N12229808WA001610022981
B2250233740571N12229812WA001580022825
B2250243740563N12229817WA001540022813
B2250253740555N12229822WA001500022733
B2250263740547N12229827WA001470022622
B2250273740539N12229831WA001460022543
B2250283740531N12229834WA001450022486
B2250293740524N12229837WA001450022209
B2250303740516N12229841WA001430022124
B2250313740508N12229845WA001420021987
B2250323740501N12229850WA001400021830
B2250333740493N12229854WA001380021771
B2250343740486N12229857WA001370021607
B2250353740478N12229860WA001350021538
B2250363740470N12229863WA001330021315
B2250373740461N12229865WA001320021237
B2250383740452N12229868WA001300021140
B2250393740443N12229870WA001290021075
B2250403740435N12229873WA001280020811
B2250413740426N12229875WA001260020768
B2250423740418N12229878WA001250020629
B2250433740410N12229882WA001240020489
B2250443740403N12229887WA001220020284
B2250453740396N12229892WA001210020062
B2250463740389N12229897WA001190019853
B2250473740382N12229902WA001170019666
B2250483740375N12229908WA001150019461
B2250493740368N12229913WA001130019355
B2250503740361N12229918WA001110019239
B2250513740354N12229924WA001100019016
B2250523740347N12229930WA001080018931
B2250533740340N12229935WA001080018763
B2250543740334N12229940WA001070018518
B2250553740327N12229945WA001070018428
B2250563740320N12229950WA001060018344
B2250573740313N12229954WA001060018274
B2250583740307N12229958WA001050018024
B2250593740300N12229962WA001040017940
B2251003740293N12229965WA001030017775
B2251013740286N12229969WA001010017553
B2251023740279N12229973WA000990017425
B2251033740271N12229977WA000960017399
B2251043740264N12229982WA000940017166
B2251053740257N12229986WA000910017028
B2251063740249N12229991WA000890016890
B2251073740242N12229994WA000860016669
B2251083740235N12229999WA000840016584
B2251093740228N12230003WA000830016499
B2251103740222N12230008WA000830016269
B2251113740217N12230014WA000830016011
B2251123740212N12230019WA000820015869
B2251133740209N12230025WA000810015727
B2251143740206N12230031WA000800015578
B2251153740204N12230037WA000780015498
B2251163740203N12230044WA000780015495
B2251173740203N12230049WA000790015455
B2251183740203N12230052WA000800015328
B2251193740205N12230056WA000810015239
B2251203740207N12230058WA000820015263
B2251213740210N12230059WA000830015161
B2251223740213N12230059WA000840015050
B2251233740216N12230059WA000830014980
B2251243740220N12230059WA000830014810
B2251253740224N12230058WA000820014841
B2251263740228N12230055WA000820014976
B2251273740233N12230050WA000800014956
B2251283740237N12230044WA000770015046
B2251293740239N12230039WA000740014971
B2251303740240N12230031WA000720015124
B2251323740234N12230012WA000680014813
B2251333740228N12230006WA000660014579
B2251343740223N12230001WA000670014487
B2251353740219N12229999WA000670014151
B2251363740216N12229996WA000670013821
B2251373740215N12229993WA000660013068
B2251383740216N12229989WA000660013039
B2251393740215N12229979WA000660012667
B2251403740213N12229970WA000650012669
B2251413740209N12229962WA000640012716
B2251423740202N12229956WA000630012778
B2251433740196N12229954WA000620012613
B2251443740189N12229952WA000610012776
B2251453740185N12229955WA000600012611
B2251463740183N12229959WA000580012548
B2251473740184N12229964WA000560012302
B2251483740185N12229965WA000550012365
B2251493740188N12229965WA000530012310
B2251503740187N12229966WA000520012345
B2251513740185N12229967WA000510012353
B2251523740184N12229966WA000510012232
B2251533740185N12229962WA000510011891
B2251553740190N12229945WA000500012158
B2251563740180N12229925WA000480010966
B2251573740176N12229925WA000460010813
B2251583740171N12229925WA000440010661
B2251593740169N12229922WA000410010418
B2252003740170N12229918WA000380010199
B2252013740171N12229915WA000350010077
B2252023740173N12229912WA000310009685
B2252033740177N12229907WA000270009502
B2252043740175N12229893WA000260008940
B2252053740171N12229887WA000270009421
B2252063740167N12229889WA000280009341
B2252073740165N12229887WA000280009318
B2252083740167N12229883WA000290009228
B2252093740172N12229880WA000300009514
B2252103740177N12229876WA000320009712
B2252113740181N12229867WA000330009917
B2252123740183N12229857WA000330009876
B2252133740184N12229845WA000330009950
B2252143740184N12229833WA000320009908
B2252153740181N12229822WA000320009969
B2252163740178N12229813WA000330010110
B2252173740174N12229803WA000330010113
B2252183740170N12229794WA000340010230
B2252193740166N12229785WA000340010218
B2252203740161N12229777WA000340010242
B2252213740154N12229774WA000330009949
B2252223740147N12229773WA000320009993
B2252233740145N12229778WA000300009786
B2252243740147N12229783WA000280009665
B2252253740152N12229785WA000270009500
B2252263740156N12229785WA000250009451
B2252273740160N12229783WA000240009342
B2252283740164N12229776WA000230009438
B2252293740164N12229765WA000220009747
B2252303740161N12229757WA000210009682
B2252313740155N12229742WA000190009869
B2252323740148N12229738WA000180009591
B2252333740142N12229740WA000160008925
B2252343740139N12229743WA000140008428
B2252353740139N12229749WA000130008101
B2252363740143N12229747WA000140007867
B2252373740148N12229744WA000150007740
B2252383740152N12229739WA000160007736
B2252393740156N12229736WA000170008553
B2252403740157N12229730WA000170008522
B2252413740156N12229726WA000170008669
B2252433740140N12229693WA000160007310
B2252443740133N12229694WA000150007470
B2252453740130N12229697WA000150007744
B2252463740129N12229700WA000160008011
B2252473740129N12229701WA000160008304
B2252483740130N12229701WA000170008434
B2252493740132N12229700WA000180008546
B2252503740135N12229699WA000180008516
B2252513740138N12229698WA000180008422
B2252523740141N12229697WA000170008440
B2252533740144N12229696WA000170008474
B2252543740148N12229696WA000160008412
B2252553740151N12229695WA000170008518
B2252563740153N12229695WA000180008554
B2252573740155N12229695WA000180008565
B2252583740157N12229696WA000180008483
B2252593740160N12229697WA000170008446
B2253003740163N12229698WA000170008406
B2253013740165N12229699WA000170008507
B2253023740166N12229700WA000170008629
B2253033740166N12229702WA000180008585
B2253043740167N12229704WA000170008520
B2253053740167N12229706WA000180008577
B2253063740168N12229709WA000170008500
B2253073740167N12229711WA000170008594
B2253083740166N12229713WA000170008688
B2253093740164N12229715WA000170008518
B2253103740160N12229716WA000170008507
B2253113740154N12229716WA000170008582
B2253123740148N12229713WA000180008574
B2253133740142N12229708WA000180008533
B2253143740136N12229700WA000170008545
B2253153740131N12229690WA000170008483
B2253163740129N12229678WA000160008477
B2253173740129N12229667WA000160008572
B2253183740131N12229657WA000170008701
B2253193740132N12229648WA000190008885
B2253203740134N12229640WA000200008846
B2253213740137N12229634WA000210008722
B2253223740140N12229628WA000210008690
B2253233740144N12229623WA000200008690
B2253243740148N12229619WA000200008669
B2253253740151N12229619WA000190008464
B2253263740153N12229621WA000180008342
B2253273740153N12229624WA000170008211
B2253283740150N12229626WA000160008115
B2253293740144N12229626WA000150008067
B2253303740137N12229624WA000130007954
B2253313740130N12229621WA000120008059
B2253323740125N12229621WA000130008058
B2253333740121N12229622WA000120007903
B2253343740119N12229624WA000100007730
B2253353740121N12229626WA000060007508
B2253363740124N12229626WA000030007679
B2253373740130N12229623WA000020007509
B2253383740135N12229619WA000040007782
B2253393740141N12229616WA000060007798
B2253403740146N12229614WA000070007554
B2253413740150N12229615WA000060007212
B2253423740153N12229616WA000050007026
B2253433740154N12229618WA000030007015
B2253443740149N12229621WA000010006740
B2253453740144N12229622WA-00020006759
B2253463740139N12229625WA-00030006799
B2253473740136N12229628WA-00050006679
B2253483740134N12229631WA-00070006654
B2253493740135N12229634WA-00090006561
B2253503740138N12229633WA-00110006534
B2253513740141N12229630WA-00100006434
B2253523740146N12229625WA-00080006649
B2253533740149N12229622WA-00060006371
B2253543740152N12229619WA-00060006170
B2253553740156N12229617WA-00070006236
B2253563740159N12229617WA-00090006155
B2253573740163N12229619WA-00100006246
B2253583740166N12229626WA-00120005040
B2253593740162N12229627WA-00140005044
B2254003740155N12229627WA-00160005098
B2254013740149N12229628WA-00150005076
B2254023740144N12229630WA-00150005080
B2254033740142N12229632WA-00150004920
B2254043740140N12229633WA-00150004969
B2254053740139N12229635WA-00160004835
B2254063740139N12229637WA-00170004742
B2254073740141N12229639WA-00190004753
B2254083740145N12229641WA-00210004750
B2254093740150N12229641WA-00230004672
B2254103740155N12229641WA-00240004643
B2254113740158N12229643WA-00250004645
B2254123740159N12229646WA-00240004699
B2254133740159N12229648WA-00230004795
B2254143740159N12229648WA-00210004663
B2254153740159N12229647WA-00190004671
B2254163740159N12229645WA-00200004587
B2254173740159N12229645WA-00210004488
B2254183740160N12229647WA-00220004515
B2254193740159N12229649WA-00230004572
B2254203740159N12229650WA-00240004640
B2254213740159N12229650WA-00240004651
B2254223740160N12229651WA-00240004509
B2254233740160N12229653WA-00250004432
B2254243740160N12229654WA-00250004548
B2254253740160N12229656WA-00240004580
B2254263740161N12229656WA-00250004508
B2254273740161N12229657WA-00260004526
B2254283740161N12229657WA-00250004434
B2254293740161N12229657WA-00250004437
B2254303740160N12229657WA-00250004485
B2254313740160N12229657WA-00250004385
B2254323740161N12229656WA-00240004339
B2254333740162N12229655WA-00240004313
B2254343740162N12229655WA-00240004353
B2254353740162N12229655WA-00240004353
B2254363740162N12229655WA-00240004353
B2254373740162N12229655WA-00240004253
B2254383740162N12229655WA-00240004253
B2254393740162N12229655WA-00240004353
B2254403740162N12229655WA-00240004253
B2254413740162N12229655WA-00240004353
B2254423740162N12229655WA-00240004253
LXCTFAICIVLCOMPLIANT true
G1C297BFF2E3F0F40921336F40E356A653C29413F4850827D19EFB33866B2F812
GFD6E95992C655468646A76AA5468F8E2A3E68251AC5ED0C7E4651A94FCC53CF1
GA20AFF40012DBAFD364A435A061E621C8CF03A461C864EE6135E2A78A1CC585C
GC910B46D9B73A8F5CA3A79081B12335FE939C92E7EB6DC1A434BFC31F9BADB87
