AXCT1786bebe619c83f6
HFFTYFRTYPE:Google Pixel 7 13 Client:xctrack FlightId:8c5ae421-770c-4728-9d0f-8863de212d5f
HFRFWFIRMWAREVERSION:0.9.8.6 LIVE:7fd09789d141b5c27e26fd20bb5d748799bbd702
HFPLTPILOTINCHARGE:Josh Cohn
HOSITSite:Blue Rock
HSCCLCOMPETITION CLASS:FAI-3 (PG)
HFGTYGLIDERTYPE:NIVIUK Icepeak X-One
HODTM100GPSDATUM:WGS-84
HFALPALTPRESSURE:ISA
HFALG:GEO
I023636LAD3737LOD
HFDTEDATE:240323,00
LXCTDEVICE eyJkZXZpY2UiOnsiY3B1QUJJIjoiYXJtNjQtdjhhIiwic2RrIjozMywiZGlzcGxhe
LXCTDEVICE SI6eyJ3IjoxMDgwLCJoIjoyMjE5LCJtbSI6MTYuNTM1NDMzfSwiZmluZ2VycHJpbn
LXCTDEVICE QiOiJnb29nbGUvcGFudGhlci9wYW50aGVyOjEzL1RRMUEuMjMwMjA1LjAwMi85NDc
LXCTDEVICE xMTUwOnVzZXIvcmVsZWFzZS1rZXlzIiwibW9kZWwiOiJQaXhlbCA3IiwiZGV2UXVl
LXCTDEVICE dWVCdWlsZCI6ImYyM2FhZjE0OGU1ZmEwY2MwYTA1MDNlYTgxNjU5N2M5YmM0ODA4M
LXCTDEVICE GQiLCJwcm9kdWN0IjoicGFudGhlciIsImFuZHJvaWRJZCI6IjE3ODZiZWJlNjE5Yz
LXCTDEVICE gzZjYiLCJtYW51ZmFjdHVyZXIiOiJHb29nbGUiLCJkZXZpY2VTdHJpbmciOiJHb29
LXCTDEVICE nbGUgUGl4ZWwgNyAxMyIsImJ1aWxkSWQiOiJUUTFBLjIzMDIwNS4wMDIiLCJjcHVB
LXCTDEVICE QkkyIjoiIiwiYm9hcmQiOiJwYW50aGVyIiwidGltZXpvbmUiOiJBbWVyaWNhL0xvc
LXCTDEVICE 19BbmdlbGVzIiwiaGFyZHdhcmUiOiJwYW50aGVyIn0sInhjdHJhY2siOnsidmVyc2
LXCTDEVICE lvbk5hbWUiOiIwLjkuOC42IiwidmVyc2lvbkNvZGUiOjkwODYxfSwiY2FwYWJpbGl
LXCTDEVICE 0aWVzIjp7Im1lbUNsYXNzIjoyNTYsIm1lbUxhcmdlQ2xhc3MiOjUxMiwibmFuIjp0
LXCTDEVICE cnVlfX0=
B1954053808287N12211721WA000730021238
B1954063808287N12211721WA000730021238
B1954073808287N12211721WA000730021238
B1954083808287N12211721WA000730021238
B1954093808287N12211721WA000720021249
B1954103808287N12211721WA000720021249
B1954113808287N12211721WA000720021359
B1954123808287N12211720WA000730021379
B1954133808287N12211719WA000730021353
B1954143808286N12211719WA000730021382
B1954153808286N12211719WA000730021344
B1954163808286N12211719WA000740021324
B1954173808286N12211720WA000730021395
B1954183808287N12211721WA000750021314
B1954193808286N12211722WA000670021380
B1954203808286N12211723WA000630021334
B1954213808285N12211724WA000700021269
B1954223808284N12211727WA000780021310
B1954233808282N12211730WA000780021321
B1954243808280N12211733WA000760021376
B1954253808279N12211736WA000750021406
B1954263808276N12211738WA000740021379
B1954273808273N12211740WA000730021368
B1954283808269N12211742WA000720021368
B1954293808265N12211744WA000730021315
B1954303808260N12211746WA000730021364
B1954313808256N12211748WA000740021304
B1954323808251N12211750WA000750021385
B1954333808247N12211752WA000750021457
B1954343808243N12211754WA000770021536
B1954353808239N12211756WA000790021548
B1954363808236N12211759WA000800021607
B1954373808232N12211762WA000790021550
B1954383808228N12211763WA000790021621
B1954393808223N12211763WA000790021614
B1954403808217N12211763WA000790021782
B1954413808212N12211764WA000800021873
B1954423808208N12211765WA000810021829
B1954433808204N12211766WA000820021829
B1954443808200N12211767WA000830021924
B1954453808195N12211767WA000830021988
B1954463808190N12211768WA000820022079
B1954473808185N12211770WA000810022174
B1954483808180N12211771WA000820022155
B1954493808175N12211772WA000830022283
B1954503808171N12211773WA000840022322
B1954513808166N12211774WA000850022374
B1954523808162N12211775WA000860022404
B1954533808157N12211776WA000880022632
B1954543808153N12211776WA000900022649
B1954553808150N12211778WA000920022633
B1954563808148N12211780WA000940022629
B1954573808147N12211784WA000940022543
B1954583808146N12211786WA000930022779
B1954593808148N12211787WA000940022793
B1955003808149N12211788WA000960022690
B1955013808154N12211781WA000990022313
B1955023808160N12211776WA001020022097
B1955033808163N12211773WA001050021986
B1955043808168N12211768WA001080021829
B1955053808172N12211765WA001090022068
B1955063808176N12211762WA001110022297
B1955073808180N12211761WA001120022211
B1955083808182N12211760WA001100022011
B1955093808189N12211758WA001080022354
B1955103808189N12211759WA001070022114
B1955113808185N12211758WA001070022663
B1955123808178N12211754WA001090022671
B1955133808172N12211750WA001120022802
B1955143808164N12211745WA001150023092
B1955153808158N12211740WA001180023377
B1955163808151N12211735WA001200023576
B1955173808144N12211730WA001230023867
B1955183808138N12211726WA001260024177
B1955193808133N12211724WA001290024243
B1955203808127N12211723WA001300024481
B1955213808122N12211724WA001310024700
B1955223808115N12211726WA001320024894
B1955233808110N12211727WA001340024957
B1955243808104N12211727WA001360025183
B1955253808098N12211725WA001380025596
B1955263808093N12211723WA001400025729
B1955273808088N12211723WA001410025899
B1955283808085N12211725WA001430025911
B1955293808081N12211727WA001440026149
B1955303808078N12211731WA001450026438
B1955313808075N12211735WA001460026763
B1955323808073N12211738WA001480026825
B1955333808070N12211741WA001490027179
B1955343808068N12211744WA001500027369
B1955353808066N12211747WA001520027596
B1955363808065N12211750WA001530027757
B1955373808064N12211754WA001530027876
B1955383808065N12211759WA001530028045
B1955393808067N12211764WA001530028204
B1955403808069N12211768WA001550028411
B1955413808071N12211770WA001570028609
B1955423808073N12211773WA001590028727
B1955433808075N12211776WA001610028962
B1955443808078N12211778WA001640029063
B1955453808082N12211778WA001660029031
B1955463808086N12211775WA001680028959
B1955473808090N12211769WA001670028938
B1955483808095N12211763WA001680029043
B1955493808097N12211757WA001670029137
B1955503808096N12211753WA001680029149
B1955513808096N12211750WA001690029122
B1955523808095N12211747WA001690029176
B1955533808095N12211745WA001710029583
B1955543808095N12211743WA001740029625
B1955553808093N12211743WA001780029716
B1955563808089N12211745WA001820029399
B1955573808091N12211747WA001850029218
B1955583808094N12211745WA001870029282
B1955593808097N12211742WA001890029694
B1956003808098N12211736WA001890029904
B1956013808099N12211729WA001880030265
B1956023808100N12211722WA001880030312
B1956033808098N12211714WA001890030484
B1956043808098N12211708WA001910030611
B1956053808097N12211703WA001950030807
B1956063808095N12211702WA001980031055
B1956073808093N12211701WA002020031502
B1956083808091N12211702WA002060031256
B1956093808091N12211706WA002090031130
B1956103808093N12211707WA002120031041
B1956113808092N12211707WA002150030967
B1956123808092N12211707WA002160031058
B1956143808087N12211696WA002160032231
B1956153808081N12211689WA002170032946
B1956163808074N12211684WA002180033568
B1956173808067N12211682WA002200034017
B1956183808060N12211683WA002220034385
B1956193808056N12211686WA002240034729
B1956203808053N12211691WA002270035065
B1956213808053N12211696WA002300035234
B1956223808054N12211701WA002320035744
B1956233808056N12211705WA002340036225
B1956243808058N12211708WA002370036771
B1956253808061N12211710WA002400036813
B1956263808063N12211710WA002430036990
B1956273808067N12211707WA002440036922
B1956283808071N12211701WA002430037230
B1956293808074N12211693WA002440037662
B1956303808075N12211684WA002460037950
B1956313808076N12211674WA002470037902
B1956323808071N12211665WA002490038149
B1956333808065N12211659WA002510038339
B1956343808058N12211656WA002530038658
B1956353808052N12211656WA002550038928
B1956363808047N12211659WA002570039125
B1956373808042N12211662WA002600039253
B1956383808041N12211666WA002630039438
B1956393808040N12211671WA002650039507
B1956403808040N12211676WA002680039603
B1956413808041N12211680WA002700039745
B1956423808044N12211684WA002730039911
B1956433808047N12211686WA002750040052
B1956443808051N12211687WA002780040070
B1956453808056N12211684WA002790040070
B1956463808060N12211677WA002780039998
B1956473808064N12211669WA002780040084
B1956483808067N12211659WA002790040109
B1956493808067N12211650WA002800040113
B1956503808064N12211639WA002820040338
B1956513808060N12211630WA002850040248
B1956523808055N12211623WA002880040245
B1956533808049N12211617WA002920040349
B1956543808043N12211615WA002960040376
B1956553808039N12211616WA002980040205
B1956563808035N12211618WA003010040568
B1956573808033N12211625WA003040040527
B1956583808032N12211632WA003070040243
B1956593808031N12211639WA003090040521
B1957003808030N12211646WA003120040857
B1957013808030N12211653WA003140041190
B1957023808032N12211658WA003150041427
B1957033808034N12211663WA003150041893
B1957043808039N12211665WA003160042316
B1957053808044N12211664WA003170042535
B1957063808048N12211660WA003180042896
B1957073808053N12211653WA003190043084
B1957083808056N12211642WA003220043495
B1957093808057N12211630WA003250043894
B1957103808056N12211618WA003290044039
B1957113808052N12211609WA003320044288
B1957123808048N12211602WA003340044304
B1957133808042N12211596WA003370044360
B1957143808035N12211593WA003390044460
B1957153808029N12211592WA003410044514
B1957163808024N12211592WA003420044617
B1957173808020N12211594WA003430044811
B1957183808018N12211598WA003460044741
B1957193808016N12211601WA003480044654
B1957203808015N12211605WA003500044779
B1957213808016N12211608WA003520044669
B1957223808018N12211610WA003530044734
B1957233808021N12211611WA003540044862
B1957253808026N12211608WA003570045071
B1957263808028N12211602WA003600045080
B1957273808026N12211594WA003620045355
B1957283808022N12211588WA003650045549
B1957293808017N12211586WA003670045623
B1957303808011N12211585WA003690046016
B1957313808006N12211586WA003710046473
B1957323808004N12211588WA003740047358
B1957333808002N12211593WA003770047692
B1957343808004N12211596WA003790048093
B1957353808009N12211597WA003800048444
B1957363808014N12211595WA003800048896
B1957373808020N12211591WA003800049265
B1957383808026N12211587WA003810049530
B1957393808030N12211580WA003830049769
B1957403808033N12211573WA003850050281
B1957413808035N12211564WA003880050787
B1957423808036N12211555WA003910051157
B1957433808035N12211546WA003940051434
B1957443808031N12211537WA003960051798
B1957453808027N12211530WA003970052045
B1957463808022N12211525WA003980052528
B1957473808016N12211524WA004000052892
B1957483808012N12211525WA004020053027
B1957493808007N12211527WA004040053191
B1957503808004N12211530WA004070053471
B1957513808002N12211533WA004100053642
B1957523808001N12211536WA004120053785
B1957533808003N12211539WA004130053854
B1957543808007N12211541WA004120054021
B1957553808011N12211540WA004130054278
B1957563808016N12211538WA004140054543
B1957573808020N12211533WA004160054752
B1957583808023N12211526WA004180054984
B1957593808026N12211519WA004200055077
B1958003808028N12211511WA004220055066
B1958013808029N12211502WA004240055015
B1958023808027N12211492WA004240055159
B1958033808023N12211483WA004240055277
B1958043808018N12211476WA004250055301
B1958053808011N12211470WA004270055459
B1958063808006N12211469WA004300055514
B1958073808001N12211469WA004330055504
B1958083807996N12211470WA004360055676
B1958093807992N12211472WA004380055723
B1958103807989N12211476WA004400055832
B1958113807989N12211482WA004430056183
B1958123807990N12211486WA004440056013
B1958133807992N12211489WA004440055781
B1958143807996N12211490WA004440055644
B1958153808001N12211490WA004440055814
B1958163808006N12211488WA004450055939
B1958173808011N12211484WA004460056085
B1958183808016N12211477WA004460056122
B1958193808020N12211466WA004460056357
B1958203808023N12211455WA004470056506
B1958213808022N12211445WA004480056791
B1958223808021N12211434WA004490056803
B1958233808017N12211424WA004500057095
B1958243808013N12211416WA004500057173
B1958253808008N12211410WA004500057119
B1958263808001N12211407WA004510057309
B1958273807993N12211405WA004530057559
B1958283807987N12211406WA004560057773
B1958293807983N12211407WA004590057838
B1958303807979N12211410WA004610057860
B1958313807976N12211413WA004640058030
B1958323807973N12211417WA004660058292
B1958333807972N12211421WA004680058346
B1958343807971N12211426WA004700058595
B1958353807973N12211430WA004710058618
B1958363807975N12211434WA004710058781
B1958373807980N12211436WA004710058962
B1958383807986N12211436WA004710059136
B1958393807992N12211435WA004730059111
B1958403807997N12211431WA004750059210
B1958413808001N12211424WA004760059255
B1958423808004N12211417WA004780059392
B1958433808007N12211408WA004770059439
B1958443808009N12211399WA004760059556
B1958453808010N12211389WA004760059571
B1958463808009N12211377WA004750059698
B1958473808006N12211368WA004740059790
B1958483808002N12211359WA004740059751
B1958493807997N12211353WA004750059706
B1958503807991N12211349WA004770059788
B1958513807987N12211348WA004790059910
B1958523807981N12211345WA004810060077
B1958533807977N12211343WA004830060204
B1958543807972N12211341WA004860060354
B1958553807967N12211339WA004880060598
B1958563807963N12211338WA004900060700
B1958573807958N12211336WA004910060843
B1958583807952N12211333WA004910060997
B1958593807946N12211330WA004910061268
B1959003807939N12211327WA004920061449
B1959013807933N12211325WA004940061512
B1959023807927N12211322WA004970061705
B1959033807921N12211320WA005000061824
B1959043807916N12211320WA005030062015
B1959053807910N12211323WA005060062290
B1959063807907N12211326WA005090062242
B1959073807905N12211329WA005110062449
B1959083807904N12211333WA005110062470
B1959093807905N12211335WA005120062568
B1959103807907N12211339WA005130062451
B1959113807909N12211341WA005140062513
B1959123807911N12211344WA005140062730
B1959133807914N12211346WA005140063044
B1959143807917N12211349WA005150063180
B1959153807921N12211351WA005170063224
B1959163807923N12211352WA005200063368
B1959173807925N12211353WA005220063559
B1959183807927N12211355WA005240063766
B1959193807929N12211358WA005240063929
B1959203807930N12211362WA005260064228
B1959213807930N12211365WA005280064375
B1959223807931N12211367WA005320064455
B1959233807932N12211369WA005350064681
B1959243807934N12211370WA005370064858
B1959253807936N12211372WA005380065043
B1959263807939N12211373WA005370065228
B1959273807942N12211374WA005360065373
B1959283807947N12211374WA005360065420
B1959293807952N12211372WA005350065632
B1959303807957N12211368WA005350065614
B1959313807961N12211362WA005350065601
B1959323807963N12211353WA005350065549
B1959333807964N12211343WA005350065618
B1959343807963N12211333WA005360065774
B1959353807963N12211325WA005370065863
B1959363807964N12211317WA005380065916
B1959373807964N12211310WA005380065860
B1959383807963N12211302WA005370065741
B1959393807960N12211293WA005340065769
B1959403807956N12211285WA005310065819
B1959413807950N12211277WA005290066155
B1959423807944N12211270WA005290066360
B1959433807940N12211263WA005310066353
B1959443807937N12211258WA005340066238
B1959453807934N12211255WA005370066124
B1959463807930N12211253WA005390066216
B1959473807924N12211252WA005400066474
B1959483807918N12211251WA005400066460
B1959493807911N12211250WA005410066587
B1959503807905N12211251WA005410066661
B1959513807900N12211252WA005430066723
B1959523807895N12211253WA005440066739
B1959533807891N12211256WA005450066714
B1959543807886N12211259WA005440066773
B1959553807883N12211263WA005430066814
B1959563807880N12211268WA005410066978
B1959573807879N12211274WA005390066973
B1959583807880N12211278WA005380066950
B1959593807881N12211279WA005380066916
B2000003807883N12211278WA005400066926
B2000013807886N12211273WA005420066375
B2000023807890N12211267WA005450066112
B2000033807892N12211260WA005470065445
B2000043807893N12211253WA005490065481
B2000053807895N12211244WA005500065528
B2000063807897N12211235WA005490065723
B2000073807899N12211225WA005480065856
B2000083807902N12211214WA005490066175
B2000093807904N12211202WA005500066279
B2000103807904N12211190WA005520066520
B2000113807902N12211179WA005540066704
B2000123807898N12211172WA005570066676
B2000133807892N12211168WA005600066584
B2000143807887N12211166WA005630066350
B2000153807883N12211166WA005650066338
B2000163807878N12211168WA005670066323
B2000173807872N12211171WA005700066660
B2000183807867N12211173WA005700066824
B2000193807862N12211176WA005700066801
B2000203807858N12211178WA005700066726
B2000213807855N12211182WA005700067021
B2000223807853N12211186WA005690067589
B2000233807854N12211192WA005690067670
B2000243807857N12211196WA005700067854
B2000253807860N12211198WA005710068007
B2000263807863N12211197WA005720068148
B2000273807867N12211193WA005730068315
B2000283807871N12211187WA005740068412
B2000293807874N12211178WA005760068565
B2000303807877N12211168WA005770068664
B2000313807878N12211158WA005780068955
B2000323807877N12211148WA005790069264
B2000333807875N12211139WA005810069422
B2000343807872N12211131WA005830069647
B2000353807869N12211125WA005850069828
B2000363807864N12211120WA005870069995
B2000373807860N12211115WA005890070144
B2000383807855N12211110WA005910070246
B2000393807850N12211106WA005920070404
B2000403807844N12211103WA005920070542
B2000413807838N12211101WA005920070662
B2000423807832N12211100WA005920070826
B2000433807826N12211100WA005930070908
B2000443807820N12211101WA005940071049
B2000453807815N12211104WA005950071020
B2000463807811N12211107WA005950071101
B2000473807808N12211110WA005940071159
B2000483807808N12211115WA005930071111
B2000493807809N12211118WA005910071106
B2000503807811N12211120WA005900071011
B2000513807814N12211120WA005890071040
B2000523807818N12211118WA005900071195
B2000533807823N12211114WA005910071258
B2000543807828N12211110WA005930071223
B2000553807831N12211106WA005940071261
B2000563807834N12211100WA005960071171
B2000573807837N12211092WA005970071251
B2000583807839N12211083WA005990071328
B2000593807839N12211075WA006000071447
B2001003807838N12211066WA006010071429
B2001013807834N12211059WA006000071475
B2001023807829N12211053WA006000071344
B2001033807823N12211049WA005990071333
B2001043807816N12211048WA005990071456
B2001053807810N12211050WA006000071355
B2001063807806N12211053WA006000071316
B2001073807803N12211057WA006010071014
B2001083807800N12211060WA006010071104
B2001093807795N12211064WA006020071280
B2001103807793N12211066WA006030071002
B2001113807793N12211068WA006050071227
B2001123807794N12211069WA006070071651
B2001133807797N12211068WA006090072017
B2001143807800N12211065WA006110072076
B2001153807804N12211060WA006120072036
B2001163807806N12211053WA006110071956
B2001173807806N12211045WA006090071871
B2001183807805N12211035WA006070071839
B2001193807802N12211027WA006050071652
B2001203807797N12211020WA006030071560
B2001213807792N12211014WA006020071618
B2001223807785N12211010WA006020071968
B2001233807779N12211006WA006030072371
B2001243807774N12211002WA006060072787
B2001253807769N12210999WA006080073093
B2001263807764N12210996WA006100073238
B2001273807758N12210995WA006110073341
B2001283807752N12210995WA006100073219
B2001293807746N12210999WA006100073173
B2001303807742N12211004WA006090073132
B2001313807739N12211008WA006070073119
B2001323807736N12211014WA006070073167
B2001333807737N12211019WA006080073013
B2001343807739N12211022WA006090072856
B2001353807742N12211024WA006110072753
B2001363807746N12211024WA006120072543
B2001373807749N12211023WA006130072686
B2001383807752N12211023WA006130072790
B2001393807757N12211022WA006120072955
B2001403807762N12211020WA006120072795
B2001413807768N12211015WA006100072616
B2001423807773N12211006WA006100072429
B2001433807775N12210997WA006090072073
B2001443807776N12210988WA006080072030
B2001453807775N12210978WA006070072147
B2001463807772N12210970WA006070072367
B2001473807768N12210964WA006060072162
B2001483807763N12210958WA006040072317
B2001493807756N12210957WA006030072545
B2001503807749N12210958WA006020072979
B2001513807743N12210960WA006010072932
B2001523807729N12210962WA006000072598
B2001533807721N12210964WA005990072739
B2001543807713N12210966WA005980072728
B2001553807705N12210968WA005990072737
B2001563807697N12210970WA006000072633
B2001573807690N12210972WA006000072643
B2001583807684N12210975WA006000072585
B2001593807680N12210979WA006000072540
B2002003807677N12210983WA006000072593
B2002013807676N12210987WA006010072362
B2002023807676N12210989WA006010072273
B2002033807676N12210991WA006000071922
B2002043807678N12210991WA006000071480
B2002053807683N12210988WA005990071334
B2002063807688N12210985WA005970071362
B2002073807694N12210980WA005960070922
B2002083807699N12210973WA005950070713
B2002093807702N12210965WA005940070713
B2002103807704N12210955WA005920070837
B2002113807705N12210944WA005910070869
B2002123807704N12210934WA005900070872
B2002133807701N12210924WA005900070755
B2002143807696N12210917WA005910070652
B2002153807691N12210911WA005910070433
B2002163807685N12210907WA005910070502
B2002173807679N12210902WA005900070409
B2002183807672N12210898WA005890070694
B2002193807667N12210893WA005890070645
B2002203807661N12210888WA005880070699
B2002213807655N12210884WA005870070666
B2002223807648N12210879WA005860070738
B2002233807640N12210873WA005850070856
B2002243807632N12210866WA005830070871
B2002253807625N12210859WA005830070820
B2002263807617N12210853WA005830070864
B2002273807610N12210848WA005830070816
B2002283807603N12210844WA005840070910
B2002293807596N12210839WA005840070972
B2002303807590N12210834WA005850070866
B2002313807584N12210830WA005840070856
B2002323807578N12210827WA005830070642
B2002333807571N12210824WA005800070552
B2002343807563N12210821WA005750070587
B2002353807555N12210819WA005710070649
B2002363807546N12210818WA005670070575
B2002373807538N12210817WA005630070541
B2002383807530N12210815WA005590070504
B2002393807521N12210812WA005560070540
B2002403807513N12210807WA005550070445
B2002413807506N12210803WA005550070201
B2002423807498N12210798WA005540070058
B2002433807490N12210794WA005510069997
B2002443807482N12210791WA005490069880
B2002453807474N12210787WA005450069836
B2002463807465N12210784WA005410069757
B2002473807456N12210781WA005380069699
B2002483807448N12210778WA005370069483
B2002493807441N12210775WA005360069240
B2002503807434N12210771WA005340069036
B2002513807427N12210768WA005310068866
B2002523807420N12210765WA005280068682
B2002533807413N12210761WA005250068678
B2002543807406N12210758WA005210068574
B2002553807399N12210754WA005180068469
B2002563807392N12210750WA005140068349
B2002573807385N12210746WA005110068116
B2002583807377N12210742WA005080068081
B2002593807370N12210737WA005050067856
B2003003807363N12210733WA005030067542
B2003013807356N12210728WA005020067347
B2003023807349N12210724WA004990067140
B2003033807342N12210719WA004970067003
B2003043807334N12210714WA004940066817
B2003053807326N12210710WA004910066622
B2003063807318N12210705WA004890066376
B2003073807311N12210700WA004870066069
B2003083807304N12210696WA004860065794
B2003093807298N12210692WA004830065524
B2003103807290N12210688WA004790065386
B2003113807283N12210684WA004750065109
B2003123807274N12210681WA004710065097
B2003133807267N12210678WA004680064817
B2003143807259N12210675WA004650064669
B2003153807252N12210673WA004620064343
B2003163807245N12210670WA004600064135
B2003173807238N12210667WA004570063913
B2003183807230N12210663WA004530063758
B2003193807222N12210660WA004500063543
B2003203807214N12210656WA004470063418
B2003213807206N12210653WA004450063255
B2003223807198N12210649WA004450062998
B2003233807191N12210645WA004450062638
B2003243807183N12210641WA004440062497
B2003253807176N12210637WA004430062154
B2003263807169N12210633WA004410061850
B2003273807162N12210629WA004380061622
B2003283807154N12210626WA004350061410
B2003293807145N12210623WA004310061281
B2003303807137N12210620WA004270061033
B2003313807129N12210617WA004240060823
B2003323807121N12210614WA004220060621
B2003333807113N12210610WA004200060437
B2003343807105N12210607WA004180060122
B2003353807097N12210604WA004160059840
B2003363807089N12210600WA004140059527
B2003373807081N12210597WA004110059213
B2003383807072N12210593WA004070059087
B2003393807063N12210589WA004030058999
B2003403807055N12210586WA004000058724
B2003413807046N12210582WA003980058669
B2003423807038N12210579WA003980058473
B2003433807031N12210575WA003970058235
B2003443807024N12210571WA003960057875
B2003453807018N12210567WA003940057411
B2003463807010N12210562WA003900057198
B2003473807002N12210558WA003850056978
B2003483806993N12210555WA003790056875
B2003493806984N12210552WA003740056766
B2003503806975N12210549WA003700056658
B2003513806966N12210547WA003670056391
B2003523806959N12210545WA003650056151
B2003533806952N12210543WA003630055827
B2003543806944N12210542WA003620055574
B2003553806936N12210540WA003590055347
B2003563806928N12210539WA003560055142
B2003573806920N12210538WA003540054860
B2003583806913N12210536WA003500054607
B2003593806905N12210535WA003460054565
B2004003806898N12210534WA003430054335
B2004013806891N12210533WA003400054228
B2004023806884N12210533WA003390054140
B2004033806877N12210531WA003400053967
B2004043806870N12210530WA003400053793
B2004053806863N12210527WA003410053388
B2004063806857N12210525WA003430053031
B2004073806851N12210522WA003440052700
B2004083806846N12210518WA003450052308
B2004093806840N12210517WA003460052074
B2004103806835N12210518WA003450051771
B2004113806832N12210521WA003440051255
B2004123806830N12210526WA003420051016
B2004133806828N12210531WA003410050836
B2004143806827N12210535WA003390050518
B2004153806826N12210539WA003380050453
B2004173806826N12210537WA003370049788
B2004183806830N12210527WA003380049061
B2004193806833N12210511WA003400048242
B2004203806832N12210498WA003420048167
B2004213806836N12210486WA003440047871
B2004223806835N12210476WA003450047771
B2004233806831N12210470WA003450048015
B2004243806826N12210467WA003450048010
B2004253806821N12210467WA003440048033
B2004263806816N12210470WA003420047985
B2004273806814N12210474WA003410048018
B2004283806813N12210478WA003410048025
B2004293806814N12210481WA003420048056
B2004303806817N12210483WA003420047805
B2004313806819N12210485WA003410047796
B2004323806824N12210485WA003410047601
B2004333806829N12210483WA003400047613
B2004343806834N12210479WA003390047531
B2004353806839N12210474WA003380047550
B2004363806843N12210464WA003370047619
B2004373806845N12210455WA003370047851
B2004383806846N12210445WA003390047936
B2004393806845N12210436WA003410047996
B2004403806845N12210427WA003420047931
B2004413806843N12210418WA003430047804
B2004423806838N12210409WA003420047798
B2004433806833N12210402WA003400047604
B2004443806826N12210397WA003380047617
B2004453806819N12210394WA003370047635
B2004463806813N12210395WA003360047656
B2004473806809N12210397WA003370047648
B2004483806806N12210400WA003380047762
B2004493806805N12210402WA003390047748
B2004503806806N12210404WA003390047639
B2004513806809N12210406WA003380047443
B2004523806812N12210407WA003370047555
B2004533806817N12210405WA003370047615
B2004543806821N12210401WA003370047744
B2004553806824N12210395WA003380047772
B2004563806826N12210387WA003390047693
B2004573806827N12210378WA003390047582
B2004583806826N12210368WA003380047383
B2004593806823N12210358WA003360047134
B2005003806817N12210350WA003340046960
B2005013806810N12210344WA003310046865
B2005023806804N12210339WA003290046809
B2005033806797N12210340WA003280046877
B2005043806793N12210342WA003280046819
B2005053806790N12210345WA003290046816
B2005063806788N12210348WA003300046845
B2005073806786N12210351WA003310046758
B2005083806785N12210355WA003310046790
B2005093806786N12210358WA003300046671
B2005103806788N12210361WA003280046676
B2005113806792N12210365WA003260046704
B2005123806795N12210368WA003250046794
B2005133806798N12210370WA003250046792
B2005143806801N12210371WA003250046664
B2005153806804N12210372WA003250046416
B2005163806806N12210374WA003240046339
B2005173806808N12210378WA003220046305
B2005183806809N12210383WA003200046334
B2005193806811N12210388WA003190046324
B2005203806813N12210392WA003180046371
B2005213806816N12210394WA003190046111
B2005223806817N12210395WA003190046069
B2005233806818N12210397WA003180045859
B2005243806818N12210401WA003160045832
B2005253806817N12210405WA003130045826
B2005263806814N12210410WA003100045858
B2005273806810N12210415WA003090045887
B2005283806808N12210418WA003100045604
B2005293806805N12210419WA003100045499
B2005303806803N12210421WA003090045224
B2005313806799N12210422WA003060045159
B2005323806794N12210425WA003020045180
B2005333806788N12210427WA002970045291
B2005343806783N12210429WA002950045210
B2005353806777N12210430WA002930045171
B2005363806773N12210430WA002930044911
B2005373806768N12210430WA002920044691
B2005383806764N12210430WA002900044428
B2005393806758N12210432WA002890044390
B2005403806753N12210432WA002870044122
B2005413806747N12210431WA002850043942
B2005423806741N12210429WA002830043799
B2005433806736N12210429WA002800043584
B2005443806731N12210430WA002770043496
B2005453806728N12210433WA002740043254
B2005463806725N12210437WA002710043190
B2005473806724N12210440WA002680042937
B2005483806723N12210444WA002660042763
B2005493806723N12210447WA002640042514
B2005503806722N12210450WA002640042229
B2005513806721N12210454WA002630042046
B2005523806721N12210457WA002620041926
B2005533806720N12210460WA002610041796
B2005543806721N12210463WA002590041542
B2005553806721N12210465WA002570041295
B2005563806722N12210468WA002540041038
B2005573806722N12210473WA002490041022
B2005583806721N12210478WA002450041087
B2005593806720N12210484WA002410041096
B2006003806720N12210489WA002390040805
B2006013806718N12210494WA002390040581
B2006023806717N12210495WA002400040179
B2006033806716N12210498WA002390039819
B2006043806714N12210502WA002380039657
B2006053806712N12210507WA002360039472
B2006063806710N12210511WA002340039254
B2006073806707N12210515WA002310039165
B2006083806703N12210519WA002290038980
B2006093806699N12210522WA002280038860
B2006103806696N12210524WA002250038656
B2006113806694N12210528WA002230038431
B2006123806692N12210532WA002210038346
B2006133806690N12210537WA002190038288
B2006143806689N12210542WA002170038028
B2006153806687N12210546WA002160037735
B2006163806685N12210549WA002160037584
B2006173806684N12210552WA002150037232
B2006183806683N12210555WA002140037151
B2006193806681N12210558WA002130036862
B2006203806678N12210561WA002100036797
B2006213806675N12210566WA002080036741
B2006223806672N12210570WA002060036611
B2006233806668N12210574WA002040036556
B2006243806664N12210578WA002030036469
B2006253806660N12210582WA002020036292
B2006263806657N12210585WA002010036011
B2006273806653N12210588WA001990035843
B2006283806649N12210592WA001970035754
B2006293806645N12210596WA001940035549
B2006303806641N12210601WA001910035518
B2006313806636N12210607WA001890035312
B2006323806631N12210612WA001870035310
B2006333806626N12210615WA001860035117
B2006343806620N12210618WA001860034877
B2006353806615N12210622WA001850034542
B2006363806610N12210626WA001840034475
B2006373806606N12210631WA001830034372
B2006383806603N12210635WA001830034055
B2006393806600N12210639WA001840033943
B2006403806598N12210642WA001860033701
B2006413806595N12210644WA001870033556
B2006423806593N12210647WA001880033411
B2006433806590N12210649WA001880033369
B2006443806587N12210653WA001870033383
B2006453806584N12210657WA001860033284
B2006463806581N12210661WA001850033106
B2006473806576N12210665WA001850033165
B2006483806571N12210668WA001860033167
B2006493806567N12210671WA001860032904
B2006503806563N12210673WA001870032729
B2006513806560N12210676WA001870032613
B2006523806557N12210679WA001860032451
B2006533806554N12210683WA001830032381
B2006543806551N12210689WA001790032274
B2006553806549N12210697WA001740032203
B2006563806546N12210704WA001710032286
B2006573806544N12210710WA001700032235
B2006583806541N12210715WA001710032155
B2006593806538N12210719WA001710032065
B2007003806536N12210722WA001700031917
B2007013806533N12210726WA001680031729
B2007023806530N12210732WA001660031600
B2007033806526N12210738WA001630031634
B2007043806522N12210745WA001600031506
B2007053806518N12210751WA001590031426
B2007063806514N12210756WA001600031272
B2007073806511N12210760WA001590030925
B2007083806507N12210765WA001560030761
B2007093806503N12210770WA001530030572
B2007103806499N12210776WA001500030582
B2007113806496N12210782WA001470030328
B2007123806493N12210789WA001450030141
B2007133806490N12210795WA001420030091
B2007143806487N12210801WA001390029992
B2007153806483N12210806WA001370029849
B2007163806478N12210812WA001370029670
B2007173806474N12210816WA001380029542
B2007183806470N12210820WA001390029310
B2007193806465N12210822WA001400029269
B2007203806460N12210825WA001400029276
B2007213806456N12210828WA001400029267
B2007223806453N12210831WA001400029108
B2007233806450N12210834WA001410029032
B2007243806447N12210835WA001420028985
B2007253806445N12210836WA001410028847
B2007263806442N12210838WA001400028785
B2007273806439N12210841WA001370028767
B2007283806435N12210845WA001350028694
B2007293806432N12210848WA001350028436
B2007303806428N12210850WA001360028298
B2007313806425N12210852WA001360028167
B2007323806422N12210854WA001350028119
B2007333806418N12210857WA001340028148
B2007343806414N12210861WA001350028251
B2007353806411N12210864WA001370028211
B2007363806407N12210865WA001390028174
B2007373806404N12210866WA001420028273
B2007383806402N12210867WA001440028203
B2007393806400N12210868WA001460028167
B2007403806400N12210871WA001450028280
B2007413806402N12210872WA001450028278
B2007423806405N12210872WA001440028014
B2007433806406N12210871WA001430027980
B2007443806408N12210870WA001420027852
B2007453806409N12210869WA001430027904
B2007473806412N12210875WA001470028183
B2007483806411N12210878WA001490028273
B2007493806408N12210871WA001510028029
B2007503806409N12210872WA001530027926
B2007513806408N12210866WA001540027741
B2007523806408N12210860WA001570027676
B2007533806411N12210851WA001580027390
B2007543806414N12210841WA001580027221
B2007553806415N12210830WA001580027305
B2007563806417N12210819WA001590027232
B2007573806414N12210807WA001590027155
B2007583806410N12210797WA001610027194
B2007593806407N12210786WA001630027127
B2008013806396N12210764WA001670027920
B2008023806394N12210758WA001670027817
B2008033806392N12210755WA001680027783
B2008043806391N12210750WA001690027659
B2008053806391N12210749WA001710026991
B2008063806394N12210748WA001720026611
B2008073806396N12210745WA001700026900
B2008083806399N12210738WA001690026934
B2008093806404N12210732WA001690027129
B2008103806407N12210724WA001690027215
B2008113806410N12210715WA001700027073
B2008123806408N12210708WA001720026998
B2008133806406N12210703WA001730027466
B2008143806403N12210700WA001750027858
B2008153806398N12210709WA001760029059
B2008163806396N12210709WA001770029033
B2008173806395N12210711WA001760029247
B2008183806395N12210714WA001770029547
B2008193806396N12210719WA001780029861
B2008203806397N12210723WA001790030281
B2008213806400N12210725WA001800030401
B2008223806404N12210722WA001800030301
B2008233806407N12210716WA001800030415
B2008243806408N12210708WA001790030666
B2008253806410N12210699WA001790030503
B2008263806407N12210688WA001780030575
B2008273806402N12210679WA001780030620
B2008283806394N12210673WA001790030830
B2008293806386N12210672WA001810031296
B2008303806381N12210673WA001830031519
B2008313806375N12210674WA001860031719
B2008323806371N12210678WA001880032094
B2008333806370N12210681WA001900032111
B2008343806369N12210684WA001900032273
B2008353806371N12210686WA001900032326
B2008363806374N12210687WA001890032442
B2008373806378N12210685WA001890032532
B2008383806382N12210680WA001880032560
B2008393806386N12210672WA001880032603
B2008403806389N12210664WA001880032725
B2008413806390N12210656WA001900033062
B2008423806391N12210647WA001920033159
B2008433806392N12210639WA001940033113
B2008443806391N12210630WA001950033121
B2008453806387N12210620WA001940033084
B2008463806382N12210611WA001930032967
B2008473806376N12210604WA001920032938
B2008483806369N12210600WA001910032975
B2008493806363N12210599WA001920032820
B2008503806357N12210600WA001900032758
B2008513806352N12210603WA001880032701
B2008523806351N12210608WA001870032948
B2008533806350N12210614WA001870033096
B2008543806351N12210617WA001890033369
B2008553806352N12210620WA001930033308
B2008563806351N12210622WA001960033291
B2008573806352N12210624WA001970033116
B2008583806352N12210628WA001950033031
B2008593806352N12210631WA001940033157
B2009003806352N12210636WA001930033165
B2009013806352N12210641WA001920033275
B2009023806352N12210646WA001910033290
B2009033806353N12210650WA001900033214
B2009043806353N12210655WA001880033232
B2009053806353N12210660WA001860033255
B2009063806353N12210666WA001850033340
B2009073806353N12210671WA001840033204
B2009083806352N12210676WA001840033245
B2009093806351N12210681WA001830033164
B2009103806351N12210686WA001810033056
B2009113806351N12210692WA001780032996
B2009123806352N12210699WA001740032723
B2009133806352N12210706WA001690032667
B2009143806352N12210714WA001630032588
B2009153806352N12210723WA001580032594
B2009163806353N12210731WA001540032533
B2009173806353N12210737WA001530032488
B2009183806354N12210742WA001540032219
B2009193806353N12210747WA001540032087
B2009203806353N12210752WA001520031831
B2009213806353N12210757WA001480031512
B2009223806352N12210763WA001430031597
B2009233806352N12210771WA001370031553
B2009243806351N12210779WA001310031483
B2009253806350N12210787WA001260031396
B2009263806349N12210794WA001220031388
B2009273806348N12210801WA001190031112
B2009283806346N12210806WA001180030939
B2009293806344N12210812WA001180030718
B2009303806342N12210818WA001160030557
B2009313806341N12210824WA001120030436
B2009323806340N12210831WA001080030440
B2009333806339N12210838WA001030030350
B2009343806338N12210846WA000980030231
B2009353806337N12210853WA000940030015
B2009363806336N12210860WA000910029920
B2009373806335N12210865WA000890029748
B2009383806335N12210870WA000900029505
B2009393806335N12210874WA000910029306
B2009403806335N12210877WA000910029114
B2009413806335N12210879WA000900029031
B2009423806335N12210881WA000880028794
B2009433806336N12210885WA000840028572
B2009443806337N12210889WA000780028379
B2009453806338N12210896WA000720028361
B2009463806338N12210903WA000660028395
B2009473806338N12210910WA000630028290
B2009483806339N12210915WA000630028004
B2009493806338N12210919WA000650027960
B2009503806338N12210920WA000660027638
B2009513806338N12210921WA000660027355
B2009523806340N12210920WA000640027046
B2009533806341N12210921WA000600023953
B2009543806348N12210920WA000540023026
B2009553806356N12210918WA000500022360
B2009563806363N12210914WA000530022087
B2009573806369N12210912WA000530021811
B2009583806372N12210910WA000520021789
B2009593806378N12210909WA000520021529
B2010003806381N12210911WA000520021262
B2010013806386N12210909WA000530020836
B2010023806390N12210908WA000530020546
B2010033806393N12210909WA000520020388
B2010043806397N12210911WA000520020217
B2010053806399N12210915WA000510020200
B2010063806400N12210918WA000510020182
B2010073806403N12210920WA000520020007
B2010083806404N12210922WA000520019948
B2010093806404N12210924WA000530019926
B2010103806404N12210926WA000530019836
B2010113806402N12210929WA000540019896
B2010123806400N12210932WA000540019862
B2010133806398N12210934WA000540019877
B2010143806397N12210937WA000540019738
B2010153806396N12210941WA000530019727
B2010163806395N12210945WA000530019685
B2010173806397N12210948WA000510019616
B2010183806400N12210950WA000490019431
B2010193806403N12210950WA000470019597
B2010203806407N12210950WA000450019462
B2010213806411N12210947WA000440019670
B2010223806417N12210936WA000450019265
B2010233806422N12210924WA000450018929
B2010243806426N12210914WA000440018575
B2010253806431N12210904WA000430018233
B2010263806436N12210895WA000400018297
B2010273806442N12210886WA000390018254
B2010283806447N12210877WA000380018070
B2010293806452N12210869WA000370017953
B2010303806457N12210864WA000350017968
B2010313806463N12210861WA000330017919
B2010323806468N12210860WA000310017718
B2010333806473N12210861WA000280017614
B2010343806477N12210862WA000250017509
B2010353806479N12210864WA000200017213
B2010363806479N12210865WA000160017039
B2010373806479N12210866WA000130016948
B2010393806476N12210864WA000130017038
B2010403806471N12210867WA000120017370
B2010413806466N12210869WA000100017187
B2010423806462N12210874WA000060017054
B2010433806460N12210879WA000010017144
B2010443806459N12210884WA-00030016997
B2010453806449N12210895WA-00040015982
B2010463806446N12210902WA-00040015372
B2010473806445N12210906WA-00030014922
B2010483806443N12210910WA-00030014884
B2010493806443N12210914WA-00030014614
B2010503806443N12210919WA-00050014502
B2010513806442N12210925WA-00070014370
B2010523806442N12210930WA-00090014257
B2010533806441N12210937WA-00120014270
B2010543806440N12210943WA-00120014391
B2010553806440N12210947WA-00110014268
B2010563806441N12210950WA-00100014119
B2010573806441N12210953WA-00100014056
B2010583806441N12210954WA-00100013988
B2010593806442N12210954WA-00100013928
B2011003806442N12210955WA-00100013990
B2011023806445N12210956WA-00080013791
B2011033806447N12210956WA-00090013634
B2011043806448N12210957WA-00090013544
B2011053806449N12210957WA-00090013509
B2011063806449N12210957WA-00090013529
B2011073806449N12210958WA-00090013541
B2011083806449N12210958WA-00090013441
B2011093806449N12210958WA-00090013441
B2011113806449N12210958WA-00090013541
B2011123806449N12210958WA-00090013541
B2011133806449N12210958WA-00090013541
B2011143806449N12210958WA-00100013441
B2011153806449N12210958WA-00100013441
B2011163806449N12210958WA-00090013441
B2011173806449N12210958WA-00090013441
B2011183806449N12210958WA-00090013441
B2011193806449N12210958WA-00090013441
LXCTFAICIVLCOMPLIANT true
GC0619B32A9877E4C561F560A4311DEEE2D35C8CD87A453962761ACA6478F11C1
GBFF877E0256AD2A985FB851BE7DEB1852B3E52392FD932D4BBF9B4DCBC7F3AE9
G2693CBA17EE6F602C7DB4AED7AFD2138FD6784459DF4D125E001925F22EBA6F8
G4C70F2852DE8E684D2A0D3EEAD60F336E97521B8160F4A2801FEC68FF1ECEE1C
