AXCTce9d9864-a984-420c-81ea-b05f4669e919
HFFTYFRTYPE:Google Pixel 9 Pro XL 16
HFRFWFIRMWAREVERSION:0.9.12.3
HFPRSPRESSALTSENSOR:InvenSense 1
HFPLTPILOTINCHARGE:Josh Cohn
HOSITSite:?
HFCCLCOMPETITIONCLASS:FAI-3
HFGTYGLIDERTYPE:OZONE Enzo 3
HODTM100GPSDATUM:WGS-84
HFALPALTPRESSURE:ISA
HFALG:GEO
HFDTEDATE:030825,02
LXCTDEVICE eyJhcHAiOnsibmFtZSI6IlhDVHJhY2siLCJ2ZXJzaW9uQ29kZSI6OTEyMzAsInZlc
LXCTDEVICE nNpb25OYW1lIjoiMC45LjEyLjMifSwiZGV2aWNlIjp7ImJ1aWxkSWQiOiJCUDJBLj
LXCTDEVICE I1MDcwNS4wMDgiLCJjcHVBQkkiOiJhcm02NC12OGEiLCJkZXZRdWV1ZUJ1aWxkIjo
LXCTDEVICE iZjIzYWFmMTQ4ZTVmYTBjYzBhMDUwM2VhODE2NTk3YzliYzQ4MDgwZCIsImRldmlj
LXCTDEVICE ZVN0cmluZyI6Ikdvb2dsZSBQaXhlbCA5IFBybyBYTCAxNiIsImRpc3BsYXkiOnsia
LXCTDEVICE CI6MjI0NCwibW0iOjE0LjE3MzIyOCwidyI6MTAwOH0sImZpbmdlcnByaW50IjoiZ2
LXCTDEVICE 9vZ2xlL2tvbW9kby9rb21vZG86MTYvQlAyQS4yNTA3MDUuMDA4LzEzNTc4OTU2OnV
LXCTDEVICE zZXIvcmVsZWFzZS1rZXlzIiwiaGFyZHdhcmUiOiJrb21vZG8iLCJtYW51ZmFjdHVy
LXCTDEVICE ZXIiOiJHb29nbGUiLCJtZW1vcnkiOnsiYWR2ZXJ0aXNlZE1lbSI6MTcxNzk4NjkxO
LXCTDEVICE DQsImF2YWlsTWVtIjoyOTE0ODc3NDQwLCJmb3JlZ3JvdW5kQXBwVGhyZXNob2xkIj
LXCTDEVICE o3NTQ5NzQ3MiwibG93TWVtb3J5IjpmYWxzZSwidGhyZXNob2xkIjoyMjY0OTI0MTY
LXCTDEVICE sInRvdGFsTWVtIjoxNTc5NjQyNDcwNH0sIm1vZGVsIjoiUGl4ZWwgOSBQcm8gWEwi
LXCTDEVICE LCJwcm9kdWN0Ijoia29tb2RvIn0sImRldmljZUlkIjoiY2U5ZDk4NjQtYTk4NC00M
LXCTDEVICE jBjLTgxZWEtYjA1ZjQ2NjllOTE5Iiwib3MiOnsic2RrIjozNiwidGltZXpvbmUiOi
LXCTDEVICE JBbWVyaWNhL0xvc19BbmdlbGVzIiwidHlwZSI6IkFuZHJvaWQiLCJ2ZXJzaW9uIjo
LXCTDEVICE iMTYifX0=
LXCTSENSOR Sensors: GPS: i0 NMEA; S.LSI,K042,SPOTNAV_4.15.3_12_250327_R1_263
LXCTSENSOR 396 Baro: i0 InvenSense 1
I023636LAD3737LOD
LXCTEARTHMODEL WGS84
C030825211447000000000007 Competition task
C3753369N12219084WTAKEOFF ?
C3918716N11953010WSTART Slide Mtn
C3928760N12002477WTURN Verdi Peak
C3948320N12008259WTURN Chilcoot
C4001711N12006298WTURN Doyle
C4021983N12039170WTURN Susanville
C4041501N12036041WTURN  Fredyoner Peak
C4051879N12027602WTURN Termo
C4112629N12011615WTURN Warner Mtns
C4211442N12020787WFINISH Lakeview
C0000000N00000000ELANDING
B2114473753378N12219113WA-00200000799
B2114483753378N12219114WA-00200000790
B2114493753379N12219114WA-00200000701
B2114503753379N12219114WA-00200000712
B2114513753379N12219114WA-00200000703
B2114523753378N12219114WA-00200000797
B2114533753378N12219115WA-00200000792
B2114543753378N12219115WA-00200000787
B2114553753378N12219116WA-00200000761
B2114563753378N12219116WA-00200000754
B2114573753378N12219116WA-00200000728
B2114583753377N12219117WA-00190000775
B2114593753377N12219118WA-00190000730
B2115003753376N12219117WA-00190000789
B2115013753376N12219118WA-00190000721
B2115023753375N12219118WA-00180000789
B2115033753374N12219120WA-00220000670
B2115043753373N12219120WA-00200000527
B2115053753371N12219121WA-00210000547
B2115063753370N12219124WA-00220000541
B2115073753370N12219128WA-00220000206
B2115083753370N12219134WA-00220000268
B2115093753371N12219142WA-00230000050
B2115103753373N12219148WA-00220000230
B2115113753374N12219152WA-00210000219
B2115123753374N12219157WA-00220000334
B2115133753373N12219161WA-00230000223
B2115143753371N12219164WA-00230000083
B2115153753372N12219168WA-00210000149
B2115163753372N12219174WA-00210000175
B2115173753374N12219180WA-00210000201
B2115183753373N12219184WA-00200000386
B2115193753373N12219189WA-00200000347
B2115203753373N12219195WA-00190000360
B2115213753374N12219200WA-00210000426
B2115223753373N12219205WA-00200000487
B2115233753372N12219210WA-00200000576
B2115243753372N12219215WA-00200000525
B2115253753373N12219221WA-00190000487
B2115263753375N12219227WA-00190000558
B2115273753376N12219233WA-00180000650
B2115283753377N12219238WA-00180000764
B2115293753377N12219243WA-00170000895
B2115303753376N12219248WA-00170000765
B2115313753374N12219251WA-00180000546
B2115323753371N12219251WA-00210000268
B2115333753368N12219249WA-00230000093
B2115343753368N12219244WA-00230000049
LXCTREPORTEDALT GPS:-1, BARO:-23
B2115353753368N12219238WA-00220000080
B2115363753370N12219232WA-00210000386
B2115373753372N12219227WA-00200000459
B2115383753372N12219223WA-00200000588
B2115393753372N12219219WA-00200000568
B2115403753372N12219217WA-00200000491
B2115413753373N12219213WA-00190000304
B2115423753373N12219210WA-00190000402
B2115433753373N12219207WA-00190000458
B2115443753373N12219204WA-00190000574
B2115453753373N12219200WA-00190000457
B2115463753373N12219198WA-00200000421
B2115473753372N12219194WA-00190000491
B2115483753373N12219190WA-00190000440
B2115493753373N12219186WA-00190000593
B2115503753374N12219182WA-00190000402
B2115513753373N12219178WA-00190000586
B2115523753373N12219175WA-00180000647
B2115533753373N12219171WA-00170000645
B2115543753375N12219168WA-00160000733
B2115553753375N12219164WA-00160000795
B2115563753376N12219160WA-00150000882
B2115573753377N12219155WA-00160000809
B2115583753376N12219151WA-00150000898
B2115593753377N12219147WA-00150000919
B2116003753377N12219144WA-00140000990
B2116013753378N12219140WA-00140000973
B2116023753379N12219137WA-00140000870
B2116033753380N12219134WA-00140000831
B2116043753378N12219133WA-00140000856
B2116053753376N12219135WA-00160000747
B2116063753375N12219140WA-00170000646
B2116073753375N12219147WA-00170000721
B2116083753375N12219153WA-00170000854
B2116093753375N12219158WA-00150001097
B2116103753376N12219163WA-00140001116
B2116113753376N12219168WA-00140001151
B2116123753376N12219172WA-00140001177
B2116133753376N12219177WA-00140001183
B2116143753377N12219181WA-00130001128
B2116153753378N12219186WA-00130001215
B2116163753378N12219191WA-00130001284
B2116173753379N12219196WA-00120001253
B2116183753379N12219201WA-00120001286
LXCTACTIVITY UNKNOWN 41
B2116193753380N12219207WA-00120001252
B2116203753380N12219212WA-00120001276
B2116213753379N12219217WA-00120001394
B2116223753378N12219220WA-00120001396
B2116233753378N12219222WA-00120001301
B2116243753377N12219222WA-00130001303
B2116253753376N12219219WA-00140001439
B2116263753375N12219215WA-00140001281
B2116273753376N12219211WA-00140001261
B2116283753377N12219207WA-00140001261
B2116293753378N12219203WA-00140001224
B2116303753377N12219200WA-00140001290
B2116313753378N12219197WA-00140001105
B2116323753377N12219194WA-00140001177
B2116333753377N12219191WA-00140001114
B2116343753377N12219187WA-00140001128
B2116353753377N12219185WA-00140001210
B2116363753376N12219182WA-00140001280
B2116373753376N12219178WA-00140001147
B2116383753375N12219175WA-00150001174
B2116393753375N12219172WA-00150001032
B2116403753375N12219169WA-00150001000
B2116413753375N12219165WA-00140001177
B2116423753376N12219162WA-00140001162
B2116433753377N12219157WA-00140001089
B2116443753378N12219153WA-00140000969
B2116453753379N12219149WA-00140000919
B2116463753379N12219145WA-00140000966
B2116473753380N12219143WA-00140000922
B2116483753378N12219142WA-00140000992
B2116493753377N12219142WA-00150000819
B2116503753375N12219146WA-00160000862
B2116513753375N12219151WA-00170000815
B2116523753375N12219157WA-00160000919
B2116533753375N12219163WA-00140001176
B2116543753376N12219168WA-00130001245
B2116553753377N12219173WA-00120001313
B2116563753378N12219178WA-00120001312
B2116573753379N12219183WA-00120001304
B2116583753379N12219188WA-00120001386
B2116593753379N12219193WA-00110001382
B2117003753380N12219198WA-00110001431
B2117013753380N12219203WA-00110001381
B2117023753381N12219207WA-00110001316
B2117033753381N12219211WA-00120001208
B2117043753380N12219216WA-00110001330
B2117053753379N12219220WA-00110001411
B2117063753378N12219222WA-00110001458
B2117073753377N12219224WA-00110001466
B2117083753376N12219224WA-00110001583
B2117093753377N12219222WA-00110001801
B2117103753377N12219216WA-00110001708
B2117113753377N12219212WA-00110001722
B2117123753377N12219207WA-00110001537
B2117133753377N12219203WA-00110001444
B2117143753377N12219199WA-00110001338
B2117153753377N12219196WA-00110001312
B2117163753377N12219193WA-00110001241
B2117173753378N12219189WA-00110001307
B2117183753378N12219186WA-00100001445
B2117193753378N12219183WA-00110001531
B2117203753377N12219179WA-00100001779
B2117213753377N12219177WA-00100001743
B2117223753378N12219173WA-00090001806
B2117233753379N12219170WA-00090001808
B2117243753379N12219167WA-00090001840
B2117253753379N12219163WA-00090001780
B2117263753378N12219159WA-00090001655
B2117273753378N12219156WA-00090001612
B2117283753378N12219154WA-00080001641
B2117293753378N12219154WA-00090001647
B2117303753377N12219157WA-00110001666
B2117313753377N12219163WA-00120001451
B2117323753377N12219168WA-00120001328
B2117333753376N12219174WA-00120001499
B2117343753376N12219180WA-00110001567
B2117353753377N12219186WA-00100001612
B2117363753376N12219191WA-00090001692
B2117373753378N12219197WA-00090001702
B2117383753378N12219203WA-00090001733
B2117393753378N12219209WA-00080001853
B2117403753379N12219215WA-00070001911
B2117413753379N12219221WA-00070001986
B2117423753380N12219226WA-00070001838
B2117433753380N12219232WA-00080001745
B2117443753380N12219238WA-00090001609
B2117453753379N12219245WA-00090001763
B2117463753379N12219251WA-00090001675
B2117473753380N12219258WA-00090001501
B2117483753380N12219264WA-00090001638
B2117493753380N12219271WA-00090001634
B2117503753380N12219278WA-00100001692
B2117513753380N12219284WA-00100001607
B2117523753380N12219288WA-00100001849
B2117533753378N12219291WA-00110001955
B2117543753376N12219292WA-00110001832
B2117553753373N12219291WA-00120001860
B2117563753373N12219288WA-00120001816
B2117573753373N12219284WA-00120001785
B2117583753374N12219279WA-00110001698
B2117593753375N12219275WA-00120001535
B2118003753375N12219271WA-00120001356
B2118013753374N12219268WA-00130001261
B2118023753374N12219264WA-00130001226
B2118033753373N12219260WA-00130001259
B2118043753373N12219257WA-00120001152
B2118053753373N12219254WA-00120001131
B2118063753372N12219250WA-00130001398
B2118073753372N12219248WA-00130001390
B2118083753373N12219244WA-00120001442
B2118093753374N12219240WA-00120001436
B2118103753374N12219237WA-00120001333
B2118113753374N12219234WA-00130001310
B2118123753373N12219230WA-00130001369
B2118133753373N12219227WA-00140001243
B2118143753373N12219223WA-00140001123
B2118153753374N12219219WA-00140001110
B2118163753375N12219215WA-00130001210
B2118173753376N12219211WA-00130001212
B2118183753377N12219207WA-00120001317
B2118193753377N12219204WA-00120001362
B2118203753377N12219201WA-00120001340
B2118213753377N12219197WA-00120001208
B2118223753377N12219194WA-00110001209
B2118233753376N12219192WA-00110001271
B2118243753376N12219189WA-00110001231
B2118253753377N12219185WA-00110001309
B2118263753377N12219183WA-00110001417
B2118273753377N12219180WA-00110001522
B2118283753377N12219177WA-00110001561
B2118293753377N12219173WA-00110001427
B2118303753377N12219170WA-00120001401
B2118313753376N12219167WA-00120001581
B2118323753376N12219163WA-00110001593
B2118333753377N12219159WA-00110001661
B2118343753378N12219155WA-00100001512
B2118353753378N12219151WA-00100001466
B2118363753379N12219148WA-00100001434
B2118373753380N12219145WA-00100001404
B2118383753379N12219141WA-00110001348
B2118393753378N12219138WA-00120001398
B2118403753378N12219134WA-00120001449
B2118413753378N12219130WA-00120001505
B2118423753377N12219126WA-00120001593
B2118433753377N12219122WA-00120001453
B2118443753377N12219119WA-00120001260
B2118453753378N12219115WA-00120001106
B2118463753378N12219111WA-00130001038
B2118473753378N12219109WA-00130000931
B2118483753377N12219107WA-00140000839
B2118493753375N12219107WA-00150000778
B2118503753374N12219109WA-00160000798
B2118513753374N12219115WA-00170000885
B2118523753374N12219121WA-00170000975
B2118533753375N12219126WA-00160001179
B2118543753376N12219131WA-00150001348
B2118553753376N12219135WA-00150001359
B2118563753376N12219140WA-00160001282
B2118573753376N12219144WA-00160001267
B2118583753376N12219149WA-00160001224
B2118593753376N12219154WA-00160001313
B2119003753376N12219159WA-00160001360
B2119013753376N12219164WA-00160001341
B2119023753376N12219168WA-00150001228
B2119033753376N12219173WA-00150001235
B2119043753377N12219178WA-00140001450
B2119053753378N12219182WA-00140001547
B2119063753378N12219186WA-00130001589
B2119073753378N12219191WA-00130001441
B2119083753378N12219195WA-00130001353
B2119093753378N12219199WA-00130001284
B2119103753378N12219203WA-00140001154
B2119113753378N12219207WA-00150001008
B2119123753378N12219212WA-00140001131
B2119133753378N12219216WA-00140001334
B2119143753378N12219220WA-00130001341
B2119153753377N12219222WA-00120001145
B2119163753375N12219223WA-00130001198
B2119173753374N12219222WA-00130001337
B2119183753374N12219220WA-00140001444
B2119193753375N12219215WA-00130001517
B2119203753377N12219211WA-00120001524
B2119213753379N12219207WA-00110001410
B2119223753379N12219203WA-00120001372
B2119233753380N12219200WA-00130001139
B2119243753379N12219198WA-00140001065
B2119253753378N12219196WA-00150000944
B2119263753377N12219194WA-00150001046
B2119273753376N12219192WA-00150001184
B2119283753376N12219188WA-00140001045
B2119293753376N12219185WA-00140001298
B2119303753376N12219182WA-00150001180
B2119313753376N12219179WA-00150001170
B2119323753376N12219175WA-00150001027
B2119333753375N12219171WA-00150001198
B2119343753375N12219169WA-00150001072
B2119353753376N12219166WA-00150001140
B2119363753376N12219161WA-00150001107
B2119373753376N12219157WA-00140001145
B2119383753376N12219153WA-00140001256
B2119393753376N12219150WA-00130001331
B2119403753376N12219147WA-00130001440
B2119413753376N12219143WA-00120001437
B2119423753376N12219140WA-00120001437
B2119433753376N12219138WA-00120001511
B2119443753376N12219134WA-00110001507
B2119453753376N12219130WA-00110001408
B2119463753375N12219127WA-00110001483
B2119473753375N12219123WA-00120001456
B2119483753375N12219119WA-00120001538
B2119493753374N12219116WA-00120001595
B2119503753374N12219113WA-00120001513
B2119513753373N12219110WA-00110001590
B2119523753373N12219106WA-00110001452
B2119533753373N12219101WA-00120001459
B2119543753374N12219096WA-00120001406
B2119553753374N12219091WA-00120001567
B2119563753375N12219087WA-00120001434
B2119573753375N12219084WA-00120001463
B2119583753375N12219081WA-00120001472
B2119593753373N12219079WA-00130001390
B2120003753373N12219076WA-00120001437
B2120013753371N12219077WA-00130001482
B2120023753371N12219079WA-00140001553
B2120033753371N12219083WA-00140001707
B2120043753370N12219089WA-00140001748
B2120053753370N12219096WA-00140001724
B2120063753370N12219102WA-00150001688
B2120073753371N12219109WA-00160001532
B2120083753371N12219116WA-00160001452
B2120093753373N12219124WA-00160001512
B2120103753375N12219131WA-00150001541
B2120113753377N12219137WA-00130001633
B2120123753378N12219143WA-00130001730
B2120133753378N12219148WA-00130001637
B2120143753378N12219153WA-00120001676
B2120153753378N12219158WA-00120001523
B2120163753377N12219163WA-00120001451
B2120173753377N12219167WA-00120001485
B2120183753377N12219172WA-00120001483
B2120193753377N12219177WA-00120001416
B2120203753376N12219182WA-00120001479
B2120213753376N12219188WA-00110001530
B2120223753377N12219192WA-00110001626
B2120233753377N12219198WA-00110001643
B2120243753378N12219203WA-00110001609
B2120253753378N12219208WA-00110001758
B2120263753378N12219213WA-00110001704
B2120273753378N12219218WA-00100001825
B2120283753378N12219223WA-00100001772
B2120293753378N12219228WA-00100001737
B2120303753378N12219233WA-00100001614
B2120313753378N12219238WA-00090001606
B2120323753377N12219244WA-00090001772
B2120333753378N12219249WA-00090001801
B2120343753379N12219253WA-00090001889
B2120353753380N12219260WA-00090001860
B2120363753380N12219265WA-00090001878
B2120373753381N12219271WA-00090001910
B2120383753380N12219277WA-00090001960
B2120393753381N12219281WA-00090002039
B2120403753380N12219286WA-00090002068
B2120413753380N12219291WA-00090002146
B2120423753380N12219295WA-00090002035
B2120433753379N12219299WA-00100001941
B2120443753377N12219301WA-00110002069
B2120453753375N12219303WA-00110001818
B2120463753373N12219303WA-00120001863
B2120473753372N12219301WA-00120001945
B2120483753372N12219298WA-00120001989
B2120493753373N12219294WA-00120001618
B2120503753374N12219291WA-00120001551
B2120513753375N12219286WA-00110001534
B2120523753375N12219282WA-00110001585
B2120533753375N12219279WA-00110001597
B2120543753376N12219276WA-00110001606
B2120553753375N12219274WA-00110001782
B2120563753375N12219272WA-00100001792
B2120573753376N12219269WA-00100001826
B2120583753376N12219267WA-00110001800
B2120593753376N12219264WA-00110001904
B2121003753375N12219262WA-00110002080
B2121013753375N12219259WA-00110002088
B2121023753375N12219257WA-00110002052
B2121033753375N12219255WA-00110002031
B2121043753375N12219252WA-00110001918
B2121053753374N12219250WA-00110001994
B2121063753375N12219248WA-00110002011
B2121073753375N12219245WA-00110002048
B2121083753375N12219243WA-00110002185
B2121093753375N12219241WA-00110002040
B2121103753375N12219238WA-00110002048
B2121113753375N12219235WA-00110002008
B2121123753374N12219233WA-00110002050
B2121133753374N12219230WA-00110002020
B2121143753374N12219226WA-00100001925
B2121153753374N12219222WA-00100001897
B2121163753375N12219219WA-00100001765
B2121173753375N12219216WA-00090001791
B2121183753376N12219213WA-00090001770
B2121193753377N12219209WA-00090001848
B2121203753377N12219206WA-00090001999
B2121213753377N12219203WA-00090001987
B2121223753377N12219200WA-00080001805
B2121233753376N12219197WA-00080001865
B2121243753376N12219193WA-00070001858
B2121253753377N12219190WA-00080001805
B2121263753377N12219187WA-00080001703
B2121273753377N12219184WA-00080001713
B2121283753377N12219181WA-00090001715
B2121293753376N12219178WA-00090001681
B2121303753376N12219174WA-00090001787
B2121313753376N12219170WA-00090001787
B2121323753377N12219167WA-00090001750
B2121333753377N12219163WA-00090001785
B2121343753377N12219159WA-00090001789
B2121353753377N12219156WA-00090001742
B2121363753377N12219151WA-00090001884
B2121373753377N12219146WA-00080001887
B2121383753378N12219142WA-00070001912
B2121393753378N12219138WA-00070001935
B2121403753378N12219134WA-00060002093
B2121413753379N12219130WA-00060002018
B2121423753378N12219126WA-00070001905
B2121433753377N12219122WA-00080001700
B2121443753375N12219117WA-00090001696
B2121453753375N12219112WA-00090001659
B2121463753375N12219107WA-00100001638
B2121473753375N12219103WA-00100001660
B2121483753375N12219097WA-00100001549
B2121493753375N12219093WA-00100001435
B2121503753375N12219088WA-00110001327
B2121513753375N12219084WA-00130001260
B2121523753376N12219078WA-00140001131
B2121533753377N12219071WA-00140001135
B2121543753378N12219064WA-00140001054
B2121553753380N12219057WA-00150000959
B2121563753383N12219051WA-00140000828
B2121573753385N12219046WA-00140000887
B2121583753388N12219041WA-00150000714
B2121593753390N12219036WA-00160000611
B2122003753391N12219030WA-00170000619
B2122013753390N12219027WA-00180000590
B2122023753390N12219023WA-00190000458
B2122033753390N12219021WA-00200000320
B2122043753389N12219018WA-00200000282
B2122053753389N12219016WA-00210000210
B2122063753388N12219014WA-00220000113
B2122073753387N12219013WA-00230000127
B2122083753386N12219014WA-00230000220
B2122093753385N12219014WA-00230000245
B2122103753384N12219015WA-00240000245
B2122113753383N12219017WA-00250000251
B2122123753382N12219018WA-00250000269
B2122133753381N12219021WA-00260000190
B2122143753381N12219023WA-00260000150
B2122153753381N12219024WA-00270000123
B2122163753381N12219024WA-00260000119
B2122173753381N12219024WA-00260000249
B2122183753381N12219024WA-00260000259
B2122193753381N12219024WA-00260000146
B2122203753381N12219024WA-00260000145
B2122213753381N12219024WA-00260000145
B2122223753381N12219024WA-00260000126
B2122233753381N12219024WA-00260000139
B2122243753381N12219025WA-00260000121
B2122253753381N12219024WA-00260000119
B2122263753381N12219025WA-00270000230
B2122273753381N12219025WA-00260000244
B2122283753381N12219025WA-00260000218
B2122293753381N12219026WA-00260000201
LXCTSTATS eyJzdGF0cyI6eyJHUFMiOnsiYWx0Rml4R2VvaWREaWZmIjozNC42NjE4ODU0MzI4MT
LXCTSTATS IyNCwiYWx0Rml4TWV0aG9kIjp7ImRpZmZBcGlHZW9pZCI6MSwiZGlmZkFwaU5vQ29y
LXCTSTATS cmVjdGlvbiI6MH0sImFwaUNudCI6MSwiYmVhcmluZ0NvbXB1dGVkIjowLCJubWVhQ2
LXCTSTATS 50IjozNDg1NSwic3BlZWRDb21wdXRlZCI6MH0sIm9wdGlTdGF0cyI6eyJvcHRpTENv
LXCTSTATS dW50IjozNzA4LCJvcHRpVGltZU1tcyI6NzI3NzgwNjkzfX19
LXCTFAICIVLCOMPLIANT true
G07091F1EE67B2C47824E255CA5F31C441CA074B63662A5B8BC46195CC02AD1D2
G53C4AB28D140DDA038D0A877D6B1AE366E3C627D3DE9AB5125FD53AD82E38BFB
GA789A9FCF66C35FE6992963A335122CC18A02BB073F7C2B308DCD8E40975035C
GD6ECD4715CFF72BE8E631950E51F94582DC9B676DADB428CA3B7F6AB6815F21D
