AXCT4bb34cd15e8b5891
HFFTYFRTYPE:Google Pixel 3 9
HFRFWFIRMWAREVERSION:0.8.2
HFPLTPILOTINCHARGE:Josh Cohn
HOSITSite:?
HSCCLCOMPETITION CLASS:FAI-3
HFGTYGLIDERTYPE:Flow Spectra
HODTM100GPSDATUM:WGS-84
HFALPALTPRESSURE:ISA
HFALG:GEO
HFDTEDATE:130719,01
LXCTDEVICE eyJjYXBhYmlsaXRpZXMiOnsibWVtQ2xhc3MiOjE5MiwibWVtTGFyZ2VDbGFzcyI6N
LXCTDEVICE TEyLCJuYW4iOnRydWV9LCJkZXZpY2UiOnsiYW5kcm9pZElkIjoiNGJiMzRjZDE1ZT
LXCTDEVICE hiNTg5MSIsImJvYXJkIjoiYmx1ZWxpbmUiLCJidWlsZElkIjoiUFEzQS4xOTA3MDU
LXCTDEVICE uMDAzIiwiY3B1QUJJIjoiYXJtNjQtdjhhIiwiY3B1QUJJMiI6IiIsImRldmljZVN0
LXCTDEVICE cmluZyI6Ikdvb2dsZSBQaXhlbCAzIDkiLCJkaXNwbGF5Ijp7ImgiOjIwMjgsIm1tI
LXCTDEVICE joxNy4zMjI4MzQsInciOjEwODB9LCJmaW5nZXJwcmludCI6Imdvb2dsZS9ibHVlbG
LXCTDEVICE luZS9ibHVlbGluZTo5L1BRM0EuMTkwNzA1LjAwMy81NjAwODAwOnVzZXIvcmVsZWF
LXCTDEVICE zZS1rZXlzIiwiaGFyZHdhcmUiOiJibHVlbGluZSIsIm1hbnVmYWN0dXJlciI6Ikdv
LXCTDEVICE b2dsZSIsIm1vZGVsIjoiUGl4ZWwgMyIsInByb2R1Y3QiOiJibHVlbGluZSIsInNka
LXCTDEVICE yI6Mjh9LCJ4Y3RyYWNrIjp7InZlcnNpb25Db2RlIjo4MDIwMSwidmVyc2lvbk5hbW
LXCTDEVICE UiOiIwLjguMiJ9fQ==
LXCTSENSOR Sensors: SENSOR_BT, external GPS:false, external baro:true, inter
LXCTSENSOR nal baro:false, internal GPS nmea: true
I023636LAD3737LOD
LXCTEARTHMODEL WGS84
C130719012409000000000002 Competition task
C4805901N11947672WTAKEOFF ?
C4748249N12002317WSTART LAUNCH
C4748416N12002058WTURN BUTTE
C4806249N11943315WTURN BREWAP
C4806249N11943315WFINISH BREWAP
C0000000N00000000ELANDING
B0124094805907N11947664WA000000025205
B0124104805907N11947664WA000000025205
B0124114805907N11947664WA000000025205
B0124124805906N11947664WA000000025296
B0124134805906N11947664WA000000025196
B0124144805906N11947664WA000000025196
B0124154805906N11947664WA000000025196
B0124164805906N11947664WA000000025195
B0124174805906N11947664WA000000025195
B0124184805906N11947664WA000000025195
B0124194805906N11947664WA000000025176
B0124204805906N11947664WA000000025180
B0124214805907N11947663WA000000025016
B0124224805907N11947663WA000000024927
B0124234805907N11947663WA000000025037
B0124244805907N11947663WA000000025018
B0124254805906N11947664WA000000025081
B0124264805906N11947664WA000000025039
B0124274805905N11947666WA000000024933
B0124284805903N11947668WA000000024986
B0124294805901N11947672WA000000024851
B0124304805898N11947676WA000000024793
B0124314805896N11947682WA000000024713
B0124324805893N11947688WA000000024685
B0124334805890N11947696WA000000024663
B0124344805886N11947704WA000000024627
B0124354805883N11947713WA000000024733
B0124364805878N11947723WA000000024775
B0124374805872N11947733WA000000024799
B0124384805867N11947746WA000000024760
B0124394805863N11947757WA000000024435
B0124404805856N11947770WA000000024535
B0124414805852N11947783WA000000025578
B0124424805847N11947795WA000000024409
LXCTACTIVITY STILL 37
B0124434805841N11947808WA000000024472
B0124444805836N11947820WA000000024437
B0124454805830N11947833WA000000024589
B0124464805824N11947847WA000000024494
B0124474805819N11947860WA000000024525
B0124484805813N11947874WA000000024630
B0124494805807N11947886WA000000024706
B0124504805801N11947898WA000000024964
B0124514805796N11947911WA000000024825
B0124524805790N11947924WA000000024874
B0124534805784N11947938WA000000025092
B0124544805779N11947950WA000000025141
B0124554805773N11947963WA000000025107
B0124564805766N11947978WA000000025180
B0124574805761N11947992WA000000025012
B0124584805754N11948007WA000000025011
B0124594805747N11948021WA000000025059
B0125004805740N11948037WA000000025155
B0125014805734N11948051WA000000025028
B0125024805728N11948066WA000000025013
B0125034805720N11948084WA000000025297
B0125044805714N11948098WA000000025229
B0125054805707N11948113WA000000025177
B0125064805701N11948126WA000000025254
B0125074805695N11948140WA000000025371
B0125084805689N11948155WA000000025228
B0125094805682N11948170WA000000025123
B0125104805675N11948186WA000000025073
B0125114805668N11948202WA000000025181
B0125124805662N11948216WA000000025166
B0125134805656N11948231WA000000025214
B0125144805649N11948246WA000000025293
B0125154805642N11948262WA000000025242
B0125164805635N11948277WA000000025152
B0125174805628N11948292WA000000024963
B0125184805620N11948307WA000000025035
B0125194805613N11948323WA000000024881
B0125204805606N11948338WA000000024965
B0125214805599N11948351WA000000024979
B0125224805593N11948367WA000000024844
B0125234805586N11948382WA000000024890
B0125244805578N11948401WA000000024921
B0125254805568N11948418WA000000024880
B0125264805562N11948434WA000000024886
B0125274805556N11948451WA000000024915
B0125284805550N11948466WA000000024949
B0125294805542N11948483WA000000024854
B0125304805536N11948498WA000000024852
B0125314805529N11948514WA000000024837
B0125324805521N11948530WA000000025099
B0125334805514N11948546WA000000024967
B0125344805507N11948562WA000000024828
B0125354805499N11948579WA000000024792
B0125364805492N11948595WA000000024820
B0125374805485N11948611WA000000024823
B0125384805477N11948627WA000000024794
B0125394805470N11948643WA000000024765
B0125404805463N11948659WA000000024669
B0125414805456N11948676WA000000024624
B0125424805448N11948692WA000000024667
B0125434805441N11948709WA000000024621
B0125444805434N11948725WA000000024523
B0125454805426N11948741WA000000024678
B0125464805419N11948758WA000000024626
B0125474805411N11948775WA000000024754
B0125484805404N11948792WA000000024622
B0125494805396N11948808WA000000024696
B0125504805389N11948825WA000000024652
B0125514805382N11948841WA000000024629
B0125524805374N11948858WA000000024671
B0125534805367N11948874WA000000024737
B0125544805359N11948891WA000000024786
B0125554805352N11948908WA000000024722
B0125564805344N11948924WA000000024848
B0125574805336N11948941WA000000024884
B0125584805329N11948958WA000000024910
B0125594805321N11948974WA000000024859
B0126004805314N11948991WA000000024806
B0126014805306N11949008WA000000024834
B0126024805298N11949025WA000000024883
B0126034805291N11949042WA000000024873
B0126044805284N11949059WA000000024912
B0126054805276N11949076WA000000024971
B0126064805269N11949092WA000000024959
B0126074805262N11949109WA000000024937
B0126084805255N11949126WA000000025025
B0126094805248N11949143WA000000025048
B0126104805241N11949160WA000000025184
B0126114805235N11949177WA000000025136
B0126124805228N11949194WA000000025269
B0126134805222N11949212WA000000025240
B0126144805216N11949229WA000000025230
B0126154805209N11949246WA000000025394
B0126164805203N11949263WA000000025239
B0126174805197N11949280WA000000025387
B0126184805191N11949298WA000000025292
B0126194805185N11949315WA000000025266
B0126204805180N11949333WA000000025200
B0126214805173N11949350WA000000025382
B0126224805168N11949367WA000000025345
B0126234805162N11949385WA000000025372
B0126244805157N11949402WA000000025326
B0126254805151N11949420WA000000025355
LXCTACTIVITY OTHER 82
LXCTACTIVITY STILL 100
B0126264805146N11949437WA000000025429
B0126274805140N11949455WA000000025487
B0126284805135N11949473WA000000025471
B0126294805130N11949490WA000000025547
B0126304805124N11949508WA000000025586
B0126314805119N11949526WA000000025549
B0126324805114N11949544WA000000025515
B0126334805108N11949562WA000000025572
B0126344805103N11949580WA000000025540
B0126354805097N11949597WA000000025589
B0126364805092N11949615WA000000025546
B0126374805087N11949633WA000000025628
B0126384805081N11949651WA000000025587
B0126394805076N11949669WA000000025546
B0126404805071N11949687WA000000025569
B0126414805066N11949705WA000000025438
LXCTACTIVITY OTHER 77
B0126424805060N11949723WA000000025497
B0126434805055N11949741WA000000025462
B0126444805050N11949758WA000000025329
B0126454805044N11949776WA000000025298
B0126464805039N11949794WA000000025257
B0126474805034N11949812WA000000025236
B0126484805029N11949830WA000000025327
B0126494805023N11949849WA000000025292
B0126504805018N11949867WA000000025253
B0126514805013N11949885WA000000025205
B0126524805007N11949903WA000000025256
B0126534805002N11949921WA000000025207
B0126544804996N11949939WA000000025256
B0126554804991N11949957WA000000025237
B0126564804985N11949975WA000000025177
B0126574804980N11949993WA000000025135
B0126584804974N11950011WA000000025196
B0126594804969N11950029WA000000025144
B0127004804964N11950047WA000000025122
B0127014804959N11950064WA000000025108
B0127024804953N11950082WA000000025122
B0127034804947N11950099WA000000025291
B0127044804942N11950116WA000000025376
B0127054804937N11950133WA000000025237
B0127064804932N11950150WA000000025342
B0127074804927N11950167WA000000025206
B0127084804921N11950183WA000000025388
B0127094804916N11950200WA000000025364
B0127104804911N11950216WA000000025388
B0127114804906N11950233WA000000025355
B0127124804901N11950250WA000000025435
B0127134804896N11950267WA000000025456
B0127144804891N11950285WA000000025342
B0127154804886N11950302WA000000025311
B0127164804881N11950319WA000000025356
B0127174804875N11950337WA000000025480
B0127184804870N11950354WA000000025337
B0127194804865N11950372WA000000025371
B0127204804860N11950389WA000000025453
LXCTACTIVITY STILL 100
B0127214804855N11950406WA000000025415
B0127224804850N11950425WA000000025451
B0127234804844N11950441WA000000025644
B0127244804839N11950459WA000000025521
B0127254804834N11950477WA000000025510
B0127264804828N11950494WA000000025469
B0127274804823N11950512WA000000025335
B0127284804818N11950530WA000000025414
B0127294804812N11950548WA000000025371
B0127304804807N11950565WA000000025344
B0127314804802N11950582WA000000025239
B0127324804796N11950600WA000000025387
B0127334804791N11950617WA000000025357
B0127344804786N11950634WA000000025349
B0127354804781N11950651WA000000025331
B0127364804776N11950667WA000000025326
B0127374804770N11950685WA000000025370
LXCTACTIVITY OTHER 89
B0127384804765N11950701WA000000025474
B0127394804760N11950717WA000000025448
B0127404804754N11950733WA000000025489
B0127414804749N11950750WA000000025421
B0127424804743N11950766WA000000025473
B0127434804737N11950781WA000000025459
B0127444804731N11950797WA000000025427
B0127454804724N11950813WA000000025532
B0127464804717N11950828WA000000025579
B0127474804710N11950844WA000000025546
B0127484804703N11950860WA000000025506
B0127494804696N11950876WA000000025524
B0127504804689N11950892WA000000025407
B0127514804681N11950908WA000000025465
B0127524804674N11950925WA000000025414
B0127534804666N11950942WA000000025441
B0127544804658N11950959WA000000025452
B0127554804650N11950976WA000000025552
B0127564804642N11950993WA000000025580
B0127574804635N11951009WA000000025522
B0127584804627N11951025WA000000025595
B0127594804620N11951041WA000000025557
B0128004804613N11951058WA000000025531
B0128014804605N11951074WA000000025682
B0128024804598N11951090WA000000025601
B0128034804590N11951105WA000000025587
B0128044804583N11951122WA000000025680
B0128054804576N11951137WA000000025548
B0128064804569N11951152WA000000025532
B0128074804562N11951165WA000000025406
B0128084804554N11951178WA000000025583
B0128094804547N11951191WA000000025494
B0128104804540N11951203WA000000025386
B0128114804533N11951216WA000000025333
B0128124804526N11951229WA000000025202
B0128134804518N11951242WA000000025266
B0128144804510N11951255WA000000025146
B0128154804503N11951268WA000000025209
B0128164804494N11951282WA000000025267
B0128174804486N11951296WA000000025266
B0128184804478N11951310WA000000025133
B0128194804470N11951325WA000000025230
B0128204804461N11951339WA000000025197
B0128214804452N11951354WA000000025192
B0128224804444N11951369WA000000025044
B0128234804435N11951384WA000000024997
B0128244804426N11951400WA000000024872
B0128254804417N11951415WA000000024745
B0128264804408N11951431WA000000024711
B0128274804399N11951446WA000000024629
B0128284804390N11951463WA000000024510
B0128294804380N11951479WA000000024544
B0128304804371N11951495WA000000024416
B0128314804361N11951512WA000000024435
B0128324804352N11951529WA000000024436
B0128334804343N11951546WA000000024310
B0128344804333N11951562WA000000024287
B0128354804324N11951579WA000000024236
B0128364804315N11951596WA000000041817
B0128374804305N11951613WA000000035178
B0128384804296N11951630WA000000031558
B0128394804287N11951648WA000000029411
B0128404804277N11951665WA000000028170
B0128414804268N11951681WA000000027329
B0128424804258N11951698WA000000026788
B0128434804249N11951715WA000000026263
B0128444804240N11951732WA000000025922
B0128454804231N11951749WA000000025751
B0128484804206N11951803WA000000025621
B0128494804198N11951821WA000000046846
B0128504804190N11951840WA000000040452
B0128514804182N11951857WA000000036988
B0128524804175N11951876WA000000034856
B0128534804168N11951895WA000000033258
B0128544804161N11951914WA000000031889
B0128554804154N11951934WA000000030433
B0128564804147N11951953WA000000028954
B0128574804140N11951972WA000000028232
B0128584804132N11951990WA000000027589
B0128594804125N11952010WA000000027546
B0129004804118N11952029WA000000026931
B0129014804110N11952048WA000000026493
B0129024804103N11952067WA000000026271
B0129034804096N11952086WA000000026054
B0129044804089N11952106WA000000025800
B0129054804081N11952125WA000000025667
B0129064804074N11952145WA000000025742
B0129074804067N11952164WA000000025714
B0129084804060N11952183WA000000025607
B0129094804052N11952203WA000000025354
B0129104804045N11952222WA000000025223
B0129114804038N11952241WA000000025108
B0129124804030N11952261WA000000024934
LXCTACTIVITY STILL 100
B0129134804022N11952280WA000000024998
B0129144804015N11952300WA000000025074
B0129154804008N11952319WA000000024834
LXCTACTIVITY OTHER 79
B0129164804001N11952338WA000000024718
B0129174803993N11952358WA000000024792
B0129184803986N11952377WA000000024639
B0129194803978N11952397WA000000024666
LXCTACTIVITY STILL 100
B0129204803970N11952416WA000000024699
B0129214803963N11952436WA000000024625
B0129224803956N11952455WA000000024608
B0129234803948N11952475WA000000024682
B0129244803941N11952495WA000000024612
B0129254803933N11952515WA000000024541
B0129264803926N11952534WA000000024416
B0129274803918N11952554WA000000024557
B0129284803910N11952574WA000000024695
B0129294803903N11952594WA000000024746
B0129304803895N11952614WA000000024624
B0129314803887N11952634WA000000024543
B0129324803880N11952654WA000000024521
B0129334803872N11952673WA000000024461
B0129344803865N11952692WA000000024418
B0129354803857N11952712WA000000024466
B0129364803850N11952732WA000000024469
B0129374803844N11952753WA000000024347
B0129384803838N11952774WA000000024385
B0129394803833N11952795WA000000024278
B0129404803829N11952816WA000000024329
B0129414803825N11952838WA000000024312
B0129424803821N11952859WA000000024355
B0129434803818N11952880WA000000024336
B0129444803815N11952901WA000000024330
B0129454803812N11952921WA000000024314
B0129464803809N11952941WA000000024422
B0129474803806N11952960WA000000024429
B0129484803802N11952979WA000000024496
B0129494803799N11952997WA000000024429
B0129504803795N11953016WA000000024441
B0129514803791N11953034WA000000024422
B0129524803786N11953050WA000000024488
B0129534803781N11953067WA000000024458
B0129544803775N11953083WA000000024266
B0129554803769N11953099WA000000044624
B0129564803762N11953114WA000000036889
B0129574803756N11953130WA000000034105
B0129584803749N11953146WA000000031814
B0129594803742N11953161WA000000029947
B0130004803735N11953177WA000000028165
B0130014803729N11953192WA000000028206
B0130024803722N11953208WA000000027921
B0130034803715N11953223WA000000027239
B0130044803707N11953240WA000000026974
B0130054803700N11953257WA000000026570
B0130064803693N11953273WA000000026042
B0130074803686N11953288WA000000025526
B0130084803679N11953304WA000000025118
B0130094803672N11953321WA000000025121
B0130104803665N11953336WA000000025124
B0130114803658N11953352WA000000025058
B0130124803651N11953368WA000000024990
B0130134803645N11953384WA000000024700
B0130144803638N11953398WA000000024725
B0130154803631N11953414WA000000024760
B0130164803625N11953428WA000000024647
B0130174803619N11953443WA000000024533
B0130184803613N11953456WA000000024458
B0130194803607N11953470WA000000024344
B0130204803602N11953483WA000000024304
B0130214803596N11953497WA000000024230
B0130224803590N11953510WA000000024145
B0130234803585N11953522WA000000024309
B0130244803579N11953535WA000000024236
B0130254803573N11953547WA000000024295
B0130264803569N11953558WA000000024109
B0130274803564N11953570WA000000024004
B0130284803559N11953582WA000000024005
B0130294803554N11953594WA000000023906
B0130304803548N11953606WA000000024091
B0130314803543N11953616WA000000024297
B0130324803539N11953627WA000000024240
B0130334803534N11953637WA000000024262
B0130344803529N11953646WA000000024279
B0130354803524N11953657WA000000024190
B0130364803519N11953667WA000000024162
B0130374803514N11953678WA000000024132
B0130384803508N11953689WA000000024084
B0130394803503N11953700WA000000024019
B0130404803497N11953711WA000000023946
B0130414803491N11953722WA000000023869
B0130424803485N11953734WA000000023767
B0130434803479N11953745WA000000023813
B0130444803472N11953755WA000000023945
B0130454803465N11953764WA000000023938
B0130464803457N11953774WA000000023953
B0130474803449N11953784WA000000023990
B0130484803442N11953793WA000000023965
B0130494803435N11953802WA000000024057
B0130504803428N11953811WA000000024167
B0130514803421N11953820WA000000024164
B0130524803414N11953829WA000000024060
B0130534803407N11953838WA000000023980
B0130544803401N11953847WA000000023942
B0130554803394N11953856WA000000023953
B0130564803387N11953865WA000000023926
B0130574803380N11953874WA000000023935
B0130584803373N11953883WA000000023767
B0130594803366N11953893WA000000023775
B0131004803360N11953902WA000000023843
B0131014803354N11953912WA000000023824
B0131024803347N11953922WA000000023842
B0131034803340N11953932WA000000023725
B0131044803333N11953943WA000000023631
B0131054803326N11953954WA000000023770
LXCTACTIVITY OTHER 79
B0131064803319N11953964WA000000023881
B0131074803312N11953973WA000000023887
B0131084803305N11953984WA000000023893
B0131094803299N11953994WA000000023818
B0131104803292N11954005WA000000023826
B0131114803285N11954015WA000000023829
B0131124803278N11954026WA000000023935
B0131134803271N11954037WA000000023915
B0131144803264N11954048WA000000023925
B0131154803257N11954059WA000000023921
B0131164803250N11954069WA000000023835
B0131174803243N11954079WA000000023897
B0131184803237N11954090WA000000023813
B0131194803230N11954100WA000000023867
B0131204803223N11954111WA000000023972
B0131214803216N11954121WA000000023790
B0131224803209N11954130WA000000023681
B0131234803202N11954138WA000000023747
B0131244803194N11954146WA000000023665
B0131254803187N11954154WA000000023832
B0131264803179N11954161WA000000023872
B0131274803171N11954167WA000000023876
B0131284803164N11954173WA000000023803
B0131294803155N11954178WA000000023896
B0131304803147N11954183WA000000023991
B0131314803139N11954186WA000000023995
B0131324803131N11954189WA000000023785
B0131334803123N11954193WA000000023810
B0131344803114N11954195WA000000023967
B0131354803105N11954197WA000000023939
B0131364803095N11954199WA000000024094
B0131374803086N11954199WA000000024055
B0131384803077N11954199WA000000024101
B0131394803066N11954197WA000000024196
B0131404803056N11954196WA000000024171
B0131414803046N11954193WA000000024150
B0131424803036N11954190WA000000024002
B0131434803026N11954186WA000000023912
B0131444803015N11954181WA000000024052
B0131454803005N11954175WA000000024055
B0131464802995N11954169WA000000024221
B0131474802984N11954161WA000000024199
B0131484802974N11954154WA000000024186
B0131494802965N11954145WA000000023879
B0131504802955N11954137WA000000023895
B0131514802945N11954128WA000000024046
B0131524802935N11954119WA000000023945
B0131534802925N11954110WA000000023946
B0131544802914N11954101WA000000023984
B0131554802904N11954092WA000000023875
B0131564802894N11954082WA000000023855
B0131574802883N11954074WA000000023951
B0131584802873N11954064WA000000023722
B0131594802862N11954053WA000000023779
B0132004802851N11954043WA000000023788
B0132014802841N11954033WA000000023833
B0132024802830N11954022WA000000023848
B0132034802819N11954012WA000000023881
B0132044802808N11954002WA000000023951
B0132054802797N11953991WA000000023934
B0132064802785N11953981WA000000023993
B0132074802774N11953971WA000000024001
B0132084802762N11953961WA000000024104
B0132094802750N11953952WA000000024201
B0132104802737N11953942WA000000024363
B0132114802725N11953933WA000000024310
B0132124802712N11953923WA000000024396
B0132134802700N11953914WA000000024454
B0132144802687N11953905WA000000024654
B0132154802674N11953896WA000000024648
B0132164802661N11953888WA000000024745
B0132174802648N11953880WA000000024843
B0132184802635N11953872WA000000024956
B0132194802622N11953865WA000000024941
B0132204802609N11953858WA000000025056
B0132214802596N11953851WA000000024976
B0132224802583N11953844WA000000025089
B0132234802570N11953838WA000000025030
B0132244802556N11953831WA000000025045
B0132254802542N11953825WA000000025195
B0132264802528N11953820WA000000025140
B0132274802514N11953815WA000000025271
B0132284802501N11953808WA000000025404
B0132294802486N11953802WA000000025795
B0132304802472N11953796WA000000025567
B0132314802458N11953792WA000000025561
B0132324802443N11953789WA000000025621
B0132334802427N11953785WA000000025611
LXCTACTIVITY STILL 100
B0132344802411N11953780WA000000025743
B0132354802396N11953775WA000000025818
B0132364802381N11953772WA000000025840
B0132374802367N11953767WA000000025914
B0132384802352N11953763WA000000026076
B0132394802338N11953759WA000000026047
B0132404802324N11953755WA000000026190
B0132414802311N11953749WA000000026381
B0132424802298N11953745WA000000026903
B0132434802284N11953741WA000000026957
B0132444802271N11953737WA000000027085
B0132454802257N11953733WA000000027282
B0132464802244N11953729WA000000027304
B0132474802231N11953725WA000000027305
B0132484802217N11953721WA000000027613
B0132494802203N11953717WA000000027629
B0132534802149N11953701WA000000027764
B0132544802135N11953697WA000000053254
B0132554802123N11953692WA000000044618
LXCTACTIVITY OTHER 80
B0132564802110N11953689WA000000042325
B0132574802096N11953685WA000000038278
B0132584802083N11953682WA000000039042
B0132594802070N11953678WA000000037635
B0133004802057N11953675WA000000036680
B0133014802044N11953671WA000000035662
B0133024802031N11953666WA000000035199
B0133034802018N11953663WA000000034275
B0133044802005N11953660WA000000033381
B0133054801993N11953656WA000000032407
B0133064801980N11953652WA000000031638
B0133074801967N11953648WA000000031419
B0133084801955N11953643WA000000032129
B0133094801942N11953640WA000000032601
B0133104801929N11953636WA000000032636
B0133114801915N11953633WA000000033062
B0133124801901N11953628WA000000032988
B0133134801887N11953625WA000000033644
B0133144801873N11953620WA000000033181
B0133154801860N11953615WA000000032808
B0133164801845N11953611WA000000032476
B0133174801831N11953607WA000000032741
B0133184801817N11953602WA000000032538
B0133194801803N11953598WA000000032237
B0133204801790N11953594WA000000031850
B0133214801775N11953592WA000000031358
B0133224801761N11953587WA000000031177
B0133234801748N11953582WA000000031025
B0133244801734N11953578WA000000031032
B0133254801720N11953572WA000000031317
B0133264801706N11953568WA000000031508
B0133274801692N11953564WA000000031502
B0133284801677N11953559WA000000031565
B0133294801662N11953555WA000000031480
B0133304801648N11953549WA000000031624
B0133314801633N11953544WA000000031716
B0133324801617N11953539WA000000031653
B0133334801602N11953534WA000000031351
B0133344801587N11953529WA000000031249
B0133354801572N11953525WA000000031210
B0133364801558N11953520WA000000030804
B0133374801542N11953518WA000000031165
B0133384801527N11953512WA000000031474
B0133394801512N11953506WA000000030926
B0133404801497N11953502WA000000030663
B0133414801481N11953498WA000000030666
B0133424801466N11953493WA000000030697
B0133434801451N11953488WA000000030667
B0133444801436N11953483WA000000030760
B0133454801422N11953479WA000000030679
B0133464801407N11953474WA000000030268
B0133474801393N11953469WA000000030164
B0133484801378N11953464WA000000030028
B0133494801361N11953460WA000000030159
B0133504801346N11953458WA000000029811
B0133514801330N11953453WA000000029529
B0133524801314N11953449WA000000029339
B0133534801300N11953445WA000000029534
B0133544801285N11953439WA000000029255
B0133554801271N11953437WA000000028850
B0133564801256N11953431WA000000028969
B0133574801241N11953428WA000000028796
B0133584801227N11953424WA000000028865
B0133594801212N11953419WA000000028794
B0134004801197N11953414WA000000028822
B0134014801182N11953410WA000000028711
B0134024801167N11953405WA000000028912
B0134034801152N11953400WA000000028938
B0134044801136N11953395WA000000028786
B0134054801120N11953391WA000000028692
LXCTACTIVITY STILL 100
B0134074801090N11953382WA000000028460
B0134084801075N11953377WA000000055713
B0134094801059N11953373WA000000047591
LXCTACTIVITY OTHER 90
B0134104801044N11953368WA000000041687
B0134114801029N11953364WA000000037317
B0134124801013N11953360WA000000034284
B0134134800998N11953355WA000000033665
B0134144800983N11953350WA000000032443
B0134154800968N11953345WA000000031426
B0134164800953N11953341WA000000030524
B0134174800938N11953337WA000000030123
B0134184800923N11953332WA000000029844
B0134194800909N11953326WA000000029438
B0134204800894N11953322WA000000028804
B0134214800879N11953318WA000000028605
B0134224800864N11953314WA000000028303
B0134234800848N11953309WA000000028355
B0134244800833N11953304WA000000028229
B0134254800818N11953300WA000000028226
B0134264800803N11953296WA000000028132
B0134274800788N11953291WA000000028152
B0134284800773N11953286WA000000028176
B0134294800759N11953282WA000000028024
B0134304800744N11953278WA000000028073
B0134314800730N11953273WA000000027858
B0134324800716N11953269WA000000027813
B0134334800701N11953265WA000000027851
B0134344800687N11953260WA000000027805
B0134354800673N11953256WA000000027803
B0134364800658N11953251WA000000027758
B0134374800643N11953247WA000000027694
B0134384800629N11953242WA000000027818
B0134394800614N11953238WA000000027865
B0134404800599N11953234WA000000027892
B0134414800585N11953230WA000000027791
B0134424800570N11953225WA000000027698
B0134434800556N11953221WA000000027792
B0134444800542N11953217WA000000027841
LXCTACTIVITY STILL 100
B0134454800528N11953212WA000000027807
B0134464800514N11953208WA000000027707
B0134474800499N11953204WA000000027730
B0134484800485N11953200WA000000027863
B0134494800471N11953196WA000000027880
B0134504800457N11953192WA000000027721
B0134514800442N11953188WA000000027594
B0134524800428N11953184WA000000027696
B0134534800414N11953180WA000000027576
B0134544800400N11953176WA000000027657
B0134554800386N11953172WA000000027515
B0134564800371N11953168WA000000027591
B0134574800357N11953163WA000000027568
B0134584800343N11953159WA000000027460
B0134594800329N11953154WA000000027464
B0135004800315N11953150WA000000027476
B0135014800301N11953146WA000000027472
B0135024800287N11953141WA000000027458
B0135034800273N11953137WA000000027485
B0135044800259N11953133WA000000027474
B0135054800246N11953128WA000000027418
B0135064800232N11953124WA000000027394
B0135074800219N11953120WA000000027461
B0135084800205N11953116WA000000027351
B0135094800191N11953112WA000000027366
B0135104800177N11953108WA000000027452
B0135114800163N11953103WA000000027349
B0135124800149N11953099WA000000027347
B0135134800135N11953095WA000000027374
B0135144800122N11953090WA000000027339
B0135154800108N11953087WA000000027333
B0135164800095N11953083WA000000027233
B0135174800081N11953079WA000000027272
B0135184800068N11953075WA000000027204
B0135194800054N11953071WA000000027244
B0135204800040N11953068WA000000027262
B0135214800026N11953064WA000000027274
B0135224800012N11953060WA000000027296
B0135234759999N11953056WA000000027212
B0135244759985N11953051WA000000027235
B0135254759971N11953047WA000000027277
B0135264759958N11953042WA000000027101
B0135274759944N11953039WA000000026801
B0135284759929N11953036WA000000026891
B0135294759915N11953033WA000000026748
B0135304759902N11953031WA000000026968
B0135314759888N11953029WA000000026749
B0135324759874N11953028WA000000026708
LXCTACTIVITY OTHER 84
B0135334759860N11953028WA000000026522
B0135344759846N11953027WA000000026660
B0135354759832N11953027WA000000026681
B0135364759818N11953027WA000000026685
B0135374759805N11953028WA000000026614
B0135384759791N11953029WA000000026504
B0135394759777N11953030WA000000026404
B0135404759762N11953032WA000000026397
B0135414759748N11953035WA000000026256
B0135424759734N11953038WA000000026252
B0135434759721N11953042WA000000026111
B0135444759707N11953045WA000000026158
B0135454759693N11953049WA000000026079
B0135464759680N11953053WA000000025917
B0135474759666N11953058WA000000025862
B0135484759653N11953062WA000000025809
B0135494759639N11953068WA000000025834
B0135504759626N11953073WA000000025821
B0135514759612N11953077WA000000025889
B0135524759599N11953082WA000000025866
B0135534759586N11953087WA000000025810
B0135544759572N11953092WA000000025732
B0135554759558N11953097WA000000025684
B0135564759545N11953103WA000000025522
B0135574759531N11953108WA000000025348
B0135584759518N11953113WA000000025309
B0135594759504N11953118WA000000025128
B0136004759490N11953124WA000000025050
B0136014759476N11953129WA000000025091
B0136024759463N11953134WA000000024813
B0136034759449N11953139WA000000024856
B0136044759436N11953144WA000000024705
B0136054759422N11953149WA000000024654
B0136064759408N11953155WA000000024592
B0136074759395N11953159WA000000024535
B0136084759381N11953164WA000000024487
B0136094759368N11953169WA000000024449
B0136104759355N11953175WA000000024320
B0136114759342N11953180WA000000024220
B0136124759328N11953184WA000000024384
B0136134759315N11953189WA000000024349
B0136144759302N11953194WA000000024248
B0136154759288N11953200WA000000024297
B0136164759275N11953206WA000000024290
B0136174759262N11953212WA000000024181
B0136184759249N11953217WA000000024179
B0136194759236N11953224WA000000024150
B0136204759223N11953230WA000000024156
B0136214759210N11953237WA000000024289
B0136224759198N11953244WA000000024345
B0136234759185N11953252WA000000024240
B0136244759172N11953259WA000000024377
B0136254759160N11953267WA000000024315
B0136264759147N11953275WA000000024260
B0136274759135N11953282WA000000024226
B0136284759122N11953290WA000000024257
B0136294759109N11953298WA000000024384
B0136304759097N11953306WA000000024322
B0136314759084N11953313WA000000024339
B0136324759071N11953321WA000000024476
B0136334759059N11953329WA000000024412
B0136344759046N11953336WA000000024327
B0136354759033N11953344WA000000024131
B0136364759020N11953351WA000000024152
B0136374759007N11953357WA000000024257
B0136384758994N11953362WA000000024278
B0136394758981N11953366WA000000024219
B0136404758967N11953370WA000000024199
B0136414758954N11953372WA000000024100
B0136424758939N11953373WA000000024098
B0136434758926N11953374WA000000023914
B0136444758912N11953373WA000000024034
B0136454758898N11953372WA000000023943
B0136464758885N11953369WA000000023915
LXCTSTATS eyJzdGF0cyI6eyJ0ZXJyYWluQm1wQ2FjaGUiOnsiYWxsb2MiOjMwNywiYWxsb2NGYW
LXCTSTATS lsIjowLCJtYXhzaXplIjoxMjgsIm1heHNpemVJbml0IjoxMjgsInJldXNlIjo0OTV9
LXCTSTATS LCJHUFMiOnsiYWx0Rml4R2VvaWREaWZmIjoxOS42NDI4MzkyNDEyMDM4LCJhbHRGaX
LXCTSTATS hNZXRob2QiOnsiZGlmZkFwaUdlb2lkIjoxLCJkaWZmQXBpTm9Db3JyZWN0aW9uIjow
LXCTSTATS fSwiYXBpQ250IjoxLCJiZWFyaW5nQ29tcHV0ZWQiOjEsIm5tZWFDbnQiOjM4NDIyNi
LXCTSTATS wic3BlZWRDb21wdXRlZCI6MH19fQ==
LXCTFAICIVLCOMPLIANT false
G83183A0B463AD04A4A5D9E3418E19422D435640EB5BAA85D95842672CE1AA7F4
GDC301F0072E6CECF25EACA9381D87E68B78D4FC06B5B042848B8534118517C3A
GD466D61303D8139DEE9C560619CEB6112A329F619B2BACC175502650CC7B9F5D
G7590F15164420212DF5868F386B12197846A4CEE2C9B4FE3A3EB5293336E95AE
