AXCT1786bebe619c83f6
HFFTYFRTYPE:Google Pixel 7 13 Client:xctrack FlightId:378ce5b5-b1f9-4a19-a174-0d224f83a881
HFRFWFIRMWAREVERSION:0.9.8.6 LIVE:7fd09789d141b5c27e26fd20bb5d748799bbd702
HFPLTPILOTINCHARGE:Josh Cohn
HOSITSite:Mission Peak
HSCCLCOMPETITION CLASS:FAI-3 (PG)
HFGTYGLIDERTYPE:NIVIUK Icepeak X-One
HODTM100GPSDATUM:WGS-84
HFALPALTPRESSURE:ISA
HFALG:GEO
I023636LAD3737LOD
HFDTEDATE:010423,00
LXCTDEVICE eyJkZXZpY2UiOnsiY3B1QUJJIjoiYXJtNjQtdjhhIiwic2RrIjozMywiZGlzcGxhe
LXCTDEVICE SI6eyJ3IjoxMDgwLCJoIjoyMjAxLCJtbSI6MTYuNTM1NDMzfSwiZmluZ2VycHJpbn
LXCTDEVICE QiOiJnb29nbGUvcGFudGhlci9wYW50aGVyOjEzL1RRMkEuMjMwMzA1LjAwOC85NTk
LXCTDEVICE 1NDUyOnVzZXIvcmVsZWFzZS1rZXlzIiwibW9kZWwiOiJQaXhlbCA3IiwiZGV2UXVl
LXCTDEVICE dWVCdWlsZCI6ImYyM2FhZjE0OGU1ZmEwY2MwYTA1MDNlYTgxNjU5N2M5YmM0ODA4M
LXCTDEVICE GQiLCJwcm9kdWN0IjoicGFudGhlciIsImFuZHJvaWRJZCI6IjE3ODZiZWJlNjE5Yz
LXCTDEVICE gzZjYiLCJtYW51ZmFjdHVyZXIiOiJHb29nbGUiLCJkZXZpY2VTdHJpbmciOiJHb29
LXCTDEVICE nbGUgUGl4ZWwgNyAxMyIsImJ1aWxkSWQiOiJUUTJBLjIzMDMwNS4wMDgiLCJjcHVB
LXCTDEVICE QkkyIjoiIiwiYm9hcmQiOiJwYW50aGVyIiwidGltZXpvbmUiOiJBbWVyaWNhL0xvc
LXCTDEVICE 19BbmdlbGVzIiwiaGFyZHdhcmUiOiJwYW50aGVyIn0sInhjdHJhY2siOnsidmVyc2
LXCTDEVICE lvbk5hbWUiOiIwLjkuOC42IiwidmVyc2lvbkNvZGUiOjkwODYxfSwiY2FwYWJpbGl
LXCTDEVICE 0aWVzIjp7Im1lbUNsYXNzIjoyNTYsIm1lbUxhcmdlQ2xhc3MiOjUxMiwibmFuIjp0
LXCTDEVICE cnVlfX0=
B1957153731048N12153515WA004990059818
B1957163731048N12153515WA004990059818
B1957173731048N12153515WA004990059818
B1957183731048N12153515WA004990059808
B1957193731048N12153515WA004990059818
B1957203731048N12153516WA004990059810
B1957213731048N12153516WA004990059810
B1957223731048N12153516WA004990059820
B1957233731047N12153516WA004970059854
B1957243731047N12153516WA004960059889
B1957253731047N12153517WA004960059738
B1957263731046N12153519WA004970059775
B1957273731046N12153521WA004970059631
B1957283731045N12153522WA004950059527
B1957293731044N12153524WA004950059443
B1957303731043N12153526WA004940059454
B1957313731043N12153529WA004960059304
B1957323731042N12153532WA004960059348
B1957333731041N12153536WA004950059373
B1957343731040N12153539WA004950059353
B1957353731039N12153542WA004950059304
B1957363731037N12153545WA004950059386
B1957373731036N12153548WA004960059398
B1957383731036N12153551WA004960059266
B1957393731036N12153554WA004960059272
B1957403731037N12153556WA004960059109
B1957413731037N12153560WA004950059062
B1957423731038N12153563WA004950059019
B1957433731038N12153567WA004940059079
B1957443731038N12153572WA004930059061
B1957453731037N12153576WA004910058987
B1957463731035N12153581WA004890058973
B1957473731033N12153585WA004810058908
B1957483731030N12153589WA004870058969
B1957493731029N12153594WA004920058816
B1957503731028N12153600WA004860058967
B1957513731028N12153606WA004870058978
B1957523731028N12153611WA004870058732
B1957533731026N12153615WA004860058492
B1957543731024N12153618WA004850058229
B1957553731020N12153621WA004840058269
B1957563731015N12153626WA004840058360
B1957573731011N12153629WA004840058445
B1957583731007N12153632WA004840058474
B1957593731004N12153634WA004840058275
B1958003731002N12153635WA004830058088
B1958013731000N12153638WA004800057970
B1958023730998N12153641WA004750057813
B1958033730994N12153646WA004710057791
B1958043730991N12153652WA004670057873
B1958053730989N12153658WA004640057810
B1958063730986N12153663WA004630057792
B1958073730985N12153667WA004630057610
B1958083730983N12153669WA004630057346
B1958093730981N12153671WA004630057128
B1958103730977N12153673WA004640057075
B1958113730973N12153673WA004650056998
B1958123730969N12153672WA004670056887
B1958133730967N12153670WA004690056726
B1958143730964N12153668WA004710056677
B1958153730961N12153667WA004730056675
B1958163730958N12153665WA004740056683
B1958173730955N12153662WA004740056621
B1958183730951N12153657WA004750056638
B1958193730947N12153653WA004760056784
B1958203730945N12153649WA004770056616
B1958213730942N12153645WA004780056631
B1958223730939N12153640WA004780056657
B1958233730936N12153635WA004780056504
B1958243730932N12153629WA004780056748
B1958253730929N12153622WA004780056706
B1958263730928N12153614WA004780056524
B1958273730929N12153606WA004790056530
B1958283730931N12153598WA004790056646
B1958293730934N12153590WA004790056726
B1958303730938N12153583WA004800056863
B1958313730944N12153578WA004810056901
B1958323730949N12153575WA004820056953
B1958333730953N12153573WA004820056997
B1958343730959N12153575WA004830057166
B1958353730966N12153579WA004840057345
B1958363730971N12153584WA004870057772
B1958373730975N12153588WA004890057751
B1958383730979N12153592WA004910057706
B1958393730982N12153597WA004930057744
B1958403730985N12153602WA004930057711
B1958413730986N12153606WA004920057709
B1958423730986N12153612WA004910057807
B1958433730986N12153618WA004910057906
B1958443730986N12153624WA004930058182
B1958453730988N12153628WA004940058244
B1958463730990N12153631WA004960058339
B1958473730991N12153635WA004970058462
B1958483730992N12153638WA004990058558
B1958493730993N12153642WA005010058515
B1958503730994N12153646WA005020058604
B1958513730994N12153650WA005030058755
B1958523730993N12153654WA005030058983
B1958533730991N12153657WA005050058998
B1958543730989N12153660WA005050059085
B1958553730987N12153663WA005070059294
B1958563730986N12153666WA005080059426
B1958573730984N12153668WA005100059537
B1958583730982N12153670WA005120059523
B1958593730980N12153672WA005130059677
B1959003730980N12153676WA005130059723
B1959013730981N12153681WA005120059815
B1959023730983N12153686WA005120059949
B1959033730986N12153690WA005130059957
B1959043730989N12153693WA005150060045
B1959053730991N12153695WA005160060062
B1959063730993N12153697WA005170060045
B1959073730994N12153700WA005170060116
B1959083730993N12153704WA005160060172
B1959093730991N12153706WA005150060146
B1959103730987N12153709WA005150060201
B1959113730982N12153707WA005150060109
B1959123730976N12153706WA005160060387
B1959133730972N12153701WA005160060226
B1959143730967N12153693WA005150060488
B1959153730963N12153683WA005140060362
B1959163730960N12153670WA005140060649
B1959173730959N12153660WA005160060650
B1959183730960N12153651WA005180060861
B1959193730964N12153642WA005210060939
B1959203730967N12153635WA005230060908
B1959213730968N12153628WA005260061187
B1959223730970N12153621WA005290061230
B1959233730972N12153613WA005310061224
B1959243730976N12153605WA005310061408
B1959253730981N12153599WA005320061560
B1959263730988N12153594WA005330061710
B1959273730994N12153591WA005340061890
B1959283731001N12153590WA005360061930
B1959293731006N12153591WA005380061984
B1959303731011N12153594WA005390062008
B1959313731014N12153599WA005400062297
B1959323731016N12153605WA005410062491
B1959333731017N12153609WA005420062507
B1959343731017N12153613WA005450062513
B1959353731015N12153615WA005470062685
B1959363731014N12153617WA005480062736
B1959373731011N12153619WA005470062734
B1959383731007N12153621WA005460063032
B1959393731002N12153622WA005470063263
B1959403730998N12153621WA005490063344
B1959413730993N12153618WA005510063384
B1959423730989N12153613WA005520063367
B1959433730985N12153607WA005540063547
B1959443730981N12153600WA005560063678
B1959453730979N12153592WA005570063571
B1959463730979N12153582WA005570063543
B1959473730981N12153572WA005580063680
B1959483730985N12153563WA005600063996
B1959493730991N12153558WA005620064144
B1959503730998N12153553WA005640064142
B1959513731005N12153549WA005660064137
B1959523731011N12153550WA005690064390
B1959533731018N12153552WA005720064783
B1959543731024N12153555WA005740064718
B1959553731027N12153560WA005770065367
B1959563731030N12153563WA005790065382
B1959573731030N12153566WA005780065361
B1959583731028N12153570WA005780065440
B1959593731025N12153571WA005770065294
B2000003731022N12153572WA005760065561
B2000013731015N12153573WA005750065491
B2000023731007N12153571WA005760066158
B2000033731001N12153566WA005780066446
B2000043730996N12153558WA005790066309
B2000053730992N12153552WA005810066284
B2000063730990N12153544WA005810066096
B2000073730989N12153533WA005800065848
B2000083730990N12153522WA005790066017
B2000093730992N12153512WA005800066285
B2000103730996N12153505WA005810066376
B2000113731001N12153500WA005820066567
B2000123731006N12153495WA005830066627
B2000133731010N12153490WA005840066294
B2000143731014N12153485WA005850065999
B2000153731019N12153482WA005870065932
B2000173731026N12153475WA005920065950
B2000183731027N12153473WA005940066371
B2000193731027N12153473WA005930067109
B2000203731019N12153478WA005920067597
B2000213731016N12153483WA005930068006
B2000223731011N12153484WA005930068153
B2000233731001N12153498WA005930067168
B2000243730997N12153497WA005900067398
B2000253730997N12153493WA005890067403
B2000263730997N12153489WA005890067695
B2000273731000N12153484WA005920067737
B2000283731002N12153481WA005940067770
B2000293731006N12153477WA005960068012
B2000303731009N12153475WA005980068135
B2000313731012N12153474WA006000068179
B2000323731015N12153474WA006020067846
B2000343731022N12153483WA006020067985
B2000353731025N12153489WA006010067767
B2000363731028N12153495WA006010067707
B2000373731029N12153501WA006010067726
B2000383731029N12153506WA006020067859
B2000393731028N12153510WA006030068046
B2000403731026N12153512WA006050068184
B2000413731026N12153515WA006060068371
B2000423731026N12153516WA006080068505
B2000433731023N12153516WA006080068534
B2000443731021N12153515WA006070068657
B2000453731018N12153514WA006070068873
B2000463731015N12153511WA006070069119
B2000473731011N12153508WA006070069336
B2000483731007N12153503WA006080069428
B2000493731003N12153498WA006080069519
B2000503730999N12153493WA006080069551
B2000513730995N12153486WA006080069593
B2000523730992N12153479WA006080069673
B2000533730989N12153472WA006080069671
B2000543730986N12153465WA006080069636
B2000553730982N12153459WA006080069645
B2000563730978N12153453WA006080069507
B2000573730973N12153447WA006070069569
B2000583730969N12153442WA006060069520
B2000593730965N12153435WA006060069628
B2001003730961N12153429WA006060069694
B2001013730959N12153422WA006060069732
B2001023730957N12153415WA006070069701
B2001033730954N12153408WA006070069877
B2001043730952N12153402WA006080069856
B2001053730950N12153396WA006080069823
B2001063730947N12153389WA006090069969
B2001073730944N12153383WA006090069987
B2001083730941N12153377WA006090069987
B2001093730938N12153371WA006080069987
B2001103730935N12153365WA006080069985
B2001113730933N12153358WA006080069907
B2001123730930N12153351WA006070069824
B2001133730927N12153344WA006060069861
B2001143730924N12153336WA006040069764
B2001153730921N12153328WA006030069732
B2001163730918N12153320WA006020069741
B2001173730916N12153311WA006010069872
B2001183730915N12153302WA006020069841
B2001193730914N12153293WA006030069821
B2001203730912N12153284WA006040069887
B2001213730911N12153276WA006060069856
B2001223730911N12153269WA006090069807
B2001233730911N12153261WA006100069735
B2001243730913N12153254WA006110069806
B2001253730915N12153246WA006100069854
B2001263730919N12153239WA006100069911
B2001273730924N12153232WA006100070046
B2001283730931N12153228WA006100070001
B2001293730937N12153225WA006090069992
B2001303730945N12153224WA006090069909
B2001313730951N12153226WA006090069954
B2001323730956N12153229WA006080069926
B2001333730959N12153234WA006080069996
B2001343730962N12153239WA006070070028
B2001353730963N12153244WA006080070038
B2001363730962N12153248WA006080070045
B2001373730960N12153251WA006090069971
B2001383730958N12153253WA006090069854
B2001393730956N12153256WA006090069764
B2001403730954N12153259WA006100069877
B2001413730953N12153263WA006110069924
B2001423730952N12153266WA006110069839
B2001433730951N12153270WA006120069954
B2001443730950N12153273WA006130069921
B2001453730947N12153275WA006120069881
B2001463730944N12153277WA006110069851
B2001473730940N12153279WA006090069858
B2001483730937N12153284WA006080069850
B2001493730936N12153289WA006060069704
B2001503730935N12153295WA006030069784
B2001513730936N12153301WA006020069875
B2001523730938N12153307WA006020069804
B2001533730939N12153312WA006030069744
B2001543730940N12153316WA006030069687
B2001553730942N12153321WA006020069631
B2001563730944N12153325WA006010069408
B2001573730945N12153331WA006000069343
B2001583730946N12153337WA005980069328
B2001593730947N12153345WA005950069445
B2002003730949N12153353WA005950069453
B2002013730952N12153360WA005960069577
B2002023730956N12153367WA005970069630
B2002033730959N12153372WA005990069559
B2002043730962N12153377WA006000069409
B2002053730964N12153383WA006010069404
B2002063730965N12153388WA006020069465
B2002073730967N12153393WA006010069434
B2002083730969N12153398WA006010069512
B2002093730970N12153403WA006020069425
B2002103730970N12153409WA006020069430
B2002113730969N12153413WA006030069488
B2002123730969N12153418WA006040069503
B2002133730968N12153422WA006060069642
B2002143730968N12153425WA006080069611
B2002153730968N12153428WA006100069633
B2002163730968N12153432WA006120069743
B2002173730968N12153435WA006120069719
B2002183730967N12153439WA006120069828
B2002193730965N12153443WA006120069917
B2002203730961N12153447WA006140070082
B2002213730958N12153450WA006160070282
B2002223730956N12153451WA006190070366
B2002233730955N12153453WA006220070505
B2002243730953N12153456WA006240070584
B2002253730952N12153459WA006260070618
B2002263730949N12153464WA006260070790
B2002273730947N12153469WA006260070832
B2002283730944N12153474WA006260071061
B2002293730941N12153478WA006270071186
B2002303730939N12153482WA006290071300
B2002313730936N12153485WA006310071458
B2002323730934N12153489WA006340071561
B2002333730933N12153491WA006360071606
B2002343730930N12153493WA006380071776
B2002353730927N12153494WA006380071707
B2002363730922N12153494WA006380071819
B2002373730915N12153492WA006380072098
B2002383730909N12153489WA006380071996
B2002393730904N12153483WA006390072139
B2002403730900N12153471WA006410072457
B2002413730899N12153461WA006430072392
B2002423730900N12153451WA006460072321
B2002433730901N12153442WA006480072441
B2002443730905N12153433WA006500072518
B2002453730911N12153426WA006520072504
B2002463730917N12153420WA006540072756
B2002473730925N12153415WA006570073043
B2002483730931N12153413WA006600073195
B2002493730938N12153413WA006600073279
B2002503730944N12153416WA006590073442
B2002513730949N12153420WA006580073312
B2002523730953N12153425WA006600073320
B2002533730953N12153428WA006620073390
B2002543730952N12153430WA006640073160
B2002553730948N12153431WA006670073393
B2002563730945N12153432WA006690073397
B2002573730939N12153433WA006710073165
B2002583730932N12153432WA006720073428
B2002593730923N12153429WA006740073972
B2003003730918N12153422WA006760074542
B2003013730914N12153415WA006780074676
B2003023730911N12153405WA006800074957
B2003033730912N12153395WA006820075158
B2003043730915N12153385WA006830075598
B2003053730921N12153378WA006840075829
B2003063730927N12153373WA006850076267
B2003073730933N12153371WA006880076350
B2003083730939N12153369WA006900076522
B2003093730944N12153370WA006920076644
B2003103730948N12153371WA006930076887
B2003113730953N12153375WA006940077347
B2003123730955N12153380WA006940077581
B2003133730956N12153385WA006940077774
B2003143730956N12153390WA006950077817
B2003153730954N12153395WA006970077845
B2003163730951N12153399WA006990077744
B2003173730949N12153403WA007020077927
B2003183730947N12153406WA007050078051
B2003193730945N12153408WA007070078163
B2003203730942N12153409WA007090078246
B2003213730937N12153409WA007080078485
B2003223730932N12153408WA007080078617
B2003233730924N12153405WA007100078998
B2003243730919N12153401WA007120079315
B2003253730914N12153393WA007130079476
B2003263730912N12153383WA007150079442
B2003273730912N12153372WA007170079485
B2003283730915N12153361WA007190079597
B2003293730920N12153352WA007180079556
B2003303730925N12153347WA007170079770
B2003313730931N12153344WA007180080053
B2003323730937N12153337WA007210080047
B2003333730942N12153331WA007250080067
B2003353730950N12153318WA007330079972
B2003363730952N12153311WA007370079869
B2003373730953N12153310WA007400079620
B2003383730952N12153306WA007410079495
B2003393730948N12153308WA007420079679
B2003403730944N12153314WA007430079595
B2003413730940N12153314WA007450079338
B2003423730935N12153313WA007460079156
B2003433730930N12153312WA007470079534
B2003443730925N12153313WA007490080078
B2003453730922N12153316WA007510080140
B2003463730920N12153313WA007530080268
B2003473730920N12153311WA007550080460
B2003483730922N12153308WA007550080714
B2003493730924N12153305WA007560081088
B2003503730928N12153306WA007560081797
B2003513730934N12153305WA007560082236
B2003523730941N12153303WA007560082616
B2003533730948N12153302WA007570083220
B2003543730954N12153303WA007580083851
B2003553730959N12153305WA007600084186
B2003563730963N12153310WA007610084473
B2003573730967N12153315WA007630084751
B2003583730968N12153320WA007650085180
B2003593730969N12153324WA007680085645
B2004003730969N12153328WA007710085955
B2004013730968N12153332WA007740086183
B2004023730967N12153335WA007760086220
B2004033730964N12153336WA007780086375
B2004043730961N12153337WA007780086322
B2004053730957N12153337WA007770086557
B2004063730953N12153338WA007780086790
B2004073730950N12153337WA007790086968
B2004083730947N12153337WA007810087121
B2004093730943N12153336WA007820087052
B2004103730939N12153332WA007840087067
B2004113730935N12153327WA007830087084
B2004123730932N12153320WA007830086980
B2004133730930N12153309WA007820086999
B2004143730932N12153299WA007830087101
B2004153730933N12153289WA007850087241
B2004163730934N12153280WA007860087121
B2004173730933N12153272WA007880087245
B2004183730932N12153264WA007890087208
B2004193730930N12153257WA007900087292
B2004203730930N12153249WA007890087304
B2004213730928N12153241WA007880087465
B2004223730926N12153234WA007880087412
B2004233730923N12153227WA007880087526
B2004243730920N12153221WA007880087465
B2004253730918N12153215WA007870087327
B2004263730915N12153209WA007860087255
B2004273730912N12153203WA007850087131
B2004283730908N12153196WA007820087041
B2004293730904N12153188WA007780087024
B2004303730899N12153180WA007740086971
B2004313730894N12153171WA007700087053
B2004323730889N12153162WA007670087009
B2004333730883N12153155WA007650086923
B2004343730878N12153148WA007650086707
B2004353730873N12153141WA007640086608
B2004363730868N12153133WA007620086439
B2004373730863N12153125WA007600086496
B2004383730859N12153116WA007570086352
B2004393730854N12153106WA007540086480
B2004403730850N12153096WA007530086332
B2004413730846N12153086WA007540086152
B2004423730844N12153076WA007550085909
B2004433730841N12153068WA007550085894
B2004443730839N12153060WA007540085760
B2004453730836N12153051WA007520085633
B2004463730832N12153042WA007500085517
B2004473730827N12153034WA007480085564
B2004483730822N12153025WA007460085589
B2004493730818N12153017WA007440085306
B2004503730813N12153009WA007430085155
B2004513730809N12153001WA007420084944
B2004523730805N12152993WA007410084889
B2004533730802N12152986WA007400084747
B2004543730798N12152979WA007390084680
B2004553730795N12152971WA007370084424
B2004563730791N12152964WA007360084480
B2004573730788N12152957WA007360084450
B2004583730785N12152950WA007360084253
B2004593730782N12152944WA007360084110
B2005003730778N12152937WA007340084135
B2005013730774N12152930WA007330084021
B2005023730770N12152921WA007330083949
B2005033730767N12152913WA007330083939
B2005043730764N12152906WA007330083852
B2005053730761N12152898WA007320083669
B2005063730758N12152891WA007310083536
B2005073730754N12152884WA007300083573
B2005083730750N12152876WA007280083535
B2005093730745N12152869WA007260083491
B2005103730741N12152861WA007250083379
B2005113730738N12152855WA007250083215
B2005123730734N12152848WA007240083066
B2005133730731N12152841WA007230082938
B2005143730727N12152835WA007220082846
B2005153730722N12152829WA007200082678
B2005163730717N12152825WA007180082535
B2005173730711N12152823WA007160082344
B2005183730705N12152823WA007130082396
B2005193730700N12152826WA007100082491
B2005203730696N12152829WA007080082339
B2005213730691N12152833WA007070082272
B2005223730686N12152835WA007080082196
B2005233730682N12152837WA007070081914
B2005243730677N12152839WA007060081703
B2005253730671N12152841WA007050081590
B2005263730666N12152842WA007030081495
B2005273730661N12152843WA007020081287
B2005283730656N12152845WA007000081051
B2005293730651N12152846WA006970080756
B2005303730645N12152848WA006930080593
B2005313730639N12152849WA006890080306
B2005323730631N12152850WA006840080329
B2005333730623N12152852WA006810080222
B2005343730615N12152854WA006780080192
B2005353730609N12152856WA006790079962
B2005363730603N12152857WA006790079878
B2005373730597N12152859WA006780079691
B2005383730591N12152860WA006770079493
B2005393730585N12152861WA006750079384
B2005403730579N12152862WA006740079330
B2005413730572N12152861WA006740079329
B2005423730565N12152860WA006760079357
B2005433730561N12152858WA006770079133
B2005443730556N12152855WA006790078813
B2005453730552N12152853WA006810078704
B2005463730548N12152851WA006840078439
B2005473730545N12152851WA006870078219
B2005483730543N12152853WA006870078036
B2005493730542N12152857WA006860077811
B2005503730542N12152862WA006840077665
B2005513730543N12152868WA006820077432
B2005523730545N12152872WA006810077566
B2005533730546N12152874WA006830077668
B2005543730547N12152875WA006860077856
B2005553730550N12152872WA006880078214
B2005563730554N12152864WA006900078589
B2005573730560N12152852WA006930078114
B2005583730563N12152836WA006950077601
B2005593730563N12152823WA006980077409
B2006003730561N12152811WA007000077577
B2006013730560N12152801WA007020077766
B2006023730560N12152791WA007020077912
B2006033730559N12152781WA007020078155
B2006043730558N12152772WA007030078302
B2006053730555N12152763WA007040078449
B2006063730551N12152757WA007060078711
B2006073730546N12152752WA007070078822
B2006083730541N12152748WA007100079163
B2006093730537N12152745WA007120079373
B2006103730533N12152742WA007150079497
B2006113730530N12152741WA007180079530
B2006123730526N12152740WA007200079635
B2006133730522N12152741WA007220079714
B2006143730518N12152744WA007230079881
B2006153730515N12152748WA007230080190
B2006163730514N12152754WA007230080444
B2006173730514N12152760WA007240080582
B2006183730515N12152764WA007250080593
B2006193730518N12152767WA007270080617
B2006203730520N12152770WA007280080887
B2006213730523N12152773WA007290080949
B2006223730525N12152777WA007300081021
B2006233730526N12152780WA007310081165
B2006243730527N12152783WA007310081268
B2006253730528N12152787WA007310081375
B2006263730530N12152791WA007310081301
B2006273730532N12152795WA007310081431
B2006283730535N12152799WA007310081621
B2006293730538N12152801WA007320081748
B2006303730542N12152802WA007320081771
B2006313730547N12152800WA007330081565
B2006323730552N12152796WA007320081171
B2006333730558N12152786WA007310081018
B2006343730562N12152774WA007300081373
B2006353730565N12152762WA007320081781
B2006363730568N12152751WA007350081878
B2006373730571N12152742WA007390082004
B2006383730573N12152733WA007420082138
B2006393730575N12152725WA007450082215
B2006403730576N12152716WA007460082258
B2006413730576N12152707WA007470082365
B2006423730574N12152698WA007460082399
B2006433730571N12152690WA007450082448
B2006443730566N12152684WA007460082572
B2006453730562N12152679WA007460082712
B2006463730557N12152676WA007470082710
B2006473730551N12152674WA007480082895
B2006483730546N12152673WA007500083064
B2006493730541N12152672WA007510083216
B2006503730536N12152672WA007530083317
B2006513730531N12152673WA007550083462
B2006523730527N12152674WA007570083546
B2006533730523N12152676WA007580083634
B2006543730519N12152679WA007590083771
B2006553730516N12152682WA007580083935
B2006563730512N12152685WA007580084187
B2006573730509N12152689WA007600084481
B2006583730508N12152692WA007620084403
B2006593730506N12152696WA007620084595
B2007003730506N12152700WA007600084475
B2007013730509N12152707WA007580084305
B2007023730513N12152711WA007580084436
B2007033730518N12152717WA007590084342
B2007043730524N12152720WA007590084211
B2007053730529N12152721WA007590084295
B2007063730535N12152724WA007580084230
B2007073730540N12152726WA007580084289
B2007083730546N12152730WA007560084205
B2007093730551N12152735WA007540084218
B2007103730556N12152742WA007520084314
B2007113730560N12152749WA007510084495
B2007123730564N12152756WA007530084442
B2007133730566N12152761WA007550084544
B2007143730567N12152765WA007570084511
B2007153730568N12152767WA007580084456
B2007163730571N12152770WA007560084105
B2007173730574N12152774WA007510084079
B2007183730578N12152780WA007460084043
B2007193730582N12152787WA007420084112
B2007203730585N12152794WA007390084149
B2007213730588N12152800WA007380083939
B2007223730591N12152804WA007380083748
B2007233730594N12152807WA007370083589
B2007243730598N12152811WA007350083369
B2007253730602N12152817WA007310083234
B2007263730606N12152823WA007280083228
B2007273730609N12152830WA007250083264
B2007283730613N12152836WA007230083101
B2007293730616N12152841WA007210082933
B2007303730619N12152845WA007190082779
B2007313730623N12152849WA007170082469
B2007323730627N12152853WA007160082285
B2007333730632N12152857WA007130082051
B2007343730638N12152860WA007100081906
B2007353730643N12152864WA007080081895
B2007363730649N12152868WA007050081786
B2007373730655N12152873WA007020081543
B2007383730660N12152878WA007010081461
B2007393730665N12152883WA007010081325
B2007403730669N12152888WA007010081128
B2007413730672N12152894WA007010080990
B2007423730676N12152899WA007020080834
B2007433730679N12152904WA007020080719
B2007443730681N12152910WA007020080666
B2007453730683N12152916WA007020080699
B2007463730686N12152923WA007030080531
B2007473730689N12152928WA007040080517
B2007483730692N12152933WA007050080435
B2007493730696N12152938WA007050080205
B2007503730700N12152943WA007050080247
B2007513730705N12152949WA007050080201
B2007523730709N12152954WA007050080293
B2007533730714N12152959WA007060080276
B2007543730718N12152964WA007080080282
B2007553730722N12152968WA007090080364
B2007563730726N12152972WA007110080319
B2007573730729N12152977WA007130080355
B2007583730732N12152981WA007150080462
B2007593730735N12152984WA007150080497
B2008003730739N12152988WA007150080498
B2008013730744N12152993WA007140080433
B2008023730749N12152998WA007140080524
B2008033730754N12153003WA007140080501
B2008043730758N12153008WA007140080571
B2008053730763N12153013WA007150080562
B2008063730768N12153018WA007150080503
B2008073730772N12153023WA007160080555
B2008083730777N12153029WA007160080601
B2008093730781N12153034WA007170080678
B2008103730786N12153040WA007170080742
B2008113730791N12153045WA007180080826
B2008123730795N12153051WA007200080985
B2008133730799N12153056WA007220080976
B2008143730802N12153061WA007240081083
B2008153730806N12153066WA007260081156
B2008163730810N12153072WA007290081350
B2008173730814N12153077WA007320081630
B2008183730817N12153082WA007360082083
B2008193730821N12153087WA007400082200
B2008203730823N12153090WA007430082369
B2008213730826N12153095WA007470082630
B2008223730829N12153099WA007500082858
B2008233730832N12153103WA007550083134
B2008243730835N12153107WA007580083254
B2008253730839N12153111WA007590083415
B2008263730843N12153115WA007580083706
B2008273730847N12153120WA007590083914
B2008283730851N12153125WA007590084031
B2008293730855N12153130WA007580084177
B2008303730859N12153137WA007580084381
B2008313730863N12153142WA007590084535
B2008323730865N12153146WA007600084557
B2008333730867N12153150WA007600084444
B2008343730869N12153154WA007580084336
B2008353730871N12153159WA007560084366
B2008363730874N12153165WA007530084214
B2008373730877N12153171WA007490084328
B2008383730880N12153178WA007450084379
B2008393730884N12153185WA007420084295
B2008403730890N12153191WA007400084200
B2008413730895N12153195WA007410084239
B2008423730899N12153199WA007420084108
B2008433730901N12153204WA007400083901
B2008443730902N12153208WA007370083827
B2008453730901N12153215WA007330083682
B2008463730903N12153223WA007300083415
B2008473730905N12153233WA007260083015
B2008483730907N12153241WA007250082986
B2008493730911N12153248WA007250082725
B2008503730914N12153254WA007240082597
B2008513730916N12153261WA007220082506
B2008523730915N12153268WA007210082758
B2008533730915N12153277WA007190082540
B2008543730916N12153284WA007160082581
B2008553730921N12153287WA007110082317
B2008563730925N12153291WA007080082538
B2008573730930N12153295WA007090082699
B2008583730935N12153300WA007100082496
B2008593730938N12153305WA007080082294
B2009013730941N12153318WA007040082391
B2009023730946N12153324WA007000082035
B2009033730951N12153329WA006950082083
B2009043730958N12153335WA006910081990
B2009053730965N12153339WA006920081703
B2009063730969N12153342WA006920081481
B2009073730973N12153344WA006890081096
B2009083730977N12153347WA006850081569
B2009093730981N12153354WA006830081668
B2009103730985N12153361WA006810081111
B2009113730990N12153364WA006770080951
B2009123730994N12153365WA006740080443
B2009133731000N12153365WA006740080464
B2009143731004N12153367WA006740079676
B2009153731009N12153371WA006720079572
B2009163731013N12153375WA006690079422
B2009173731010N12153379WA006670079645
B2009183731021N12153384WA006690078048
B2009193731024N12153389WA006700077809
B2009203731023N12153394WA006710077670
B2009213731021N12153397WA006690078151
B2009223731016N12153402WA006670078695
B2009233731012N12153407WA006630079048
B2009243731008N12153413WA006590079261
B2009253731006N12153417WA006580079255
B2009263731004N12153421WA006650079003
B2009273731002N12153424WA006660078969
B2009283731001N12153429WA006640078721
B2009293730998N12153434WA006610078475
B2009303730992N12153438WA006580077026
B2009313730990N12153443WA006560076408
B2009323730987N12153447WA006550076140
B2009333730983N12153447WA006540075581
B2009343730979N12153440WA006530074815
B2009353730976N12153429WA006500074397
B2009363730975N12153419WA006460074202
B2009373730976N12153409WA006430074024
B2009383730978N12153403WA006380073722
B2009393730980N12153395WA006320073669
B2009403730983N12153388WA006260073615
B2009413730987N12153396WA006190072479
B2009423730985N12153398WA006130072594
B2009433730984N12153389WA006070072128
B2009443730985N12153380WA006000071898
B2009453730986N12153376WA005960071598
B2009523730991N12153367WA005880070452
B2009533730997N12153367WA005860069896
B2009543731003N12153367WA005830069293
B2009553731018N12153387WA005810068991
B2009563731030N12153389WA005780068919
B2009573731040N12153392WA005760068920
B2009583731044N12153396WA005750068953
B2009593731044N12153400WA005750068951
B2010013731038N12153412WA005740068575
B2010023731038N12153414WA005730068259
B2010033731031N12153417WA005710067054
B2010043731031N12153417WA005680066554
B2010053730981N12153403WA005650066492
B2010063730981N12153408WA005640066032
B2010073730981N12153414WA005630065865
B2010083730983N12153419WA005610064931
B2010093730994N12153418WA005580064318
B2010103731001N12153422WA005550064140
B2010113731010N12153423WA005520064047
B2010123731012N12153426WA005490063333
B2010133731018N12153426WA005480063104
B2010143731022N12153429WA005490063021
B2010153731003N12153436WA005500063777
B2010173731010N12153450WA005510063976
B2010183731013N12153454WA005510063404
B2010193731015N12153456WA005500063223
B2010203731019N12153456WA005460063326
B2010223731038N12153452WA005460062759
B2010253731053N12153462WA005390060932
B2010263731062N12153456WA005370060403
B2010273731068N12153458WA005380059762
B2010283731064N12153451WA005380060305
B2010293731061N12153443WA005380060661
B2010303731060N12153435WA005390060686
B2010313731058N12153428WA005390060531
B2010323731056N12153422WA005390060504
B2010333731052N12153417WA005360060559
B2010343731049N12153415WA005350060642
B2010363731043N12153417WA005340061081
B2010373731040N12153415WA005350061106
B2010383731034N12153412WA005350061334
B2010393731030N12153409WA005360061586
B2010403731027N12153407WA005360061245
B2010413730988N12153371WA005350063355
B2010423730987N12153373WA005320062956
B2010433730988N12153376WA005290062316
B2010443730987N12153381WA005250061590
B2010453730990N12153382WA005230060535
B2010463730997N12153383WA005240060171
B2010473731003N12153382WA005250059908
B2010483731007N12153385WA005270059851
B2010493731012N12153387WA005270059869
B2010503731016N12153390WA005290059958
B2010513731021N12153394WA005310060268
B2010523731024N12153397WA005280060214
B2010533731024N12153403WA005240059940
B2010543731024N12153408WA005150059840
B2010553731025N12153413WA005140059905
B2010563731027N12153419WA005170059901
B2010573731030N12153424WA005180059934
B2010583731032N12153429WA005150059871
B2010593731034N12153433WA005110059831
B2011003731035N12153436WA005110059833
B2011013731036N12153439WA005080059906
B2011023731036N12153441WA005080060087
B2011033731037N12153443WA005110060022
B2011043731037N12153444WA005090060028
B2011053731037N12153446WA005110060042
B2011063731037N12153447WA005160060098
B2011073731038N12153449WA005120060031
B2011083731038N12153450WA005100060082
B2011093731039N12153451WA005140060033
B2011103731039N12153452WA005130060049
B2011113731039N12153454WA005110060065
B2011123731040N12153455WA005120060019
B2011133731040N12153457WA005140060056
B2011143731040N12153459WA005090060075
B2011153731040N12153460WA005110060099
B2011163731041N12153462WA005130060010
B2011173731041N12153463WA005150060035
B2011183731041N12153464WA005100059987
B2011193731042N12153465WA005130059949
B2011203731042N12153467WA005160059960
B2011213731042N12153468WA005090059963
B2011223731042N12153469WA005110059961
B2011233731042N12153470WA005150059953
B2011243731042N12153471WA005110059863
B2011253731042N12153472WA005110059891
B2011263731043N12153472WA005110059815
B2011273731043N12153473WA005110059810
B2011283731043N12153473WA005100059715
B2011293731043N12153474WA005100059731
B2011303731043N12153474WA005110059783
B2011313731043N12153474WA005140059784
B2011323731043N12153474WA005130059784
B2011333731044N12153474WA005110059727
B2011343731044N12153474WA005100059759
B2011353731044N12153474WA005090059779
B2011363731044N12153474WA005090059779
B2011373731044N12153474WA005090059679
B2011383731044N12153474WA005090059679
B2011393731044N12153474WA005090059679
LXCTFAICIVLCOMPLIANT true
G3190AC7E1843F4B4DA29F1CA1726C6F611DF71DA234A4F19A3FB66FAA5A25D6C
GE020984BE6C4C2CF0F1BDA2F0F03AAEADB92AC81D5DEBC6DF2D9FCF54EB8379C
G1F485AD32B27087D343DF161C7515CED5D64F70F0345DC10057914ECA1B113D1
G3DCD53F3FE71D2476DAA5D0B7D2087ADD62825B560DE48E7AE81D57277196BEC
