AXCT428f4ad67098bfae
HFFTYFRTYPE:motorola moto g(8) power 11 Client:xctrack FlightId:ae181a2e-2323-4679-afe9-b8dbd8be5f5f
HFRFWFIRMWAREVERSION:0.9.10.3 LIVE:UNKNOWN
HFPLTPILOTINCHARGE:Josh Cohn
HOSITSite:El Peñon
HSCCLCOMPETITION CLASS:FAI-3 (PG)
HFGTYGLIDERTYPE:NIVIUK Icepeak X-One
HODTM100GPSDATUM:WGS-84
HFALPALTPRESSURE:ISA
HFALG:GEO
HFDTEDATE:090124,00
I023636LAD3737LOD
LXCTDEVICE eyJjYXBhYmlsaXRpZXMiOnsibWVtQ2xhc3MiOjEyOCwibWVtTGFyZ2VDbGFzcyI6M
LXCTDEVICE zg0LCJuYW4iOnRydWV9LCJkZXZpY2UiOnsiYW5kcm9pZElkIjoiNDI4ZjRhZDY3MD
LXCTDEVICE k4YmZhZSIsImJvYXJkIjoic29maWFyIiwiYnVpbGRJZCI6IlJQRVMzMS5RNFUtNDc
LXCTDEVICE tMzUtMTIiLCJjcHVBQkkiOiJhcm02NC12OGEiLCJjcHVBQkkyIjoiIiwiZGV2UXVl
LXCTDEVICE dWVCdWlsZCI6ImYyM2FhZjE0OGU1ZmEwY2MwYTA1MDNlYTgxNjU5N2M5YmM0ODA4M
LXCTDEVICE GQiLCJkZXZpY2VTdHJpbmciOiJtb3Rvcm9sYSBtb3RvIGcoOCkgcG93ZXIgMTEiLC
LXCTDEVICE JkaXNwbGF5Ijp7ImgiOjIxMjEsIm1tIjoxNi41MzU0MzMsInciOjEwODB9LCJmaW5
LXCTDEVICE nZXJwcmludCI6Im1vdG9yb2xhL3NvZmlhcl9yZXRhaWwvc29maWFyOjExL1JQRVMz
LXCTDEVICE MS5RNFUtNDctMzUtMTIvMjRhYWY3OnVzZXIvcmVsZWFzZS1rZXlzIiwiaGFyZHdhc
LXCTDEVICE mUiOiJxY29tIiwibWFudWZhY3R1cmVyIjoibW90b3JvbGEiLCJtb2RlbCI6Im1vdG
LXCTDEVICE 8gZyg4KSBwb3dlciIsInByb2R1Y3QiOiJzb2ZpYXJfcmV0YWlsIiwic2RrIjozMCw
LXCTDEVICE idGltZXpvbmUiOiJBbWVyaWNhL0NoaWNhZ28ifSwieGN0cmFjayI6eyJ2ZXJzaW9u
LXCTDEVICE Q29kZSI6OTEwMzEsInZlcnNpb25OYW1lIjoiMC45LjEwLjMifX0=
B1826511903710N10005425WA000000235737
B1826521903710N10005425WA000000235737
B1826531903710N10005425WA000000235736
B1826541903710N10005425WA000000235835
B1826551903710N10005425WA000000235835
B1826561903710N10005425WA000000235835
B1826571903710N10005425WA000000235834
B1826581903710N10005425WA000000235834
B1826591903710N10005425WA000000235850
B1827001903710N10005424WA000000235968
B1827011903710N10005424WA000000235865
B1827021903710N10005424WA000000235864
B1827031903710N10005424WA000000235865
B1827041903711N10005424WA000000235907
B1827051903710N10005425WA000000235775
B1827061903710N10005426WA000000235751
B1827071903710N10005426WA000000235723
B1827081903709N10005427WA000000235651
B1827091903708N10005428WA000000235766
B1827101903707N10005430WA000000235738
B1827111903704N10005433WA000000235628
B1827121903700N10005436WA000000235608
B1827131903696N10005438WA000000235719
B1827141903689N10005440WA000000235829
B1827151903685N10005441WA000000235726
B1827161903679N10005442WA000000235696
B1827171903674N10005444WA000000235433
B1827181903668N10005445WA000000235280
B1827191903663N10005445WA000000235192
B1827201903658N10005445WA000000235146
B1827211903653N10005445WA000000235067
B1827221903647N10005445WA000000235080
B1827231903642N10005443WA000000235055
B1827241903637N10005442WA000000235004
B1827251903631N10005441WA000000234945
B1827261903625N10005440WA000000235086
B1827271903620N10005440WA000000234920
B1827281903614N10005440WA000000234893
B1827291903610N10005440WA000000234820
B1827301903604N10005438WA000000234837
B1827311903599N10005437WA000000234801
B1827321903592N10005435WA000000234764
B1827331903586N10005435WA000000234652
B1827341903581N10005434WA000000234707
B1827351903575N10005433WA000000234985
B1827361903570N10005432WA000000235145
B1827371903565N10005431WA000000235209
B1827381903558N10005431WA000000235379
B1827391903551N10005433WA000000235290
B1827401903545N10005434WA000000235451
B1827411903540N10005435WA000000235604
B1827421903534N10005437WA000000235892
B1827431903530N10005438WA000000236179
B1827441903526N10005440WA000000236269
B1827451903521N10005442WA000000236375
B1827461903516N10005443WA000000236369
B1827471903511N10005446WA000000236372
B1827481903506N10005448WA000000236481
B1827491903502N10005450WA000000236550
B1827501903498N10005452WA000000236655
B1827511903494N10005454WA000000236600
B1827521903490N10005455WA000000236741
B1827531903486N10005457WA000000236700
B1827541903481N10005458WA000000236678
B1827551903477N10005460WA000000236656
B1827561903473N10005462WA000000236685
B1827571903469N10005464WA000000236694
B1827581903465N10005466WA000000236325
B1827591903459N10005469WA000000236172
B1828001903454N10005472WA000000235945
B1828011903449N10005475WA000000235947
B1828021903444N10005478WA000000235993
B1828031903440N10005481WA000000235964
B1828041903437N10005484WA000000236006
B1828051903433N10005488WA000000236061
B1828061903430N10005491WA000000236048
B1828071903427N10005495WA000000236049
B1828081903425N10005500WA000000236026
B1828091903423N10005505WA000000236116
B1828101903421N10005510WA000000236394
B1828111903421N10005515WA000000236574
B1828121903421N10005520WA000000236601
B1828131903419N10005524WA000000236578
B1828141903417N10005530WA000000236461
B1828151903415N10005534WA000000236422
B1828161903413N10005538WA000000236418
B1828171903411N10005543WA000000236572
B1828181903410N10005548WA000000236790
B1828191903410N10005552WA000000236988
B1828201903410N10005557WA000000236941
B1828211903409N10005561WA000000236944
B1828221903407N10005565WA000000236921
B1828231903402N10005567WA000000236986
B1828241903397N10005568WA000000236661
B1828251903393N10005561WA000000236434
B1828261903390N10005553WA000000236376
B1828271903391N10005546WA000000236350
B1828281903394N10005539WA000000236524
B1828291903399N10005534WA000000236726
B1828301903404N10005531WA000000236813
B1828311903408N10005527WA000000236931
B1828321903413N10005523WA000000237108
B1828331903418N10005520WA000000237039
B1828341903423N10005519WA000000237083
B1828351903429N10005520WA000000237072
B1828361903435N10005523WA000000237055
B1828371903440N10005528WA000000237087
B1828381903444N10005534WA000000237244
B1828391903445N10005540WA000000237306
B1828401903443N10005546WA000000237452
B1828411903440N10005551WA000000236844
B1828421903437N10005555WA000000237006
B1828431903433N10005558WA000000237214
B1828441903428N10005559WA000000237474
B1828451903424N10005558WA000000237585
B1828461903421N10005555WA000000237556
B1828471903418N10005551WA000000237530
B1828481903415N10005545WA000000236595
B1828491903414N10005539WA000000236898
B1828501903415N10005533WA000000236967
B1828511903418N10005527WA000000237113
B1828521903421N10005520WA000000237198
B1828531903426N10005515WA000000237167
B1828541903431N10005511WA000000237280
B1828551903437N10005507WA000000237221
B1828561903442N10005504WA000000237480
B1828571903448N10005501WA000000237655
B1828581903455N10005499WA000000237806
B1828591903461N10005498WA000000238038
B1829001903466N10005501WA000000238150
B1829011903471N10005504WA000000238406
B1829021903474N10005509WA000000238556
B1829031903476N10005515WA000000238548
B1829041903475N10005522WA000000238667
B1829051903473N10005527WA000000238868
B1829061903469N10005531WA000000238934
B1829071903464N10005532WA000000238047
B1829081903459N10005531WA000000238469
B1829091903455N10005528WA000000238873
B1829101903453N10005522WA000000239047
B1829111903452N10005516WA000000239074
B1829121903454N10005510WA000000239263
B1829131903458N10005505WA000000239311
B1829141903463N10005502WA000000239530
B1829151903469N10005501WA000000239740
B1829161903475N10005502WA000000239893
B1829171903481N10005506WA000000239975
B1829181903485N10005512WA000000239983
B1829191903487N10005519WA000000240181
B1829201903487N10005525WA000000240332
B1829211903484N10005528WA000000240439
B1829221903480N10005530WA000000240362
B1829231903476N10005530WA000000240465
B1829241903473N10005529WA000000240504
B1829251903468N10005526WA000000240474
B1829261903466N10005521WA000000240228
B1829271903465N10005515WA000000240037
B1829281903466N10005508WA000000239938
B1829291903469N10005502WA000000240036
B1829301903473N10005497WA000000240383
B1829311903478N10005492WA000000240479
B1829321903485N10005493WA000000240577
B1829331903492N10005495WA000000240631
B1829341903497N10005498WA000000240758
B1829351903500N10005504WA000000240893
B1829361903501N10005510WA000000240839
B1829371903499N10005517WA000000240710
B1829381903494N10005520WA000000240678
B1829391903489N10005522WA000000240831
B1829401903484N10005520WA000000240939
B1829411903479N10005516WA000000240998
B1829421903477N10005511WA000000240821
B1829431903476N10005504WA000000240829
B1829441903475N10005498WA000000240879
B1829451903475N10005492WA000000241096
B1829461903477N10005486WA000000241159
B1829471903480N10005481WA000000241203
B1829481903483N10005475WA000000241346
B1829491903487N10005470WA000000241497
B1829501903492N10005466WA000000241537
B1829511903497N10005464WA000000241724
B1829521903502N10005464WA000000241842
B1829531903507N10005465WA000000241799
B1829541903514N10005468WA000000241722
B1829551903519N10005471WA000000241865
B1829561903523N10005475WA000000241878
B1829571903526N10005481WA000000241864
B1829581903528N10005486WA000000241859
B1829591903529N10005492WA000000241886
B1830001903530N10005497WA000000242026
B1830011903528N10005501WA000000242188
B1830021903526N10005504WA000000242219
B1830031903522N10005506WA000000242217
B1830041903517N10005507WA000000242383
B1830051903513N10005506WA000000242235
B1830061903508N10005503WA000000242166
B1830071903504N10005499WA000000242199
B1830081903502N10005494WA000000242021
B1830091903499N10005486WA000000242069
B1830101903499N10005479WA000000242048
B1830111903501N10005472WA000000242228
B1830121903505N10005466WA000000242519
B1830131903510N10005462WA000000242574
B1830141903517N10005459WA000000242612
B1830151903523N10005457WA000000242791
B1830161903530N10005456WA000000242969
B1830171903536N10005458WA000000242988
B1830181903541N10005463WA000000242973
B1830191903544N10005469WA000000242837
B1830201903544N10005476WA000000242604
B1830211903541N10005481WA000000242779
B1830221903538N10005486WA000000242921
B1830231903534N10005488WA000000243253
B1830241903530N10005488WA000000243423
B1830251903526N10005487WA000000243416
B1830261903521N10005484WA000000243222
B1830271903517N10005478WA000000243038
B1830281903515N10005471WA000000243059
B1830291903515N10005464WA000000243135
B1830301903520N10005456WA000000243108
B1830311903525N10005450WA000000243324
B1830321903531N10005445WA000000243534
B1830331903537N10005443WA000000243860
B1830341903543N10005442WA000000243988
B1830351903549N10005445WA000000244061
B1830361903554N10005448WA000000244048
B1830371903557N10005454WA000000244072
B1830381903558N10005460WA000000244190
B1830391903558N10005466WA000000241530
B1830401903556N10005471WA000000242466
B1830411903554N10005476WA000000243001
B1830421903551N10005479WA000000243547
B1830431903547N10005481WA000000243732
B1830441903542N10005480WA000000243829
B1830451903536N10005478WA000000243781
B1830461903533N10005472WA000000243608
B1830471903530N10005465WA000000243625
B1830481903529N10005457WA000000243663
B1830491903531N10005449WA000000241585
B1830501903535N10005442WA000000241285
B1830511903540N10005436WA000000242429
B1830521903545N10005432WA000000243345
B1830531903551N10005428WA000000243827
B1830541903557N10005426WA000000244088
B1830551903564N10005426WA000000244387
B1830561903571N10005428WA000000244412
B1830571903576N10005431WA000000244641
B1830581903580N10005435WA000000244618
B1830591903582N10005441WA000000244676
B1831001903583N10005448WA000000244582
B1831011903583N10005454WA000000244533
B1831021903581N10005460WA000000244563
B1831031903578N10005465WA000000244688
B1831041903576N10005470WA000000244707
B1831051903572N10005474WA000000244881
B1831061903569N10005477WA000000244882
B1831071903566N10005480WA000000244899
B1831081903563N10005485WA000000244640
B1831091903560N10005490WA000000244514
B1831101903556N10005496WA000000244464
B1831111903554N10005503WA000000244102
B1831121903551N10005510WA000000244070
B1831131903550N10005516WA000000243947
B1831141903549N10005523WA000000243930
B1831151903548N10005528WA000000243918
B1831161903546N10005535WA000000243960
B1831171903545N10005541WA000000244020
B1831181903543N10005546WA000000244299
B1831191903542N10005552WA000000244452
B1831201903541N10005557WA000000244513
B1831211903540N10005563WA000000244510
B1831221903538N10005568WA000000244559
B1831231903536N10005575WA000000244548
B1831241903533N10005582WA000000244570
B1831251903531N10005587WA000000244723
B1831261903529N10005592WA000000245000
B1831271903527N10005595WA000000245379
B1831281903526N10005600WA000000245573
B1831291903525N10005604WA000000245699
B1831301903523N10005610WA000000245595
B1831311903521N10005615WA000000245682
B1831321903518N10005618WA000000245757
B1831331903514N10005619WA000000245947
B1831341903509N10005619WA000000245977
B1831351903505N10005613WA000000245846
B1831361903502N10005607WA000000245893
B1831371903501N10005600WA000000245954
B1831381903503N10005592WA000000246008
B1831391903506N10005585WA000000246223
B1831401903510N10005578WA000000246647
B1831411903515N10005574WA000000247020
B1831421903520N10005570WA000000241351
B1831431903526N10005567WA000000243398
B1831441903533N10005567WA000000244594
B1831451903541N10005569WA000000245302
B1831461903546N10005573WA000000245962
B1831471903550N10005578WA000000246372
B1831481903552N10005583WA000000246602
B1831491903551N10005587WA000000246955
B1831501903549N10005591WA000000247130
B1831511903546N10005593WA000000247321
B1831521903542N10005593WA000000247417
B1831531903537N10005592WA000000247532
B1831541903533N10005588WA000000247718
B1831551903530N10005584WA000000247940
B1831561903528N10005578WA000000248107
B1831571903526N10005572WA000000248458
B1831581903526N10005566WA000000248603
B1831591903527N10005559WA000000248839
B1832001903530N10005552WA000000249067
B1832011903536N10005547WA000000249120
B1832021903544N10005543WA000000249207
B1832031903552N10005543WA000000249209
B1832041903558N10005546WA000000249395
B1832051903564N10005550WA000000249519
B1832061903567N10005555WA000000249687
B1832071903570N10005561WA000000249814
B1832081903571N10005567WA000000249922
B1832091903571N10005572WA000000250187
B1832101903571N10005577WA000000250276
B1832111903569N10005581WA000000250384
B1832121903566N10005584WA000000250342
B1832131903561N10005586WA000000250190
B1832141903557N10005586WA000000250016
B1832151903551N10005586WA000000250160
B1832161903547N10005583WA000000243424
B1832171903543N10005579WA000000246110
B1832181903540N10005573WA000000247733
B1832191903538N10005567WA000000242411
B1832201903537N10005560WA000000245771
B1832211903539N10005552WA000000247359
B1832221903543N10005545WA000000248259
B1832231903548N10005539WA000000249178
B1832241903555N10005535WA000000249603
B1832251903561N10005532WA000000250482
B1832261903568N10005531WA000000250883
B1832271903575N10005532WA000000251135
B1832281903581N10005535WA000000251389
B1832291903587N10005541WA000000251421
B1832301903591N10005547WA000000251650
B1832311903593N10005552WA000000251940
B1832321903594N10005556WA000000247606
B1832331903593N10005560WA000000249555
B1832341903590N10005563WA000000250178
B1832351903586N10005565WA000000250766
B1832361903581N10005567WA000000251190
B1832371903577N10005567WA000000251528
B1832381903572N10005567WA000000251816
B1832391903568N10005564WA000000247944
B1832401903565N10005559WA000000249515
B1832411903564N10005552WA000000250349
B1832421903565N10005545WA000000243781
B1832431903568N10005537WA000000246513
B1832441903577N10005532WA000000248094
B1832451903585N10005527WA000000249484
B1832461903593N10005529WA000000250064
B1832471903599N10005531WA000000250975
B1832481903604N10005535WA000000251545
B1832491903606N10005540WA000000251985
B1832501903609N10005546WA000000252205
B1832511903609N10005551WA000000252567
B1832521903609N10005557WA000000252741
B1832531903606N10005561WA000000252864
B1832541903603N10005565WA000000252992
B1832551903600N10005567WA000000253137
B1832561903595N10005569WA000000253158
B1832571903591N10005570WA000000253308
B1832581903586N10005570WA000000253458
B1832591903582N10005570WA000000253545
B1833001903578N10005569WA000000247140
B1833011903575N10005565WA000000248919
B1833021903571N10005561WA000000250149
B1833031903568N10005556WA000000250738
B1833041903568N10005549WA000000251149
B1833051903579N10005538WA000000251360
B1833061903586N10005532WA000000251758
B1833071903594N10005529WA000000252364
B1833081903601N10005529WA000000252932
B1833091903608N10005530WA000000253361
B1833101903615N10005531WA000000253658
B1833111903620N10005535WA000000253852
B1833121903624N10005539WA000000253947
B1833131903626N10005545WA000000253989
B1833141903626N10005552WA000000253889
B1833151903626N10005559WA000000253807
B1833161903624N10005565WA000000253941
B1833171903622N10005569WA000000254076
B1833181903621N10005573WA000000254214
B1833191903619N10005577WA000000254240
B1833201903616N10005580WA000000254295
B1833211903614N10005583WA000000254116
B1833221903610N10005586WA000000253915
B1833231903605N10005589WA000000253840
B1833241903600N10005589WA000000253831
B1833251903596N10005587WA000000253800
B1833261903592N10005582WA000000253828
B1833271903589N10005577WA000000253851
B1833281903588N10005571WA000000253845
B1833291903588N10005565WA000000253927
B1833301903588N10005559WA000000254069
B1833311903589N10005554WA000000254111
B1833321903590N10005548WA000000254100
B1833331903591N10005541WA000000254126
B1833341903592N10005535WA000000254022
B1833351903593N10005528WA000000254044
B1833361903594N10005521WA000000254044
B1833371903595N10005514WA000000253933
B1833381903595N10005506WA000000253998
B1833391903596N10005498WA000000253889
B1833401903597N10005491WA000000253763
B1833411903598N10005483WA000000253765
B1833421903599N10005476WA000000253870
B1833431903601N10005468WA000000253855
B1833441903603N10005461WA000000253863
B1833451903605N10005453WA000000253999
B1833461903607N10005447WA000000254179
B1833471903610N10005442WA000000254253
B1833481903613N10005437WA000000254381
B1833491903618N10005433WA000000254330
B1833501903624N10005430WA000000254255
B1833511903632N10005430WA000000253815
B1833521903639N10005434WA000000253503
B1833531903643N10005441WA000000253301
B1833541903644N10005448WA000000253239
B1833551903643N10005455WA000000253213
B1833561903641N10005460WA000000253451
B1833571903640N10005463WA000000253809
B1833581903639N10005466WA000000254007
B1833591903637N10005469WA000000254146
B1834001903635N10005473WA000000254080
B1834011903634N10005477WA000000253944
B1834021903633N10005481WA000000253606
B1834031903631N10005486WA000000253416
B1834041903628N10005491WA000000253215
B1834051903625N10005496WA000000253101
B1834061903621N10005500WA000000253153
B1834071903618N10005503WA000000253216
B1834081903614N10005506WA000000253376
B1834091903612N10005509WA000000253406
B1834101903608N10005512WA000000253597
B1834111903606N10005515WA000000253525
B1834121903603N10005518WA000000249222
B1834131903599N10005520WA000000250667
B1834141903596N10005523WA000000251553
B1834151903593N10005525WA000000252057
B1834161903590N10005528WA000000252562
B1834171903586N10005530WA000000252642
B1834181903582N10005531WA000000252916
B1834191903576N10005532WA000000252857
B1834201903570N10005534WA000000253050
B1834211903563N10005535WA000000253096
B1834221903558N10005537WA000000253111
B1834231903552N10005538WA000000253387
B1834241903547N10005540WA000000253546
B1834251903542N10005543WA000000253752
B1834261903537N10005546WA000000253882
B1834271903532N10005549WA000000253970
B1834281903527N10005552WA000000253902
B1834291903521N10005555WA000000254087
B1834301903516N10005559WA000000254171
B1834311903511N10005561WA000000254107
B1834321903506N10005564WA000000254265
B1834331903501N10005567WA000000254359
B1834341903496N10005571WA000000254364
B1834351903492N10005574WA000000254314
B1834361903487N10005577WA000000254341
B1834371903481N10005579WA000000254356
B1834381903475N10005582WA000000254340
B1834391903469N10005583WA000000254589
B1834401903464N10005585WA000000254772
B1834411903460N10005585WA000000255017
B1834421903455N10005584WA000000255238
B1834431903450N10005581WA000000255227
B1834441903445N10005577WA000000254645
B1834451903442N10005571WA000000254841
B1834461903440N10005564WA000000254946
B1834471903442N10005556WA000000255086
B1834481903445N10005550WA000000255290
B1834491903450N10005544WA000000255479
B1834501903456N10005541WA000000255640
B1834511903462N10005538WA000000255848
B1834521903468N10005538WA000000247291
B1834531903475N10005539WA000000250161
B1834541903481N10005542WA000000251873
B1834551903487N10005546WA000000253429
B1834561903491N10005552WA000000254014
B1834571903493N10005558WA000000254573
B1834581903494N10005564WA000000255087
B1834591903494N10005570WA000000255255
B1835001903493N10005576WA000000255234
B1835011903490N10005581WA000000255322
B1835021903485N10005585WA000000255594
B1835031903480N10005588WA000000255650
B1835041903474N10005589WA000000255506
B1835051903466N10005589WA000000255571
B1835061903459N10005587WA000000255598
B1835071903454N10005585WA000000255716
B1835081903449N10005581WA000000255848
B1835091903445N10005578WA000000255800
B1835101903441N10005573WA000000255916
B1835111903437N10005567WA000000255852
B1835121903434N10005561WA000000256044
B1835131903432N10005555WA000000256311
B1835141903430N10005549WA000000256418
B1835151903428N10005544WA000000256677
B1835161903428N10005538WA000000256798
B1835171903430N10005532WA000000256850
B1835181903434N10005525WA000000256909
B1835191903438N10005521WA000000257170
B1835201903444N10005517WA000000257179
B1835211903450N10005516WA000000257369
B1835221903456N10005518WA000000257480
B1835231903462N10005521WA000000257520
B1835241903466N10005525WA000000257526
B1835251903468N10005531WA000000257772
B1835261903469N10005536WA000000257845
B1835271903468N10005541WA000000257974
B1835281903467N10005546WA000000257901
B1835291903464N10005550WA000000258084
B1835301903461N10005554WA000000258175
B1835311903458N10005558WA000000258102
B1835321903453N10005560WA000000258133
B1835331903447N10005561WA000000258151
B1835341903441N10005560WA000000258143
B1835351903436N10005557WA000000258015
B1835361903431N10005553WA000000258078
B1835371903427N10005549WA000000258067
B1835381903423N10005545WA000000258175
B1835391903420N10005540WA000000258248
B1835401903417N10005535WA000000258365
B1835411903415N10005529WA000000258332
B1835421903414N10005522WA000000258335
B1835431903415N10005515WA000000258477
B1835441903418N10005509WA000000258457
B1835451903422N10005504WA000000258513
B1835461903427N10005500WA000000258555
B1835471903433N10005497WA000000258709
B1835481903438N10005496WA000000258707
B1835491903442N10005496WA000000258764
B1835501903447N10005495WA000000258824
B1835511903452N10005494WA000000258823
B1835521903457N10005493WA000000258962
B1835531903463N10005493WA000000258931
B1835541903469N10005493WA000000259008
B1835551903474N10005495WA000000259138
B1835561903479N10005499WA000000259116
B1835571903482N10005505WA000000259112
B1835581903483N10005512WA000000258991
B1835591903482N10005518WA000000258989
B1836001903480N10005524WA000000259036
B1836011903477N10005528WA000000259239
B1836021903474N10005532WA000000259423
B1836031903471N10005534WA000000259607
B1836041903466N10005536WA000000259625
B1836051903460N10005537WA000000259613
B1836061903453N10005536WA000000259595
B1836071903448N10005532WA000000259665
B1836081903445N10005525WA000000259728
B1836091903444N10005517WA000000259678
B1836101903445N10005510WA000000259664
B1836111903451N10005503WA000000259713
B1836121903456N10005498WA000000259901
B1836131903462N10005494WA000000260026
B1836141903468N10005492WA000000260263
B1836151903475N10005492WA000000260420
B1836161903480N10005493WA000000260687
B1836171903486N10005496WA000000260727
B1836181903490N10005501WA000000260784
B1836191903494N10005506WA000000260879
B1836201903497N10005513WA000000260930
B1836211903498N10005519WA000000261095
B1836221903498N10005525WA000000261268
B1836231903497N10005532WA000000261263
B1836241903495N10005538WA000000261486
B1836251903492N10005543WA000000261557
B1836261903487N10005548WA000000261583
B1836271903482N10005551WA000000261502
B1836281903474N10005552WA000000261494
B1836291903468N10005551WA000000261326
B1836301903462N10005548WA000000254965
B1836311903457N10005543WA000000256596
B1836321903455N10005537WA000000257855
B1836331903454N10005530WA000000252042
B1836341903454N10005523WA000000255572
B1836351903456N10005517WA000000257910
B1836361903459N10005510WA000000258829
B1836371903463N10005505WA000000259438
B1836381903468N10005501WA000000259879
B1836391903474N10005499WA000000260260
B1836401903480N10005496WA000000260677
B1836411903486N10005494WA000000260817
B1836421903490N10005494WA000000261090
B1836431903496N10005494WA000000261020
B1836441903501N10005495WA000000261147
B1836451903507N10005499WA000000260921
B1836461903512N10005504WA000000260993
B1836471903518N10005509WA000000261027
B1836481903522N10005515WA000000261231
B1836491903526N10005520WA000000261401
B1836501903529N10005525WA000000261642
B1836511903532N10005530WA000000261739
B1836521903534N10005537WA000000261725
B1836531903533N10005544WA000000261665
B1836541903531N10005550WA000000261407
B1836551903524N10005554WA000000261355
B1836561903518N10005555WA000000261348
B1836571903512N10005555WA000000261532
B1836581903507N10005553WA000000261843
B1836591903503N10005550WA000000261926
B1837001903499N10005547WA000000261883
B1837011903496N10005543WA000000261567
B1837021903494N10005537WA000000261314
B1837031903495N10005529WA000000261113
B1837041903497N10005521WA000000260831
B1837051903501N10005514WA000000260580
B1837061903507N10005508WA000000260635
B1837071903512N10005504WA000000260996
B1837081903517N10005503WA000000261291
B1837091903523N10005503WA000000261400
B1837101903528N10005503WA000000261441
B1837111903534N10005503WA000000261439
B1837121903540N10005505WA000000261574
B1837131903546N10005507WA000000261597
B1837141903552N10005510WA000000261619
B1837151903556N10005514WA000000261574
B1837161903560N10005519WA000000261473
B1837171903563N10005524WA000000261336
B1837181903564N10005530WA000000261199
B1837191903564N10005537WA000000261043
B1837201903562N10005543WA000000261040
B1837211903559N10005547WA000000261175
B1837221903555N10005551WA000000261393
B1837231903552N10005554WA000000250932
B1837241903547N10005556WA000000254623
B1837251903541N10005557WA000000256762
B1837261903536N10005556WA000000258326
B1837271903531N10005553WA000000259119
B1837281903526N10005550WA000000254021
B1837291903522N10005544WA000000256389
B1837301903520N10005539WA000000257140
B1837311903520N10005532WA000000258417
B1837321903521N10005526WA000000259179
B1837331903524N10005521WA000000259837
B1837341903527N10005516WA000000260298
B1837351903532N10005513WA000000260541
B1837361903538N10005510WA000000260741
B1837371903545N10005509WA000000260828
B1837381903551N10005512WA000000260755
B1837391903556N10005516WA000000260878
B1837401903560N10005522WA000000260936
B1837411903562N10005528WA000000261042
B1837421903563N10005533WA000000261108
B1837431903562N10005540WA000000261072
B1837441903560N10005545WA000000260978
B1837451903557N10005550WA000000260838
B1837461903552N10005554WA000000251178
B1837471903547N10005556WA000000254909
B1837481903541N10005557WA000000256703
B1837491903535N10005555WA000000257728
B1837501903529N10005551WA000000258298
B1837511903525N10005546WA000000258569
B1837521903524N10005539WA000000258616
B1837531903523N10005532WA000000259029
B1837541903523N10005526WA000000252238
B1837551903523N10005520WA000000254938
B1837561903523N10005514WA000000256729
B1837571903523N10005508WA000000257831
B1837581903523N10005501WA000000258563
B1837591903524N10005493WA000000259007
B1838001903524N10005486WA000000259180
B1838011903525N10005478WA000000259262
B1838021903526N10005470WA000000259260
B1838031903527N10005461WA000000259449
B1838041903528N10005454WA000000259622
B1838051903528N10005447WA000000259852
B1838061903529N10005440WA000000260326
B1838071903529N10005434WA000000260565
B1838081903529N10005428WA000000260851
B1838091903529N10005422WA000000260812
B1838101903528N10005416WA000000260909
B1838111903527N10005410WA000000260818
B1838121903526N10005403WA000000260747
B1838131903526N10005395WA000000260455
B1838141903526N10005387WA000000260150
B1838151903526N10005378WA000000260076
B1838161903526N10005370WA000000260051
B1838171903526N10005362WA000000260078
B1838181903527N10005355WA000000260232
B1838191903528N10005348WA000000260342
B1838201903529N10005341WA000000260458
B1838211903530N10005335WA000000260562
B1838221903532N10005329WA000000260584
B1838231903536N10005324WA000000260515
B1838241903541N10005321WA000000260661
B1838251903548N10005320WA000000260491
B1838261903556N10005322WA000000260322
B1838271903561N10005326WA000000260359
B1838281903564N10005333WA000000260414
B1838291903563N10005340WA000000260442
B1838301903559N10005345WA000000260432
B1838311903553N10005348WA000000260295
B1838321903547N10005349WA000000260156
B1838331903541N10005348WA000000252764
B1838341903535N10005345WA000000254968
B1838351903532N10005338WA000000255945
B1838361903529N10005333WA000000256872
B1838371903530N10005324WA000000257039
B1838381903531N10005317WA000000257770
B1838391903534N10005311WA000000258000
B1838401903537N10005306WA000000258690
B1838411903542N10005302WA000000258902
B1838421903547N10005299WA000000259266
B1838431903553N10005297WA000000259355
B1838441903560N10005296WA000000259327
B1838451903565N10005298WA000000259582
B1838461903571N10005301WA000000259622
B1838471903574N10005306WA000000259583
B1838481903576N10005313WA000000259401
B1838491903575N10005319WA000000259433
B1838501903573N10005325WA000000259302
B1838511903570N10005330WA000000259369
B1838521903567N10005336WA000000259231
B1838531903563N10005341WA000000252163
B1838541903560N10005346WA000000254502
B1838551903555N10005351WA000000255997
B1838561903551N10005356WA000000256597
B1838571903547N10005362WA000000256690
B1838581903544N10005367WA000000257022
B1838591903541N10005372WA000000257218
B1839001903539N10005378WA000000257249
B1839011903538N10005385WA000000257341
B1839021903537N10005391WA000000257353
B1839031903536N10005397WA000000257418
B1839041903534N10005403WA000000257425
B1839051903532N10005409WA000000257506
B1839061903529N10005415WA000000257663
B1839071903527N10005420WA000000257514
B1839081903524N10005426WA000000257562
B1839091903521N10005432WA000000257532
B1839101903518N10005437WA000000257715
B1839111903515N10005442WA000000257942
B1839121903512N10005446WA000000258067
B1839131903509N10005450WA000000258078
B1839141903506N10005454WA000000258037
B1839151903502N10005458WA000000257911
B1839161903498N10005459WA000000257809
B1839171903492N10005458WA000000257746
B1839181903487N10005455WA000000257561
B1839191903483N10005449WA000000257274
B1839201903480N10005442WA000000257077
B1839211903478N10005435WA000000256831
B1839221903476N10005427WA000000256889
B1839231903476N10005420WA000000247069
B1839241903477N10005414WA000000250010
B1839251903478N10005406WA000000252529
B1839261903481N10005400WA000000253730
B1839271903485N10005393WA000000254249
B1839281903490N10005388WA000000254622
B1839291903495N10005383WA000000254857
B1839301903501N10005380WA000000255136
B1839311903506N10005378WA000000255397
B1839321903512N10005378WA000000255591
B1839331903518N10005378WA000000255717
B1839341903522N10005381WA000000255752
B1839351903526N10005385WA000000255629
B1839361903527N10005392WA000000255588
B1839371903527N10005400WA000000255588
B1839381903526N10005407WA000000255545
B1839391903524N10005413WA000000255662
B1839401903521N10005417WA000000255897
B1839411903518N10005421WA000000256174
B1839421903515N10005423WA000000249578
B1839431903511N10005424WA000000251907
B1839441903505N10005424WA000000252852
B1839451903500N10005420WA000000253759
B1839461903496N10005415WA000000254050
B1839471903494N10005407WA000000254228
B1839481903494N10005399WA000000254469
B1839491903497N10005392WA000000247584
B1839501903501N10005385WA000000250187
B1839511903507N10005381WA000000251277
B1839521903516N10005384WA000000251869
B1839531903522N10005386WA000000252725
B1839541903527N10005389WA000000253554
B1839551903532N10005392WA000000254164
B1839561903537N10005395WA000000254343
B1839571903542N10005398WA000000254524
B1839581903547N10005401WA000000254645
B1839591903552N10005404WA000000254737
B1840001903556N10005408WA000000254993
B1840011903562N10005412WA000000254921
B1840021903567N10005415WA000000254900
B1840031903572N10005418WA000000254751
B1840041903578N10005421WA000000254725
B1840051903583N10005423WA000000254687
B1840061903589N10005426WA000000254740
B1840071903594N10005428WA000000254872
B1840081903600N10005430WA000000254745
B1840091903606N10005433WA000000254530
B1840101903612N10005436WA000000254580
B1840111903619N10005439WA000000254552
B1840121903626N10005442WA000000254513
B1840131903632N10005445WA000000254733
B1840141903638N10005448WA000000255054
B1840151903644N10005451WA000000255158
B1840161903650N10005454WA000000255266
B1840171903656N10005456WA000000255209
B1840181903661N10005459WA000000255366
B1840191903667N10005461WA000000255407
B1840201903672N10005464WA000000255450
B1840211903677N10005467WA000000255272
B1840221903682N10005472WA000000255131
B1840231903685N10005478WA000000254841
B1840241903687N10005485WA000000254671
B1840251903689N10005492WA000000254451
B1840261903691N10005498WA000000254316
B1840271903691N10005504WA000000254229
B1840281903691N10005510WA000000254149
B1840291903691N10005517WA000000254072
B1840301903692N10005522WA000000254046
B1840311903693N10005527WA000000254087
B1840321903694N10005532WA000000253978
B1840331903695N10005538WA000000253940
B1840341903695N10005543WA000000253857
B1840351903695N10005550WA000000253752
B1840361903696N10005556WA000000253717
B1840371903697N10005562WA000000253848
B1840381903699N10005568WA000000253726
B1840391903701N10005574WA000000253617
B1840401903703N10005581WA000000253446
B1840411903705N10005589WA000000253171
B1840421903708N10005597WA000000252900
B1840431903710N10005605WA000000252823
B1840441903712N10005612WA000000252731
B1840451903714N10005618WA000000252773
B1840461903716N10005624WA000000252888
B1840471903719N10005631WA000000252712
B1840481903722N10005638WA000000252403
B1840491903725N10005645WA000000252133
B1840501903728N10005652WA000000251925
B1840511903731N10005659WA000000251756
B1840521903735N10005666WA000000251636
B1840531903738N10005672WA000000251769
B1840541903741N10005678WA000000251787
B1840551903744N10005684WA000000251686
B1840561903748N10005690WA000000251538
B1840571903751N10005696WA000000251468
B1840581903755N10005703WA000000251200
B1840591903758N10005709WA000000251155
B1841001903762N10005716WA000000250910
B1841011903765N10005722WA000000250893
B1841021903769N10005728WA000000250765
B1841031903773N10005735WA000000250601
B1841041903776N10005742WA000000250440
B1841051903779N10005748WA000000250289
B1841061903783N10005755WA000000250046
B1841071903787N10005762WA000000249903
B1841081903790N10005768WA000000249758
B1841091903793N10005775WA000000249666
B1841101903796N10005782WA000000249672
B1841111903800N10005788WA000000242926
B1841121903803N10005794WA000000245159
B1841131903806N10005800WA000000242388
B1841141903810N10005806WA000000244828
B1841151903813N10005812WA000000246376
B1841161903817N10005818WA000000247226
B1841171903820N10005824WA000000247746
B1841181903823N10005831WA000000247970
B1841191903827N10005837WA000000248003
B1841201903829N10005843WA000000248273
B1841211903832N10005849WA000000248283
B1841221903835N10005855WA000000248273
B1841231903838N10005861WA000000248292
B1841241903841N10005867WA000000248271
B1841251903844N10005873WA000000248260
B1841261903847N10005878WA000000248089
B1841271903850N10005884WA000000248177
B1841281903853N10005890WA000000248179
B1841291903856N10005896WA000000248097
B1841301903860N10005902WA000000247809
B1841311903863N10005909WA000000247600
B1841321903866N10005915WA000000247433
B1841331903869N10005921WA000000247345
B1841341903872N10005927WA000000247277
B1841351903875N10005933WA000000247195
B1841361903879N10005939WA000000247101
B1841371903882N10005945WA000000247010
B1841381903885N10005950WA000000246806
B1841391903888N10005955WA000000246708
B1841401903891N10005962WA000000246532
B1841411903894N10005968WA000000246403
B1841421903896N10005975WA000000246290
B1841431903899N10005981WA000000246190
B1841441903902N10005987WA000000246064
B1841451903905N10005993WA000000246007
B1841461903907N10005999WA000000245955
B1841471903910N10006005WA000000245954
B1841481903913N10006011WA000000245845
B1841491903916N10006017WA000000245624
B1841501903918N10006023WA000000245581
B1841511903921N10006028WA000000245488
B1841521903924N10006034WA000000245378
B1841531903927N10006040WA000000245228
B1841541903929N10006046WA000000245187
B1841551903932N10006052WA000000245014
B1841561903934N10006058WA000000244942
B1841571903936N10006064WA000000244881
B1841581903938N10006069WA000000244865
B1841591903940N10006075WA000000244711
B1842001903941N10006081WA000000242172
B1842011903943N10006087WA000000242740
B1842021903945N10006093WA000000243030
B1842031903946N10006098WA000000243399
B1842041903949N10006105WA000000243502
B1842051903950N10006111WA000000243434
B1842061903951N10006118WA000000243472
B1842071903953N10006125WA000000243322
B1842081903954N10006132WA000000243260
B1842091903955N10006138WA000000243297
B1842101903957N10006145WA000000243232
B1842111903958N10006152WA000000243042
B1842121903959N10006159WA000000242900
B1842131903960N10006165WA000000242708
B1842141903961N10006172WA000000242616
B1842151903961N10006180WA000000242560
B1842161903960N10006187WA000000242564
B1842171903958N10006194WA000000242483
B1842181903956N10006201WA000000242430
B1842191903953N10006207WA000000242310
B1842201903949N10006212WA000000242372
B1842211903945N10006217WA000000242256
B1842221903940N10006222WA000000242137
B1842231903935N10006227WA000000242035
B1842241903930N10006232WA000000241920
B1842251903925N10006236WA000000241912
B1842261903920N10006240WA000000241925
B1842271903915N10006244WA000000241948
B1842281903910N10006249WA000000241865
B1842291903905N10006253WA000000241669
B1842301903900N10006258WA000000241465
B1842311903895N10006263WA000000241343
B1842321903890N10006267WA000000241229
B1842331903885N10006272WA000000241137
B1842341903880N10006277WA000000241035
B1842351903876N10006281WA000000241049
B1842361903872N10006286WA000000240915
B1842371903868N10006291WA000000240916
B1842381903863N10006296WA000000240894
B1842391903859N10006300WA000000240889
B1842401903855N10006305WA000000240871
B1842411903851N10006309WA000000240962
B1842421903847N10006313WA000000240847
B1842431903843N10006318WA000000240648
B1842441903838N10006323WA000000240377
B1842451903833N10006328WA000000240151
B1842461903827N10006332WA000000239897
B1842471903822N10006338WA000000239400
B1842481903816N10006343WA000000239108
B1842491903810N10006349WA000000238938
B1842501903804N10006355WA000000238833
B1842511903799N10006360WA000000238805
B1842521903793N10006364WA000000238749
B1842531903787N10006369WA000000238675
B1842541903782N10006374WA000000238527
B1842551903776N10006379WA000000238396
B1842561903771N10006384WA000000238247
B1842571903765N10006389WA000000238187
B1842581903761N10006394WA000000238103
B1842591903757N10006398WA000000238214
B1843001903752N10006402WA000000238262
B1843011903748N10006405WA000000238156
B1843021903743N10006409WA000000238095
B1843031903738N10006413WA000000237883
B1843041903733N10006417WA000000237682
B1843051903728N10006421WA000000237435
B1843061903723N10006425WA000000237339
B1843071903718N10006430WA000000237343
B1843081903713N10006434WA000000237302
B1843091903708N10006438WA000000237323
B1843101903703N10006442WA000000237301
B1843111903698N10006446WA000000237205
B1843121903693N10006451WA000000237105
B1843131903688N10006455WA000000237009
B1843141903683N10006459WA000000236909
B1843151903678N10006463WA000000237026
B1843161903674N10006466WA000000237199
B1843171903671N10006470WA000000237033
B1843181903668N10006473WA000000237009
B1843191903664N10006477WA000000236857
B1843201903660N10006482WA000000236512
B1843211903655N10006487WA000000236122
B1843221903649N10006492WA000000235686
B1843231903643N10006498WA000000235184
B1843241903637N10006503WA000000234859
B1843251903631N10006508WA000000234777
B1843261903626N10006513WA000000234616
B1843271903620N10006518WA000000234670
B1843281903615N10006522WA000000234542
B1843291903610N10006526WA000000234424
B1843301903604N10006531WA000000234480
B1843311903599N10006535WA000000234497
B1843321903596N10006540WA000000234638
B1843331903592N10006545WA000000234863
B1843341903590N10006549WA000000235234
B1843351903587N10006553WA000000235480
B1843361903585N10006556WA000000235632
B1843371903582N10006559WA000000235757
B1843381903579N10006563WA000000235845
B1843391903576N10006567WA000000235848
B1843401903573N10006572WA000000236012
B1843411903571N10006577WA000000236100
B1843421903568N10006582WA000000236252
B1843431903566N10006586WA000000236379
B1843441903565N10006591WA000000236318
B1843451903564N10006596WA000000236431
B1843461903562N10006601WA000000236324
B1843471903560N10006606WA000000236239
B1843481903557N10006611WA000000236228
B1843491903554N10006616WA000000236205
B1843501903551N10006621WA000000236431
B1843511903548N10006625WA000000236535
B1843521903545N10006628WA000000236727
B1843531903542N10006632WA000000236825
B1843541903539N10006635WA000000236949
B1843551903537N10006639WA000000237030
B1843561903534N10006642WA000000236936
B1843571903531N10006646WA000000236665
B1843581903527N10006649WA000000236385
B1843591903523N10006653WA000000235959
B1844001903518N10006659WA000000235493
B1844011903513N10006665WA000000235090
B1844021903509N10006670WA000000234896
B1844031903505N10006676WA000000234679
B1844041903501N10006682WA000000234396
B1844051903497N10006688WA000000234085
B1844061903493N10006694WA000000233771
B1844071903489N10006699WA000000233496
B1844081903485N10006705WA000000233069
B1844091903482N10006712WA000000232781
B1844101903479N10006718WA000000232484
B1844111903477N10006724WA000000232165
B1844121903476N10006731WA000000231801
B1844131903473N10006738WA000000231482
B1844141903472N10006745WA000000231067
B1844151903471N10006753WA000000230575
B1844161903471N10006762WA000000230062
B1844171903472N10006771WA000000229731
B1844181903474N10006779WA000000229533
B1844191903476N10006786WA000000229591
B1844201903479N10006792WA000000229664
B1844211903482N10006797WA000000229748
B1844221903484N10006803WA000000229831
B1844231903486N10006807WA000000230015
B1844241903487N10006811WA000000230057
B1844251903489N10006816WA000000230035
B1844261903491N10006821WA000000230042
B1844271903494N10006826WA000000229802
B1844281903496N10006831WA000000229880
B1844291903498N10006836WA000000229770
B1844301903500N10006840WA000000229698
B1844311903503N10006845WA000000229607
B1844321903504N10006851WA000000229414
B1844331903504N10006857WA000000229542
B1844341903505N10006862WA000000229629
B1844351903505N10006867WA000000229747
B1844361903505N10006873WA000000229892
B1844371903506N10006877WA000000229848
B1844381903506N10006882WA000000229756
B1844391903506N10006887WA000000229885
B1844401903507N10006892WA000000229811
B1844411903506N10006896WA000000229788
B1844421903507N10006901WA000000229704
B1844431903507N10006906WA000000229747
B1844441903507N10006911WA000000229698
B1844451903508N10006917WA000000229710
B1844461903509N10006922WA000000229708
B1844471903508N10006928WA000000229695
B1844481903509N10006934WA000000231314
B1844491903508N10006939WA000000230778
B1844501903509N10006945WA000000230407
B1844511903509N10006951WA000000230234
B1844521903510N10006956WA000000230129
B1844531903511N10006962WA000000230188
B1844541903513N10006968WA000000230140
B1844551903514N10006973WA000000230164
B1844561903515N10006978WA000000230294
B1844571903517N10006983WA000000230243
B1844581903520N10006988WA000000230202
B1844591903523N10006993WA000000230262
B1845001903528N10006997WA000000230211
B1845011903533N10007000WA000000230226
B1845021903539N10007003WA000000230318
B1845031903544N10007006WA000000230495
B1845041903550N10007008WA000000230657
B1845051903555N10007010WA000000230786
B1845061903561N10007012WA000000230705
B1845071903565N10007014WA000000230856
B1845081903570N10007017WA000000230842
B1845091903574N10007020WA000000230634
B1845101903577N10007024WA000000230734
B1845111903579N10007029WA000000230760
B1845121903580N10007034WA000000230790
B1845131903582N10007039WA000000230744
B1845141903583N10007045WA000000230730
B1845151903582N10007051WA000000230672
B1845161903580N10007057WA000000230551
B1845171903576N10007062WA000000230455
B1845181903570N10007066WA000000230287
B1845191903563N10007067WA000000230198
B1845201903557N10007065WA000000230199
B1845211903552N10007061WA000000230191
B1845221903550N10007055WA000000230131
B1845231903549N10007048WA000000230125
B1845241903549N10007041WA000000230176
B1845251903551N10007035WA000000230127
B1845261903553N10007030WA000000230270
B1845271903557N10007024WA000000230374
B1845281903562N10007019WA000000230274
B1845291903568N10007016WA000000230360
B1845301903575N10007014WA000000230215
B1845311903580N10007016WA000000230393
B1845321903585N10007020WA000000230298
B1845331903588N10007028WA000000230243
B1845341903588N10007035WA000000230205
B1845351903584N10007041WA000000230284
B1845361903579N10007045WA000000230354
B1845371903573N10007046WA000000230331
B1845381903567N10007044WA000000230433
B1845391903562N10007040WA000000230668
B1845401903559N10007036WA000000230895
B1845411903557N10007031WA000000231044
B1845421903555N10007026WA000000231065
B1845431903553N10007021WA000000231094
B1845441903551N10007016WA000000231102
B1845451903547N10007011WA000000231075
B1845461903543N10007007WA000000231175
B1845471903540N10007003WA000000230942
B1845481903536N10006999WA000000231091
B1845491903533N10006995WA000000231110
B1845501903529N10006991WA000000231130
B1845511903524N10006988WA000000231365
B1845521903519N10006988WA000000231257
B1845531903514N10006992WA000000231131
B1845541903512N10006998WA000000231003
B1845551903513N10007005WA000000230914
B1845561903517N10007010WA000000230949
B1845571903523N10007013WA000000230989
B1845581903531N10007013WA000000230926
B1845591903537N10007010WA000000230969
B1846001903543N10007007WA000000230820
B1846011903548N10007002WA000000230906
B1846021903552N10006998WA000000231117
B1846031903557N10006995WA000000231213
B1846041903562N10006993WA000000231282
B1846051903568N10006991WA000000231199
B1846061903575N10006993WA000000231081
B1846071903582N10006996WA000000230902
B1846081903586N10007001WA000000230972
B1846091903589N10007007WA000000230923
B1846101903589N10007014WA000000230940
B1846111903587N10007020WA000000230961
B1846121903584N10007024WA000000231169
B1846131903580N10007028WA000000231389
B1846141903577N10007032WA000000231541
B1846151903574N10007035WA000000231730
B1846161903570N10007038WA000000231980
B1846171903567N10007040WA000000231951
B1846181903562N10007041WA000000231940
B1846191903556N10007039WA000000231899
B1846201903552N10007036WA000000231736
B1846211903548N10007031WA000000231616
B1846221903544N10007025WA000000231685
B1846231903542N10007019WA000000231795
B1846241903541N10007013WA000000231828
B1846251903540N10007007WA000000231907
B1846261903538N10007002WA000000232077
B1846271903537N10006997WA000000231902
B1846281903534N10006991WA000000231990
B1846291903532N10006985WA000000231943
B1846301903530N10006979WA000000232046
B1846311903529N10006973WA000000232004
B1846321903527N10006966WA000000232145
B1846331903527N10006960WA000000232231
B1846341903527N10006953WA000000232396
B1846351903528N10006947WA000000232568
B1846361903529N10006941WA000000232637
B1846371903529N10006935WA000000232998
B1846381903530N10006930WA000000233241
B1846391903531N10006924WA000000233310
B1846401903531N10006918WA000000233385
B1846411903532N10006912WA000000233413
B1846421903531N10006905WA000000233579
B1846431903530N10006900WA000000233630
B1846441903527N10006895WA000000233991
B1846451903523N10006891WA000000234070
B1846461903518N10006889WA000000234008
B1846471903512N10006892WA000000233907
B1846481903507N10006899WA000000233701
B1846491903506N10006907WA000000233701
B1846501903508N10006914WA000000233816
B1846511903511N10006920WA000000234079
B1846521903514N10006926WA000000234449
B1846531903515N10006932WA000000234855
B1846541903517N10006937WA000000235015
B1846551903518N10006942WA000000235047
B1846561903520N10006948WA000000235120
B1846571903522N10006953WA000000235127
B1846581903523N10006958WA000000235289
B1846591903524N10006964WA000000235202
B1847001903523N10006968WA000000235318
B1847011903519N10006972WA000000235200
B1847021903512N10006972WA000000234955
B1847031903506N10006969WA000000234721
B1847041903500N10006964WA000000234576
B1847051903501N10006954WA000000234575
B1847061903503N10006947WA000000234671
B1847071903507N10006941WA000000234751
B1847081903511N10006936WA000000234927
B1847091903514N10006931WA000000235067
B1847101903517N10006926WA000000235051
B1847111903519N10006919WA000000235188
B1847121903521N10006914WA000000235262
B1847131903523N10006908WA000000235457
B1847141903524N10006903WA000000235662
B1847151903524N10006897WA000000235872
B1847161903522N10006891WA000000235925
B1847171903516N10006887WA000000235963
B1847181903509N10006887WA000000235863
B1847191903503N10006891WA000000235698
B1847201903502N10006899WA000000235673
B1847211903505N10006906WA000000235544
B1847221903509N10006912WA000000235648
B1847231903512N10006918WA000000236090
B1847241903515N10006922WA000000236443
B1847251903516N10006926WA000000236771
B1847261903518N10006930WA000000236842
B1847271903520N10006934WA000000236935
B1847281903522N10006939WA000000236883
B1847291903525N10006943WA000000236837
B1847301903527N10006948WA000000236891
B1847311903530N10006952WA000000236877
B1847321903533N10006957WA000000236945
B1847331903536N10006962WA000000235920
B1847341903539N10006966WA000000236320
B1847351903541N10006969WA000000236898
B1847361903544N10006973WA000000237085
B1847371903547N10006977WA000000236468
B1847381903549N10006982WA000000236859
B1847391903549N10006988WA000000237147
B1847401903546N10006994WA000000243100
B1847411903539N10006996WA000000241149
B1847421903532N10006994WA000000239717
B1847431903524N10006991WA000000236471
B1847441903526N10006979WA000000236383
B1847451903527N10006971WA000000236394
B1847461903530N10006964WA000000236605
B1847471903531N10006958WA000000236916
B1847481903531N10006952WA000000237084
B1847491903531N10006945WA000000237058
B1847501903530N10006939WA000000236982
B1847511903529N10006931WA000000236988
B1847521903529N10006924WA000000237108
B1847531903528N10006918WA000000237365
B1847541903528N10006912WA000000237466
B1847551903528N10006906WA000000237584
B1847561903529N10006900WA000000237421
B1847571903529N10006892WA000000237589
B1847581903530N10006885WA000000237585
B1847591903532N10006878WA000000237725
B1848001903532N10006872WA000000238094
B1848011903533N10006865WA000000238217
B1848021903533N10006859WA000000238536
B1848031903532N10006853WA000000238688
B1848041903532N10006847WA000000238772
B1848051903532N10006841WA000000238872
B1848061903531N10006834WA000000238858
B1848071903529N10006829WA000000238933
B1848081903524N10006825WA000000239051
B1848091903518N10006823WA000000239076
B1848101903513N10006825WA000000238975
B1848111903509N10006831WA000000238761
B1848121903509N10006838WA000000238551
B1848131903512N10006845WA000000238508
B1848141903515N10006851WA000000238614
B1848151903517N10006856WA000000238839
B1848161903518N10006861WA000000239037
B1848171903519N10006866WA000000239168
B1848181903520N10006871WA000000239049
B1848191903521N10006877WA000000238944
B1848201903522N10006882WA000000239048
B1848211903523N10006888WA000000239240
B1848221903524N10006892WA000000239429
B1848231903525N10006897WA000000239508
B1848241903525N10006903WA000000244470
B1848251903526N10006907WA000000243279
B1848261903527N10006913WA000000242571
B1848271903529N10006917WA000000241909
B1848281903531N10006923WA000000241404
B1848291903532N10006928WA000000241065
B1848301903533N10006933WA000000240964
B1848311903534N10006938WA000000240650
B1848321903536N10006942WA000000240413
B1848331903538N10006947WA000000240231
B1848341903541N10006952WA000000239904
B1848351903543N10006957WA000000239787
B1848361903547N10006962WA000000239629
B1848371903550N10006967WA000000239769
B1848381903552N10006972WA000000239888
B1848391903553N10006978WA000000239933
B1848401903551N10006983WA000000239825
B1848411903546N10006987WA000000239758
B1848421903540N10006989WA000000239518
B1848431903533N10006989WA000000239380
B1848441903528N10006985WA000000239381
B1848451903525N10006978WA000000239277
B1848461903525N10006971WA000000239031
B1848471903527N10006963WA000000238908
B1848481903529N10006957WA000000238852
B1848491903531N10006951WA000000238992
B1848501903533N10006944WA000000238979
B1848511903534N10006938WA000000238924
B1848521903534N10006931WA000000238954
B1848531903534N10006924WA000000238854
B1848541903534N10006917WA000000238983
B1848551903534N10006910WA000000238927
B1848561903534N10006904WA000000239230
B1848571903534N10006897WA000000239175
B1848581903535N10006891WA000000239151
B1848591903535N10006884WA000000239186
B1849001903535N10006878WA000000239172
B1849011903534N10006871WA000000239166
B1849021903532N10006865WA000000239055
B1849031903530N10006859WA000000239056
B1849041903529N10006853WA000000239105
B1849051903527N10006847WA000000239283
B1849061903527N10006841WA000000239333
B1849071903526N10006835WA000000239462
B1849081903525N10006829WA000000239390
B1849091903524N10006823WA000000239243
B1849101903521N10006817WA000000239190
B1849111903517N10006812WA000000239141
B1849121903511N10006810WA000000239171
B1849131903506N10006811WA000000239022
B1849141903502N10006815WA000000238748
B1849151903501N10006823WA000000238475
B1849161903504N10006830WA000000238396
B1849171903509N10006836WA000000238426
B1849181903512N10006841WA000000238647
B1849191903514N10006846WA000000238984
B1849201903516N10006850WA000000239028
B1849211903517N10006855WA000000239154
B1849221903518N10006859WA000000239089
B1849231903520N10006864WA000000239018
B1849241903521N10006869WA000000238928
B1849251903522N10006874WA000000238807
B1849261903523N10006879WA000000238905
B1849271903523N10006884WA000000238996
B1849281903524N10006890WA000000238950
B1849291903525N10006895WA000000238911
B1849301903525N10006900WA000000238995
B1849311903526N10006905WA000000239069
B1849321903527N10006910WA000000238975
B1849331903528N10006915WA000000238983
B1849341903530N10006920WA000000238914
B1849351903530N10006925WA000000238886
B1849361903532N10006930WA000000238836
B1849371903534N10006936WA000000238610
B1849381903536N10006941WA000000238526
B1849391903538N10006947WA000000238443
B1849401903540N10006952WA000000238389
B1849411903543N10006957WA000000238258
B1849421903546N10006963WA000000238110
B1849431903548N10006968WA000000238173
B1849441903551N10006973WA000000237918
B1849451903553N10006979WA000000237844
B1849461903555N10006985WA000000237698
B1849471903557N10006992WA000000237591
B1849481903559N10006998WA000000237597
B1849491903561N10007004WA000000237616
B1849501903562N10007010WA000000237613
B1849511903562N10007015WA000000237894
B1849521903563N10007020WA000000237884
B1849531903565N10007025WA000000237870
B1849541903569N10007028WA000000237792
B1849551903575N10007030WA000000237471
B1849561903583N10007028WA000000237107
B1849571903588N10007024WA000000237096
B1849581903593N10007018WA000000237024
B1849591903594N10007011WA000000237115
B1850001903592N10007004WA000000237122
B1850011903588N10006998WA000000237131
B1850021903583N10006993WA000000237282
B1850031903578N10006990WA000000237291
B1850041903573N10006988WA000000237248
B1850051903567N10006989WA000000237394
B1850061903562N10006990WA000000237205
B1850071903557N10006992WA000000237127
B1850081903552N10006995WA000000237124
B1850091903548N10006998WA000000237014
B1850101903543N10007001WA000000236891
B1850111903538N10007002WA000000236787
B1850121903533N10007004WA000000236612
B1850131903527N10007005WA000000236471
B1850141903522N10007005WA000000236415
B1850151903516N10007005WA000000236309
B1850161903510N10007005WA000000237621
B1850171903504N10007004WA000000237375
B1850181903499N10007003WA000000237268
B1850191903494N10007002WA000000237337
B1850201903489N10007001WA000000237370
B1850211903485N10006997WA000000237229
B1850221903481N10006993WA000000237137
B1850231903478N10006988WA000000237002
B1850241903475N10006982WA000000237143
B1850251903474N10006976WA000000237284
B1850261903475N10006970WA000000237466
B1850271903477N10006965WA000000237581
B1850281903481N10006959WA000000237454
B1850291903485N10006954WA000000237379
B1850301903490N10006952WA000000237381
B1850311903497N10006951WA000000237510
B1850321903503N10006952WA000000237521
B1850331903508N10006955WA000000237785
B1850341903512N10006960WA000000237883
B1850351903514N10006966WA000000238082
B1850361903514N10006973WA000000238170
B1850371903512N10006978WA000000238134
B1850381903508N10006982WA000000238123
B1850391903503N10006985WA000000238104
B1850401903498N10006985WA000000238114
B1850411903493N10006983WA000000238046
B1850421903489N10006979WA000000238055
B1850431903486N10006973WA000000237969
B1850441903485N10006968WA000000237900
B1850451903484N10006962WA000000238041
B1850461903485N10006956WA000000238054
B1850471903486N10006950WA000000237995
B1850481903488N10006944WA000000237994
B1850491903490N10006938WA000000237984
B1850501903492N10006932WA000000238177
B1850511903493N10006927WA000000238292
B1850521903495N10006921WA000000238449
B1850531903496N10006916WA000000238597
B1850541903498N10006911WA000000238663
B1850551903500N10006906WA000000238680
B1850561903503N10006900WA000000238606
B1850571903505N10006895WA000000238501
B1850581903507N10006888WA000000238406
B1850591903508N10006881WA000000238237
B1851001903509N10006874WA000000238283
B1851011903510N10006867WA000000238262
B1851021903510N10006860WA000000238262
B1851031903509N10006853WA000000238235
B1851041903507N10006847WA000000238397
B1851051903506N10006842WA000000238576
B1851061903504N10006838WA000000238441
B1851071903501N10006833WA000000238229
B1851081903495N10006831WA000000238040
B1851091903487N10006831WA000000237641
B1851101903480N10006834WA000000237203
B1851111903475N10006840WA000000236935
B1851121903473N10006847WA000000238272
B1851131903473N10006853WA000000237899
B1851141903474N10006859WA000000237609
B1851151903474N10006865WA000000237441
B1851161903473N10006870WA000000237279
B1851171903473N10006877WA000000237073
B1851181903474N10006884WA000000236769
B1851191903476N10006893WA000000236432
B1851201903478N10006901WA000000236225
B1851211903481N10006909WA000000236274
B1851221903485N10006915WA000000236499
B1851231903490N10006921WA000000236617
B1851241903493N10006926WA000000236847
B1851251903496N10006931WA000000236954
B1851261903499N10006935WA000000237029
B1851271903502N10006940WA000000237101
B1851281903504N10006943WA000000237243
B1851291903506N10006947WA000000237282
B1851301903509N10006951WA000000237342
B1851311903512N10006955WA000000237380
B1851321903515N10006959WA000000237431
B1851331903518N10006962WA000000237546
B1851341903522N10006965WA000000237657
B1851351903526N10006968WA000000237669
B1851361903531N10006972WA000000237652
B1851371903536N10006975WA000000237819
B1851381903539N10006979WA000000237984
B1851391903543N10006983WA000000238162
B1851401903546N10006987WA000000238375
B1851411903549N10006991WA000000238585
B1851421903552N10006995WA000000238649
B1851431903554N10007001WA000000238783
B1851441903556N10007006WA000000238887
B1851451903558N10007011WA000000238969
B1851461903560N10007017WA000000239011
B1851471903561N10007021WA000000239095
B1851481903565N10007027WA000000238816
B1851491903569N10007034WA000000238615
B1851501903572N10007042WA000000238391
B1851511903576N10007049WA000000238288
B1851521903580N10007056WA000000238294
B1851531903584N10007063WA000000238471
B1851541903588N10007069WA000000238330
B1851551903592N10007074WA000000238356
B1851561903597N10007080WA000000238129
B1851571903601N10007087WA000000238085
B1851581903607N10007094WA000000237942
B1851591903613N10007100WA000000237973
B1852001903620N10007105WA000000238009
B1852011903625N10007110WA000000238278
B1852021903630N10007115WA000000238562
B1852031903635N10007118WA000000238805
B1852041903638N10007120WA000000238989
B1852051903642N10007124WA000000238922
B1852061903645N10007127WA000000238877
B1852071903649N10007131WA000000238609
B1852081903652N10007137WA000000238501
B1852091903654N10007142WA000000238360
B1852101903657N10007147WA000000238343
B1852111903660N10007151WA000000238349
B1852121903663N10007156WA000000238367
B1852131903666N10007161WA000000238283
B1852141903670N10007165WA000000238125
B1852151903674N10007170WA000000238063
B1852161903678N10007175WA000000237883
B1852171903683N10007180WA000000237612
B1852181903687N10007185WA000000237564
B1852191903692N10007190WA000000237511
B1852201903696N10007194WA000000237445
B1852211903700N10007199WA000000237480
B1852221903705N10007203WA000000237474
B1852231903710N10007207WA000000237469
B1852241903715N10007212WA000000237376
B1852251903720N10007217WA000000237393
B1852261903726N10007221WA000000237303
B1852271903731N10007225WA000000237326
B1852281903736N10007230WA000000237450
B1852291903740N10007233WA000000237568
B1852301903745N10007237WA000000237522
B1852311903749N10007240WA000000237606
B1852321903753N10007244WA000000237602
B1852331903755N10007248WA000000237797
B1852341903756N10007254WA000000237744
B1852351903754N10007259WA000000237648
B1852361903751N10007264WA000000237405
B1852371903747N10007268WA000000237311
B1852381903742N10007270WA000000237248
B1852391903738N10007273WA000000237132
B1852401903733N10007275WA000000237058
B1852411903729N10007278WA000000236904
B1852421903724N10007280WA000000236969
B1852431903720N10007283WA000000236806
B1852441903715N10007285WA000000236734
B1852451903710N10007287WA000000237721
B1852461903705N10007288WA000000237425
B1852471903700N10007289WA000000237286
B1852481903695N10007290WA000000236941
B1852491903690N10007291WA000000236744
B1852501903685N10007292WA000000236553
B1852511903679N10007293WA000000236362
B1852521903674N10007294WA000000236156
B1852531903668N10007296WA000000236091
B1852541903663N10007297WA000000236147
B1852551903658N10007298WA000000236146
B1852561903652N10007299WA000000236098
B1852571903647N10007301WA000000235950
B1852581903640N10007301WA000000235793
B1852591903633N10007301WA000000235562
B1853001903626N10007300WA000000235319
B1853011903618N10007300WA000000235053
B1853021903611N10007299WA000000234829
B1853031903604N10007299WA000000234858
B1853041903598N10007300WA000000236052
B1853051903592N10007300WA000000235600
B1853061903584N10007300WA000000235191
B1853071903578N10007299WA000000234709
B1853081903570N10007299WA000000234387
B1853091903564N10007299WA000000234118
B1853101903557N10007299WA000000234079
B1853111903551N10007299WA000000233929
B1853121903544N10007300WA000000233773
B1853131903537N10007300WA000000233587
B1853141903530N10007301WA000000233224
B1853151903522N10007302WA000000232900
B1853161903513N10007302WA000000232654
B1853171903504N10007303WA000000232213
B1853181903494N10007303WA000000231987
B1853191903485N10007304WA000000231821
B1853201903476N10007304WA000000231623
B1853211903467N10007304WA000000231636
B1853221903458N10007305WA000000231661
B1853231903450N10007305WA000000231634
B1853241903442N10007306WA000000231522
B1853251903434N10007307WA000000231321
B1853261903426N10007307WA000000231108
B1853271903417N10007309WA000000231081
B1853281903409N10007309WA000000230897
B1853291903401N10007310WA000000230698
B1853301903394N10007311WA000000230505
B1853311903386N10007312WA000000230336
B1853321903378N10007313WA000000230291
B1853331903371N10007313WA000000230063
B1853341903363N10007313WA000000229888
B1853351903355N10007314WA000000229683
B1853361903347N10007315WA000000229470
B1853371903339N10007315WA000000229280
B1853381903332N10007315WA000000229007
B1853391903324N10007316WA000000228701
B1853401903316N10007316WA000000228505
B1853411903307N10007317WA000000228353
B1853421903298N10007317WA000000228298
B1853431903290N10007318WA000000228055
B1853441903282N10007319WA000000227972
B1853451903274N10007319WA000000227867
B1853461903266N10007320WA000000227783
B1853471903259N10007321WA000000227630
B1853481903251N10007321WA000000232584
B1853491903244N10007321WA000000231227
B1853501903236N10007321WA000000230078
B1853511903228N10007321WA000000229298
B1853521903221N10007322WA000000228855
B1853531903214N10007322WA000000228289
B1853541903208N10007323WA000000227864
B1853551903202N10007323WA000000227675
B1853561903196N10007323WA000000227468
B1853571903189N10007323WA000000227149
B1853581903182N10007323WA000000226987
B1853591903175N10007324WA000000226630
B1854001903168N10007324WA000000226461
B1854011903161N10007324WA000000226383
B1854021903155N10007324WA000000226229
B1854031903148N10007325WA000000226127
B1854041903141N10007326WA000000226035
B1854051903135N10007327WA000000225815
B1854061903128N10007329WA000000225661
B1854071903121N10007330WA000000225486
B1854081903114N10007331WA000000225379
B1854091903107N10007333WA000000225192
B1854101903101N10007334WA000000224916
B1854111903094N10007336WA000000224782
B1854121903088N10007338WA000000224683
B1854131903083N10007340WA000000224420
B1854141903077N10007341WA000000224305
B1854151903070N10007342WA000000224295
B1854161903064N10007343WA000000224039
B1854171903057N10007345WA000000223881
B1854181903051N10007346WA000000223725
B1854191903045N10007347WA000000223629
B1854201903039N10007349WA000000223581
B1854211903033N10007350WA000000223491
B1854221903028N10007351WA000000223361
B1854231903022N10007352WA000000223043
B1854241903016N10007354WA000000222800
B1854251903009N10007355WA000000222665
B1854261903003N10007356WA000000222547
B1854271902997N10007357WA000000222469
B1854281902992N10007358WA000000222327
B1854291902986N10007360WA000000222390
B1854301902981N10007361WA000000222234
B1854311902975N10007362WA000000222180
B1854321902970N10007362WA000000221933
B1854331902964N10007362WA000000221702
B1854341902958N10007361WA000000221546
B1854351902952N10007361WA000000221553
B1854361902946N10007361WA000000221370
B1854371902941N10007360WA000000221226
B1854381902935N10007360WA000000221160
B1854391902929N10007359WA000000220830
B1854401902922N10007358WA000000220520
B1854411902914N10007356WA000000220297
B1854421902907N10007355WA000000220048
B1854431902900N10007354WA000000219908
B1854441902892N10007354WA000000219824
B1854451902885N10007353WA000000219738
B1854461902878N10007353WA000000219743
B1854471902871N10007352WA000000219629
B1854481902864N10007352WA000000219486
B1854491902857N10007352WA000000219111
B1854501902849N10007351WA000000218933
B1854511902842N10007350WA000000218812
B1854521902834N10007349WA000000218799
B1854531902828N10007349WA000000218834
B1854541902821N10007348WA000000218865
B1854551902814N10007347WA000000218762
B1854561902807N10007346WA000000218571
B1854571902800N10007345WA000000218336
B1854581902792N10007345WA000000218181
B1854591902785N10007344WA000000218054
B1855001902778N10007342WA000000218169
B1855011902772N10007341WA000000218128
B1855021902766N10007340WA000000218043
B1855031902761N10007338WA000000218013
B1855041902756N10007336WA000000218032
B1855051902750N10007333WA000000218069
B1855061902745N10007331WA000000217829
B1855071902739N10007329WA000000217817
B1855081902733N10007328WA000000217731
B1855091902727N10007326WA000000217857
B1855101902722N10007325WA000000217943
B1855111902716N10007323WA000000217995
B1855121902711N10007321WA000000218019
B1855131902705N10007319WA000000218157
B1855141902699N10007318WA000000218251
B1855151902693N10007317WA000000218370
B1855161902688N10007315WA000000218502
B1855171902682N10007313WA000000218850
B1855181902678N10007310WA000000219019
B1855191902673N10007309WA000000219057
B1855201902668N10007309WA000000219179
B1855211902664N10007312WA000000219282
B1855221902662N10007316WA000000219132
B1855231902661N10007322WA000000218913
B1855241902663N10007327WA000000218867
B1855251902669N10007331WA000000218711
B1855261902675N10007331WA000000218647
B1855271902681N10007328WA000000218467
B1855281902687N10007323WA000000218314
B1855291902690N10007317WA000000218352
B1855301902693N10007310WA000000218427
B1855311902694N10007304WA000000218542
B1855321902694N10007297WA000000218668
B1855331902694N10007291WA000000218740
B1855341902692N10007284WA000000218877
B1855351902689N10007279WA000000218910
B1855361902684N10007274WA000000219083
B1855371902680N10007271WA000000219121
B1855381902675N10007268WA000000219258
B1855391902670N10007267WA000000219357
B1855401902665N10007268WA000000219360
B1855411902661N10007269WA000000219316
B1855421902657N10007272WA000000219348
B1855431902655N10007276WA000000219498
B1855441902656N10007280WA000000219509
B1855451902656N10007284WA000000219687
B1855461902658N10007289WA000000219673
B1855471902661N10007292WA000000219688
B1855481902665N10007296WA000000219500
B1855491902669N10007298WA000000219371
B1855501902674N10007298WA000000219289
B1855511902680N10007298WA000000219261
B1855521902686N10007295WA000000219018
B1855531902692N10007292WA000000219048
B1855541902698N10007289WA000000219132
B1855551902703N10007284WA000000219269
B1855561902708N10007280WA000000219311
B1855571902711N10007275WA000000219480
B1855581902714N10007269WA000000219634
B1855591902714N10007262WA000000219858
B1856001902713N10007256WA000000219892
B1856011902711N10007250WA000000219900
B1856021902707N10007245WA000000219932
B1856031902702N10007242WA000000220020
B1856041902696N10007240WA000000219945
B1856051902690N10007241WA000000219854
B1856061902684N10007242WA000000219762
B1856071902678N10007243WA000000219717
B1856081902672N10007244WA000000219725
B1856091902666N10007244WA000000219878
B1856101902661N10007244WA000000219926
B1856111902655N10007244WA000000220067
B1856121902650N10007244WA000000220017
B1856131902643N10007244WA000000219956
B1856141902636N10007244WA000000219778
B1856151902629N10007245WA000000219690
B1856161902623N10007244WA000000219533
B1856171902617N10007243WA000000219535
B1856181902611N10007242WA000000219673
B1856191902606N10007241WA000000219523
B1856201902600N10007240WA000000219333
B1856211902594N10007239WA000000219125
B1856221902587N10007238WA000000218856
B1856231902581N10007237WA000000218615
B1856241902574N10007237WA000000218480
B1856251902568N10007237WA000000218471
B1856261902562N10007237WA000000218264
B1856271902556N10007238WA000000218123
B1856281902549N10007239WA000000218060
B1856291902543N10007239WA000000217952
B1856301902537N10007239WA000000217965
B1856311902531N10007239WA000000218095
B1856321902526N10007239WA000000217968
B1856331902521N10007240WA000000217812
B1856341902516N10007240WA000000217606
B1856351902510N10007241WA000000217532
B1856361902504N10007241WA000000217489
B1856371902498N10007242WA000000217381
B1856381902493N10007242WA000000217212
B1856391902487N10007242WA000000217013
B1856401902481N10007242WA000000216835
B1856411902475N10007243WA000000216750
B1856421902470N10007243WA000000216607
B1856431902464N10007244WA000000216553
B1856441902458N10007244WA000000216388
B1856451902452N10007245WA000000216293
B1856461902446N10007245WA000000216094
B1856471902441N10007246WA000000215940
B1856481902435N10007246WA000000215884
B1856491902430N10007246WA000000215617
B1856501902424N10007247WA000000215520
B1856511902418N10007246WA000000215359
B1856521902412N10007247WA000000215273
B1856531902406N10007247WA000000215051
B1856541902400N10007247WA000000214816
B1856551902394N10007248WA000000214605
B1856561902388N10007248WA000000214517
B1856571902382N10007249WA000000214441
B1856581902376N10007249WA000000214213
B1856591902370N10007249WA000000214122
B1857001902364N10007249WA000000214033
B1857011902358N10007249WA000000213914
B1857021902352N10007249WA000000213718
B1857031902346N10007250WA000000213537
B1857041902340N10007251WA000000213335
B1857051902334N10007252WA000000213104
B1857061902327N10007253WA000000213095
B1857071902322N10007254WA000000212925
B1857081902316N10007255WA000000212831
B1857091902310N10007256WA000000212660
B1857101902304N10007256WA000000212598
B1857111902298N10007257WA000000212488
B1857121902292N10007258WA000000212347
B1857131902286N10007260WA000000212200
B1857141902280N10007260WA000000212249
B1857151902274N10007262WA000000212160
B1857161902269N10007263WA000000212003
B1857171902263N10007264WA000000211937
B1857181902258N10007266WA000000211800
B1857191902252N10007267WA000000211547
B1857201902247N10007269WA000000211407
B1857211902241N10007270WA000000211256
B1857221902235N10007271WA000000210869
B1857231902230N10007273WA000000210723
B1857241902224N10007274WA000000210548
B1857251902218N10007275WA000000210387
B1857261902212N10007276WA000000210299
B1857271902206N10007278WA000000210060
B1857281902200N10007279WA000000210058
B1857291902194N10007281WA000000209982
B1857301902190N10007282WA000000209914
B1857311902185N10007283WA000000209946
B1857321902180N10007284WA000000209855
B1857331902175N10007285WA000000209745
B1857341902170N10007286WA000000209696
B1857351902166N10007287WA000000209537
B1857361902160N10007288WA000000209568
B1857371902155N10007289WA000000209487
B1857381902150N10007290WA000000209354
B1857391902145N10007291WA000000209376
B1857401902140N10007292WA000000209157
B1857411902135N10007294WA000000208952
B1857421902129N10007296WA000000208783
B1857431902124N10007298WA000000208526
B1857441902118N10007302WA000000208340
B1857451902113N10007305WA000000208114
B1857461902108N10007309WA000000208182
B1857471902104N10007312WA000000208195
B1857481902101N10007316WA000000208101
B1857491902097N10007320WA000000208143
B1857501902094N10007324WA000000208009
B1857511902090N10007329WA000000207877
B1857521902087N10007335WA000000207750
B1857531902084N10007339WA000000207598
B1857541902081N10007344WA000000207485
B1857551902079N10007349WA000000207302
B1857561902076N10007354WA000000207214
B1857571902072N10007359WA000000207195
B1857581902069N10007363WA000000207146
B1857591902065N10007367WA000000207084
B1858001902062N10007371WA000000206942
B1858011902058N10007375WA000000206843
B1858021902054N10007379WA000000206622
B1858031902049N10007382WA000000206536
B1858041902043N10007385WA000000206384
B1858051902037N10007388WA000000206262
B1858061902032N10007390WA000000206306
B1858071902026N10007392WA000000206366
B1858081902021N10007394WA000000206453
B1858091902015N10007395WA000000206376
B1858101902009N10007396WA000000206247
B1858111902002N10007397WA000000206182
B1858121901996N10007397WA000000206063
B1858131901990N10007397WA000000206054
B1858141901984N10007397WA000000206100
B1858151901978N10007397WA000000206101
B1858161901972N10007396WA000000206169
B1858171901966N10007396WA000000206179
B1858181901960N10007395WA000000206069
B1858191901954N10007394WA000000205921
B1858201901947N10007391WA000000205718
B1858211901940N10007389WA000000205701
B1858221901933N10007386WA000000205825
B1858231901926N10007384WA000000205992
B1858241901920N10007381WA000000206199
B1858251901915N10007379WA000000206364
B1858261901910N10007376WA000000206393
B1858271901907N10007372WA000000206454
B1858281901904N10007366WA000000206414
B1858291901903N10007359WA000000206146
B1858301901905N10007351WA000000205911
B1858311901908N10007344WA000000205781
B1858321901913N10007338WA000000205798
B1858331901920N10007335WA000000205655
B1858341901926N10007334WA000000205475
B1858351901932N10007334WA000000205477
B1858361901938N10007335WA000000205459
B1858371901944N10007337WA000000205360
B1858381901950N10007337WA000000205191
B1858391901957N10007335WA000000205058
B1858401901964N10007332WA000000204809
B1858411901969N10007328WA000000204776
B1858421901974N10007323WA000000204556
B1858431901978N10007318WA000000204547
B1858441901981N10007313WA000000204569
B1858451901984N10007309WA000000204562
B1858461901987N10007304WA000000204479
B1858471901990N10007300WA000000204383
B1858481901994N10007295WA000000204203
B1858491901997N10007290WA000000204241
B1858501902000N10007284WA000000204199
B1858511902004N10007279WA000000204045
B1858521902007N10007274WA000000204054
B1858531902011N10007268WA000000204025
B1858541902014N10007262WA000000203928
B1858551902017N10007257WA000000203953
B1858561902021N10007252WA000000204025
B1858571902024N10007248WA000000204175
B1858581902028N10007244WA000000204114
B1858591902031N10007240WA000000204091
B1859001902036N10007235WA000000203904
B1859011902040N10007230WA000000203851
B1859021902045N10007225WA000000203909
B1859031902049N10007221WA000000203973
B1859041902053N10007217WA000000204072
B1859051902057N10007212WA000000204069
B1859061902062N10007207WA000000204048
B1859071902067N10007202WA000000203916
B1859081902071N10007197WA000000203946
B1859091902075N10007192WA000000204056
B1859101902079N10007187WA000000204038
B1859111902083N10007183WA000000204002
B1859121902086N10007178WA000000203972
B1859131902091N10007172WA000000203808
B1859141902095N10007166WA000000203777
B1859151902099N10007160WA000000203738
B1859161902102N10007154WA000000203705
B1859171902104N10007149WA000000203770
B1859181902107N10007143WA000000203696
B1859191902111N10007138WA000000203534
B1859201902114N10007132WA000000203369
B1859211902118N10007126WA000000203209
B1859221902121N10007120WA000000203118
B1859231902125N10007114WA000000202904
B1859241902128N10007107WA000000202839
B1859251902131N10007101WA000000202796
B1859261902135N10007095WA000000202755
B1859271902138N10007089WA000000202767
B1859281902141N10007084WA000000202651
B1859291902144N10007077WA000000202596
B1859301902148N10007070WA000000202438
B1859311902151N10007063WA000000202287
B1859321902155N10007057WA000000202230
B1859331902159N10007050WA000000202214
B1859341902162N10007044WA000000202223
B1859351902165N10007038WA000000202171
B1859361902168N10007032WA000000202070
B1859371902172N10007025WA000000201847
B1859381902176N10007019WA000000201731
B1859391902179N10007012WA000000201590
B1859401902183N10007004WA000000201487
B1859411902188N10006997WA000000201133
B1859421902192N10006989WA000000200988
B1859431902197N10006982WA000000200815
B1859441902200N10006975WA000000200682
B1859451902204N10006968WA000000200534
B1859461902207N10006961WA000000200456
B1859471902211N10006954WA000000200216
B1859481902214N10006948WA000000200020
B1859491902217N10006941WA000000200044
B1859501902220N10006935WA000000199840
B1859511902223N10006928WA000000199729
B1859521902226N10006922WA000000199534
B1859531902229N10006916WA000000199370
B1859541902233N10006909WA000000199121
B1859551902236N10006902WA000000198860
B1859561902240N10006895WA000000198700
B1859571902243N10006888WA000000198734
B1859581902246N10006882WA000000198653
B1859591902249N10006876WA000000198694
B1900001902252N10006870WA000000198552
B1900011902255N10006863WA000000198486
B1900021902259N10006857WA000000198236
B1900031902262N10006851WA000000198170
B1900041902266N10006844WA000000197806
B1900051902269N10006837WA000000197713
B1900061902272N10006830WA000000197432
B1900071902275N10006822WA000000197394
B1900081902279N10006815WA000000197350
B1900091902283N10006808WA000000197111
B1900101902286N10006801WA000000197125
B1900111902289N10006795WA000000197030
B1900121902292N10006788WA000000196980
B1900131902296N10006780WA000000196645
B1900141902300N10006772WA000000196318
B1900151902303N10006765WA000000196150
B1900161902307N10006757WA000000196141
B1900171902311N10006749WA000000196007
B1900181902314N10006742WA000000195927
B1900191902318N10006735WA000000195813
B1900201902321N10006728WA000000195683
B1900211902325N10006720WA000000195598
B1900221902329N10006713WA000000195446
B1900231902333N10006706WA000000195335
B1900241902337N10006699WA000000195307
B1900251902340N10006692WA000000195289
B1900261902344N10006686WA000000195125
B1900271902348N10006679WA000000194825
B1900281902352N10006672WA000000194748
B1900291902356N10006666WA000000194614
B1900301902359N10006659WA000000194488
B1900311902363N10006653WA000000194358
B1900321902367N10006647WA000000194215
B1900331902370N10006641WA000000194111
B1900341902374N10006633WA000000193907
B1900351902377N10006626WA000000193750
B1900361902380N10006618WA000000193683
B1900371902383N10006610WA000000193655
B1900381902385N10006602WA000000193675
B1900391902388N10006594WA000000193716
B1900401902390N10006587WA000000193853
B1900411902393N10006579WA000000193729
B1900421902395N10006572WA000000193666
B1900431902399N10006565WA000000193600
B1900441902401N10006557WA000000193567
B1900451902405N10006550WA000000203724
B1900461902408N10006543WA000000200436
B1900471902411N10006537WA000000198861
B1900481902416N10006530WA000000197519
B1900491902420N10006524WA000000196532
B1900501902423N10006517WA000000196083
B1900511902427N10006511WA000000195666
B1900521902431N10006505WA000000195427
B1900531902434N10006499WA000000195065
B1900541902437N10006492WA000000194699
B1900551902441N10006486WA000000194322
B1900561902445N10006479WA000000194122
B1900571902449N10006472WA000000193851
B1900581902453N10006465WA000000193703
B1900591902456N10006459WA000000193791
B1901001902460N10006453WA000000193722
B1901011902463N10006447WA000000193643
B1901021902466N10006441WA000000193491
B1901031902470N10006434WA000000193194
B1901041902475N10006427WA000000192917
B1901051902479N10006421WA000000192865
B1901061902484N10006415WA000000192842
B1901071902488N10006409WA000000192755
B1901081902492N10006404WA000000192760
B1901091902496N10006398WA000000192608
B1901101902499N10006392WA000000192569
B1901111902503N10006386WA000000192268
B1901121902507N10006380WA000000191992
B1901131902511N10006373WA000000191672
B1901141902514N10006366WA000000191561
B1901151902516N10006358WA000000191388
B1901161902517N10006351WA000000191263
B1901171902518N10006343WA000000191049
B1901181902519N10006336WA000000191065
B1901191902520N10006329WA000000190990
B1901201902521N10006321WA000000190976
B1901211902521N10006313WA000000190985
B1901221902522N10006306WA000000190802
B1901231902522N10006298WA000000190764
B1901241902523N10006290WA000000190751
B1901251902525N10006281WA000000190709
B1901261902525N10006274WA000000190792
B1901271902526N10006266WA000000190582
B1901281902527N10006257WA000000190387
B1901291902528N10006249WA000000190255
B1901301902529N10006241WA000000190094
B1901311902531N10006233WA000000189915
B1901321902532N10006225WA000000189725
B1901331902533N10006218WA000000189642
B1901341902533N10006210WA000000189594
B1901351902534N10006201WA000000189267
B1901361902535N10006192WA000000189014
B1901371902536N10006183WA000000188913
B1901381902537N10006175WA000000188913
B1901391902538N10006167WA000000189129
B1901401902539N10006161WA000000189101
B1901411902539N10006154WA000000189153
B1901421902539N10006147WA000000189198
B1901431902540N10006142WA000000189370
B1901441902542N10006136WA000000189511
B1901451902544N10006130WA000000189605
B1901461902545N10006124WA000000189796
B1901471902547N10006119WA000000189894
B1901481902549N10006114WA000000189833
B1901491902549N10006109WA000000189810
B1901501902546N10006104WA000000189765
B1901511902541N10006100WA000000189469
B1901521902534N10006101WA000000189253
B1901531902529N10006105WA000000189213
B1901541902525N10006111WA000000189441
B1901551902523N10006116WA000000189732
B1901561902522N10006120WA000000190128
B1901571902521N10006124WA000000190475
B1901581902522N10006128WA000000190550
B1901591902525N10006131WA000000190458
B1902001902530N10006135WA000000190184
B1902011902537N10006137WA000000189893
B1902021902545N10006135WA000000189719
B1902031902551N10006131WA000000189739
B1902041902555N10006125WA000000189737
B1902051902556N10006119WA000000189691
B1902061902556N10006112WA000000189514
B1902071902553N10006106WA000000189717
B1902081902548N10006102WA000000189879
B1902091902543N10006102WA000000189945
B1902101902538N10006104WA000000190072
B1902111902535N10006108WA000000190056
B1902121902534N10006114WA000000190130
B1902131902535N10006119WA000000190354
B1902141902538N10006124WA000000190272
B1902151902544N10006127WA000000190257
B1902161902550N10006129WA000000190191
B1902171902557N10006128WA000000190081
B1902181902563N10006125WA000000190050
B1902191902568N10006120WA000000190041
B1902201902570N10006113WA000000189993
B1902211902571N10006106WA000000189843
B1902221902570N10006099WA000000189814
B1902231902566N10006094WA000000189871
B1902241902562N10006090WA000000189936
B1902251902557N10006090WA000000190011
B1902261902552N10006092WA000000190005
B1902271902549N10006096WA000000190111
B1902281902548N10006101WA000000190144
B1902291902550N10006107WA000000190132
B1902301902554N10006112WA000000190086
B1902311902560N10006116WA000000190004
B1902321902565N10006117WA000000190199
B1902331902572N10006117WA000000190240
B1902341902578N10006113WA000000190236
B1902351902583N10006108WA000000190014
B1902361902586N10006101WA000000189908
B1902371902586N10006094WA000000189784
B1902381902585N10006087WA000000189820
B1902391902581N10006080WA000000189966
B1902401902576N10006076WA000000190050
B1902411902571N10006074WA000000190134
B1902421902566N10006076WA000000190274
B1902431902564N10006079WA000000190227
B1902441902564N10006084WA000000190105
B1902451902566N10006090WA000000190193
B1902461902572N10006095WA000000189940
B1902471902579N10006098WA000000189912
B1902481902586N10006099WA000000190108
B1902491902591N10006100WA000000190365
B1902501902596N10006101WA000000190523
B1902511902600N10006102WA000000190681
B1902521902606N10006103WA000000190420
B1902531902612N10006103WA000000190218
B1902541902618N10006105WA000000189961
B1902551902626N10006106WA000000189828
B1902561902633N10006108WA000000189773
B1902571902639N10006110WA000000189799
B1902581902646N10006112WA000000189978
B1902591902652N10006114WA000000190352
B1903001902658N10006115WA000000190248
B1903011902664N10006117WA000000190179
B1903021902671N10006119WA000000189968
B1903031902678N10006121WA000000189749
B1903041902685N10006122WA000000189658
B1903051902691N10006123WA000000189592
B1903061902696N10006124WA000000189692
B1903071902701N10006127WA000000189641
B1903081902703N10006131WA000000189588
B1903091902703N10006138WA000000189221
B1903101902698N10006143WA000000189052
B1903111902693N10006148WA000000188854
B1903121902685N10006141WA000000188794
B1903131902681N10006135WA000000188797
B1903141902677N10006129WA000000188887
B1903151902674N10006126WA000000189057
B1903161902670N10006125WA000000188928
B1903171902665N10006129WA000000188561
B1903181902663N10006134WA000000188029
B1903191902664N10006142WA000000187742
B1903201902668N10006148WA000000187536
B1903211902673N10006152WA000000187484
B1903221902678N10006155WA000000187400
B1903231902681N10006157WA000000187638
B1903241902682N10006160WA000000187596
B1903251902684N10006164WA000000187444
B1903261902686N10006168WA000000187019
B1903271902688N10006174WA000000186601
B1903281902689N10006179WA000000186327
B1903291902690N10006184WA000000186257
B1903301902691N10006189WA000000186151
B1903311902692N10006193WA000000186064
B1903321902693N10006197WA000000185849
B1903331902694N10006203WA000000185550
B1903341902696N10006209WA000000185200
B1903351902697N10006215WA000000184961
B1903361902699N10006220WA000000184677
B1903371902701N10006225WA000000184673
B1903381902703N10006229WA000000184694
B1903391902705N10006233WA000000184598
B1903401902706N10006238WA000000184385
B1903411902705N10006244WA000000184162
B1903421902703N10006249WA000000183723
B1903431902701N10006253WA000000183518
B1903441902699N10006257WA000000183544
B1903451902697N10006260WA000000183455
B1903461902694N10006262WA000000183344
B1903471902689N10006262WA000000182958
B1903481902683N10006261WA000000182547
B1903491902677N10006257WA000000182192
B1903501902673N10006251WA000000181741
B1903511902670N10006244WA000000181543
B1903521902668N10006238WA000000181563
B1903531902666N10006232WA000000181565
B1903541902664N10006227WA000000181422
B1903551902661N10006221WA000000181277
B1903561902658N10006215WA000000180948
B1903571902655N10006210WA000000180671
B1903581902652N10006204WA000000180445
B1903591902649N10006199WA000000180405
B1904001902645N10006194WA000000180459
B1904011902641N10006190WA000000180394
B1904021902637N10006187WA000000180334
B1904031902632N10006186WA000000180118
B1904041902627N10006189WA000000180005
B1904051902624N10006195WA000000179845
B1904061902625N10006202WA000000179623
B1904071902629N10006208WA000000179416
B1904081902634N10006213WA000000179355
B1904091902639N10006218WA000000179420
B1904101902643N10006222WA000000179451
B1904111902646N10006226WA000000179568
B1904121902649N10006231WA000000179604
B1904131902650N10006235WA000000179557
B1904141902650N10006240WA000000179562
B1904151902648N10006244WA000000179205
B1904161902642N10006246WA000000178999
B1904171902636N10006246WA000000178534
B1904181902629N10006243WA000000178294
B1904191902624N10006239WA000000178236
B1904201902619N10006235WA000000178487
B1904211902616N10006232WA000000178634
B1904221902612N10006229WA000000178759
B1904231902608N10006229WA000000178730
B1904241902604N10006230WA000000178524
B1904251902600N10006234WA000000178294
B1904261902599N10006239WA000000178038
B1904271902598N10006245WA000000177842
B1904281902596N10006250WA000000177741
B1904291902592N10006254WA000000177660
B1904301902587N10006256WA000000177376
B1904311902582N10006258WA000000177230
B1904321902576N10006259WA000000177041
B1904331902571N10006259WA000000177047
B1904341902567N10006259WA000000177028
B1904351902563N10006259WA000000177159
B1904361902559N10006260WA000000176951
B1904371902555N10006261WA000000176622
B1904381902550N10006262WA000000176476
B1904391902547N10006263WA000000176324
B1904401902545N10006264WA000000176311
B1904411902543N10006264WA000000176236
B1904421902541N10006264WA000000176258
B1904431902540N10006265WA000000176260
B1904441902540N10006265WA000000176330
B1904451902539N10006265WA000000176295
B1904461902539N10006265WA000000176399
B1904471902540N10006265WA000000176209
B1904481902539N10006266WA000000176290
B1904491902539N10006265WA000000176277
B1904501902540N10006265WA000000176205
B1904511902539N10006265WA000000176231
B1904521902539N10006265WA000000176230
B1904531902539N10006264WA000000176276
B1904541902539N10006264WA000000176277
B1904551902539N10006264WA000000176298
B1904561902540N10006264WA000000176238
B1904571902540N10006265WA000000176295
B1904581902541N10006266WA000000176211
B1904591902541N10006266WA000000176214
LXCTFAICIVLCOMPLIANT false
G81CFD3B2D890747DD36BE53BB2C79D7376ABA577C4BD0EEA6EA884767216CB2A
G25F92713CE3059FD164012523AD03D3729D0B97E00A1D3FDEBB1C1537D6CD466
G3473FBBC5D2BD31361999CBBEAB10A2D93EAA08A719025E3EFFA9B6002C5E456
G190949E47BD1637AA5C96D3507FE4E6762CF1B890CB85ED35799160CD8730632
