AXCT1786bebe619c83f6
HFFTYFRTYPE:Google Pixel 7 13 Client:xctrack FlightId:c05836ab-f31d-409b-8458-eda66e576ac7
HFRFWFIRMWAREVERSION:0.9.8.7.1 LIVE:UNKNOWN
HFPLTPILOTINCHARGE:Josh Cohn
HOSITSite:Chamoux
HSCCLCOMPETITION CLASS:FAI-3 (PG)
HFGTYGLIDERTYPE:NIVIUK Icepeak X-One
HODTM100GPSDATUM:WGS-84
HFALPALTPRESSURE:ISA
HFALG:GEO
HFDTEDATE:170523,00
I023636LAD3737LOD
LXCTDEVICE eyJjYXBhYmlsaXRpZXMiOnsibWVtQ2xhc3MiOjI1NiwibWVtTGFyZ2VDbGFzcyI6N
LXCTDEVICE TEyLCJuYW4iOnRydWV9LCJkZXZpY2UiOnsiYW5kcm9pZElkIjoiMTc4NmJlYmU2MT
LXCTDEVICE ljODNmNiIsImJvYXJkIjoicGFudGhlciIsImJ1aWxkSWQiOiJUUTJBLjIzMDUwNS4
LXCTDEVICE wMDIiLCJjcHVBQkkiOiJhcm02NC12OGEiLCJjcHVBQkkyIjoiIiwiZGV2UXVldWVC
LXCTDEVICE dWlsZCI6ImYyM2FhZjE0OGU1ZmEwY2MwYTA1MDNlYTgxNjU5N2M5YmM0ODA4MGQiL
LXCTDEVICE CJkZXZpY2VTdHJpbmciOiJHb29nbGUgUGl4ZWwgNyAxMyIsImRpc3BsYXkiOnsiaC
LXCTDEVICE I6MjIwMSwibW0iOjE2LjUzNTQzMywidyI6MTA4MH0sImZpbmdlcnByaW50IjoiZ29
LXCTDEVICE vZ2xlL3BhbnRoZXIvcGFudGhlcjoxMy9UUTJBLjIzMDUwNS4wMDIvOTg5MTM5Nzp1
LXCTDEVICE c2VyL3JlbGVhc2Uta2V5cyIsImhhcmR3YXJlIjoicGFudGhlciIsIm1hbnVmYWN0d
LXCTDEVICE XJlciI6Ikdvb2dsZSIsIm1vZGVsIjoiUGl4ZWwgNyIsInByb2R1Y3QiOiJwYW50aG
LXCTDEVICE VyIiwic2RrIjozMywidGltZXpvbmUiOiJFdXJvcGUvUGFyaXMifSwieGN0cmFjayI
LXCTDEVICE 6eyJ2ZXJzaW9uQ29kZSI6OTA4NzEsInZlcnNpb25OYW1lIjoiMC45LjguNy4xIn19
B1508284531774N00615167EA012560128480
B1508294531774N00615167EA012560128490
B1508304531774N00615167EA012560128490
B1508314531774N00615166EA012560128498
B1508324531774N00615166EA012560128497
B1508334531774N00615166EA012560128496
B1508344531774N00615166EA012560128497
B1508354531775N00615166EA012560128406
B1508364531775N00615166EA012560128406
B1508374531774N00615166EA012560128493
B1508384531774N00615165EA012550128446
B1508394531773N00615164EA012550128359
B1508404531772N00615164EA012520128365
B1508414531771N00615163EA012530128284
B1508424531770N00615162EA012480128290
B1508434531769N00615158EA012480128149
B1508444531767N00615154EA012480127865
B1508454531765N00615148EA012490127638
B1508464531762N00615142EA012480127732
B1508474531759N00615135EA012460127653
B1508484531757N00615128EA012450127621
B1508494531755N00615120EA012460127645
B1508504531754N00615114EA012460127662
B1508514531754N00615107EA012460127508
B1508524531753N00615100EA012450127391
B1508534531753N00615090EA012430127389
B1508544531753N00615081EA012400127283
B1508554531753N00615072EA012390127357
B1508564531753N00615066EA012380127213
B1508574531752N00615061EA012380127240
B1508584531751N00615055EA012380127097
B1508594531751N00615049EA012370126954
B1509004531750N00615042EA012360126861
B1509014531748N00615034EA012340126857
B1509024531746N00615027EA012330126727
B1509034531744N00615021EA012320126735
B1509044531742N00615015EA012310126593
B1509054531741N00615009EA012310126451
B1509064531740N00615002EA012290126301
B1509074531738N00614994EA012270126252
B1509084531737N00614986EA012260126230
B1509094531736N00614978EA012260126144
B1509104531735N00614971EA012260126062
B1509114531734N00614963EA012250125876
B1509124531733N00614955EA012230125761
B1509134531732N00614945EA012210125753
B1509144531731N00614935EA012200125793
B1509154531731N00614925EA012200125789
B1509164531731N00614918EA012220125882
B1509174531731N00614912EA012240125881
B1509184531731N00614907EA012260125883
B1509194531731N00614903EA012290125892
B1509204531731N00614899EA012300125866
B1509214531729N00614896EA012300125792
B1509224531726N00614893EA012280125622
B1509234531721N00614892EA012260125612
B1509244531715N00614894EA012240125569
B1509254531711N00614900EA012230125512
B1509264531708N00614908EA012230125458
B1509274531707N00614919EA012240125586
B1509284531707N00614931EA012240125556
B1509294531708N00614941EA012250125590
B1509304531710N00614949EA012250125420
B1509314531711N00614956EA012250125447
B1509324531712N00614964EA012250125377
B1509334531714N00614972EA012240125469
B1509344531717N00614980EA012240125319
B1509354531720N00614988EA012240125460
B1509364531724N00614994EA012240125373
B1509374531729N00614999EA012240125339
B1509384531733N00615006EA012240125341
B1509394531736N00615013EA012230125208
B1509404531736N00615022EA012220125213
B1509414531733N00615030EA012210125081
B1509424531729N00615036EA012190124994
B1509434531724N00615038EA012170124632
B1509444531720N00615036EA012150124488
B1509454531717N00615035EA012130124053
B1509464531718N00615031EA012110124107
B1509484531724N00615013EA012130124468
B1509494531727N00615007EA012140124584
B1509504531729N00615001EA012160124569
B1509514531730N00614996EA012170124471
B1509524531731N00614989EA012170124459
B1509534531732N00614983EA012160124335
B1509544531733N00614976EA012160124319
B1509554531734N00614970EA012160124431
B1509564531735N00614962EA012160124396
B1509574531737N00614955EA012160124375
B1509584531739N00614947EA012160124393
B1509594531741N00614939EA012150124540
B1510004531742N00614932EA012160124695
B1510014531744N00614926EA012160124666
B1510024531746N00614921EA012160124740
B1510034531748N00614915EA012170124715
B1510044531749N00614910EA012170124892
B1510054531751N00614905EA012180124882
B1510064531754N00614900EA012180124805
B1510074531756N00614896EA012180124890
B1510084531760N00614891EA012170124878
B1510094531764N00614888EA012170124890
B1510104531769N00614884EA012170124814
B1510114531773N00614880EA012170124827
B1510124531777N00614876EA012170124807
B1510134531780N00614872EA012160124752
B1510144531783N00614866EA012160124759
B1510154531786N00614861EA012150124703
B1510164531787N00614855EA012150124795
B1510174531789N00614849EA012150124628
B1510184531790N00614844EA012150124622
B1510194531791N00614838EA012150124637
B1510204531792N00614832EA012150124648
B1510214531793N00614826EA012140124659
B1510224531794N00614821EA012140124510
B1510234531794N00614814EA012140124519
B1510244531793N00614808EA012130124547
B1510254531792N00614802EA012120124533
B1510264531791N00614796EA012120124521
B1510274531790N00614789EA012110124429
B1510284531789N00614783EA012120124447
B1510294531789N00614777EA012120124406
B1510304531788N00614771EA012120124462
B1510314531788N00614764EA012120124328
B1510324531787N00614758EA012110124381
B1510334531787N00614751EA012110124330
B1510344531786N00614743EA012100124275
B1510354531786N00614735EA012090124113
B1510364531785N00614726EA012070124197
B1510374531786N00614717EA012060124139
B1510384531787N00614710EA012060124100
B1510394531787N00614702EA012070124164
B1510404531787N00614695EA012070124093
B1510414531788N00614688EA012080124026
B1510424531788N00614682EA012080123940
B1510434531788N00614674EA012070123948
B1510444531788N00614666EA012060123818
B1510454531787N00614658EA012040123863
B1510464531787N00614649EA012030123826
B1510474531786N00614641EA012020123770
B1510484531786N00614632EA012010123649
B1510494531786N00614624EA012010123519
B1510504531785N00614616EA011990123484
B1510514531785N00614607EA011970123343
B1510524531785N00614597EA011950123204
B1510534531784N00614587EA011930123172
B1510544531784N00614576EA011910123158
B1510554531784N00614567EA011910123130
B1510564531783N00614558EA011920123183
B1510574531783N00614551EA011940123121
B1510584531782N00614544EA011960123196
B1510594531783N00614538EA011980123126
B1511004531784N00614533EA012000123130
B1511014531786N00614528EA012010123100
B1511024531788N00614523EA012020123123
B1511034531790N00614518EA012020123157
B1511044531792N00614514EA012020123264
B1511054531794N00614510EA012020123133
B1511064531795N00614505EA012020123189
B1511074531797N00614500EA012000123004
B1511084531797N00614493EA011980123063
B1511094531797N00614485EA011960123068
B1511104531797N00614478EA011950123036
B1511114531797N00614472EA011950122927
B1511124531797N00614467EA011960122874
B1511134531798N00614462EA011960122761
B1511144531799N00614456EA011950122785
B1511154531801N00614450EA011940122701
B1511164531801N00614444EA011940122691
B1511174531802N00614438EA011930122662
B1511184531802N00614433EA011930122590
B1511194531802N00614427EA011930122595
B1511204531802N00614421EA011930122563
B1511214531802N00614415EA011930122511
B1511224531801N00614408EA011930122659
B1511234531801N00614403EA011940122604
B1511244531800N00614398EA011950122652
B1511254531800N00614393EA011960122621
B1511264531800N00614388EA011970122641
B1511274531801N00614382EA011970122619
B1511284531802N00614377EA011970122667
B1511294531804N00614371EA011970122689
B1511304531807N00614366EA011960122501
B1511314531808N00614360EA011950122573
B1511324531809N00614354EA011930122557
B1511334531809N00614348EA011930122528
B1511344531807N00614343EA011920122572
B1511354531805N00614338EA011910122560
B1511364531802N00614333EA011910122567
B1511374531798N00614330EA011920122499
B1511384531794N00614329EA011920122326
B1511394531789N00614330EA011910122406
B1511404531784N00614333EA011910122404
B1511414531780N00614337EA011920122405
B1511424531776N00614341EA011920122365
B1511434531773N00614345EA011930122365
B1511444531770N00614349EA011930122288
B1511454531767N00614353EA011920122168
B1511464531763N00614357EA011910122174
B1511474531759N00614359EA011900122038
B1511484531754N00614360EA011890121970
B1511494531750N00614358EA011880121900
B1511504531745N00614353EA011860121795
B1511514531742N00614346EA011840121696
B1511524531741N00614337EA011820121553
B1511534531742N00614328EA011810121393
B1511544531746N00614320EA011790121162
B1511554531753N00614315EA011770121061
B1511564531761N00614312EA011770120907
B1511574531767N00614311EA011780120843
B1511584531773N00614309EA011780120828
B1511594531778N00614308EA011790120710
B1512004531782N00614306EA011800120779
B1512014531787N00614307EA011790120672
B1512024531793N00614309EA011780120631
B1512034531799N00614311EA011770120559
B1512044531805N00614313EA011760120558
B1512054531811N00614314EA011750120423
B1512064531816N00614314EA011740120482
B1512074531822N00614314EA011740120432
B1512084531827N00614314EA011730120452
B1512094531832N00614313EA011730120374
B1512104531837N00614311EA011720120262
B1512114531842N00614307EA011710120257
B1512124531847N00614304EA011700120230
B1512134531851N00614300EA011700120183
B1512144531856N00614296EA011710120106
B1512154531859N00614292EA011700120093
B1512164531863N00614287EA011700120013
B1512174531865N00614281EA011690120076
B1512184531867N00614275EA011690119946
B1512194531867N00614269EA011680119977
B1512204531866N00614264EA011680119951
B1512214531863N00614259EA011670119888
B1512224531859N00614257EA011660119753
B1512234531855N00614256EA011650119721
B1512244531851N00614256EA011650119644
B1512254531848N00614259EA011650119326
B1512264531847N00614263EA011650118944
B1512274531847N00614272EA011660118814
B1512284531847N00614283EA011670118934
B1512294531848N00614292EA011670119037
B1512304531850N00614303EA011680119022
B1512314531852N00614314EA011680119041
B1512324531855N00614324EA011670119138
B1512334531859N00614334EA011660119215
B1512344531863N00614341EA011660119183
B1512354531869N00614345EA011650119196
B1512364531876N00614346EA011640119099
B1512374531884N00614345EA011630119002
B1512384531890N00614340EA011610118969
B1512394531894N00614334EA011600118970
B1512404531895N00614325EA011590118729
B1512414531893N00614318EA011600118769
B1512424531890N00614313EA011600118874
B1512434531887N00614309EA011600118809
B1512444531883N00614307EA011600118807
B1512454531878N00614307EA011600118981
B1512464531874N00614307EA011600118967
B1512474531870N00614309EA011610118978
B1512484531866N00614313EA011610118991
B1512494531863N00614316EA011600118928
B1512504531859N00614320EA011600118936
B1512514531855N00614324EA011600119053
B1512524531851N00614327EA011600119079
B1512534531848N00614331EA011600119021
B1512544531844N00614334EA011600119084
B1512554531841N00614337EA011600119005
B1512564531837N00614340EA011590119022
B1512574531833N00614342EA011590119024
B1512584531829N00614344EA011580119003
B1512594531824N00614346EA011570118962
B1513004531820N00614348EA011560118930
B1513014531816N00614349EA011550118905
B1513024531811N00614351EA011550118990
B1513034531808N00614352EA011550118908
B1513044531804N00614354EA011550118817
B1513054531800N00614356EA011550118846
B1513064531796N00614357EA011550118786
B1513074531793N00614356EA011550118606
B1513084531790N00614352EA011540118545
B1513094531787N00614345EA011530118497
B1513104531786N00614338EA011530118428
B1513114531786N00614331EA011520118520
B1513124531787N00614323EA011530118425
B1513134531790N00614317EA011540118646
B1513144531795N00614313EA011540118602
B1513154531801N00614309EA011540118439
B1513164531808N00614307EA011540118374
B1513174531816N00614306EA011530118284
B1513184531825N00614308EA011530118170
B1513194531833N00614311EA011530118156
B1513204531839N00614315EA011530118079
B1513214531845N00614319EA011530118038
B1513224531851N00614322EA011510117911
B1513234531857N00614322EA011500117892
B1513244531865N00614321EA011490117911
B1513254531871N00614319EA011480117878
B1513264531877N00614318EA011480117708
B1513274531881N00614316EA011480117647
B1513284531885N00614312EA011470117435
B1513294531888N00614306EA011460117308
B1513304531888N00614297EA011440117379
B1513314531886N00614288EA011420117275
B1513324531883N00614281EA011400117118
B1513334531878N00614275EA011410117091
B1513344531875N00614271EA011420117413
B1513354531869N00614272EA011430117692
B1513364531864N00614273EA011440117699
B1513374531860N00614275EA011460117619
B1513384531855N00614278EA011460117630
B1513394531849N00614280EA011450117692
B1513404531845N00614281EA011440117608
B1513414531840N00614283EA011450117776
B1513424531837N00614285EA011460117707
B1513434531833N00614288EA011460117761
B1513444531830N00614290EA011470117626
B1513454531826N00614293EA011460117641
B1513464531822N00614295EA011450117617
B1513474531817N00614298EA011440117634
B1513484531812N00614301EA011430117653
B1513494531807N00614304EA011430117673
B1513504531802N00614306EA011430117688
B1513514531798N00614308EA011430117607
B1513524531793N00614310EA011440117611
B1513534531788N00614311EA011440117615
B1513544531783N00614313EA011440117641
B1513554531778N00614314EA011450117799
B1513564531774N00614317EA011450117640
B1513574531769N00614319EA011450117683
B1513584531765N00614321EA011450117728
B1513594531760N00614324EA011450117747
B1514004531755N00614328EA011450117681
B1514014531751N00614331EA011440117629
B1514024531746N00614335EA011440117678
B1514034531742N00614339EA011440117627
B1514044531737N00614343EA011440117676
B1514054531733N00614347EA011440117633
B1514064531729N00614350EA011440117616
B1514074531724N00614353EA011440117686
B1514084531720N00614356EA011430117654
B1514094531716N00614359EA011430117521
B1514104531711N00614361EA011420117597
B1514114531707N00614364EA011410117452
B1514124531702N00614366EA011400117387
B1514134531697N00614368EA011380117257
B1514144531691N00614369EA011360117196
B1514154531686N00614369EA011340117000
B1514164531680N00614367EA011330116900
B1514174531674N00614364EA011300116806
B1514184531668N00614361EA011300116738
B1514194531662N00614359EA011300116680
B1514204531657N00614355EA011300116569
B1514214531652N00614352EA011300116563
B1514224531647N00614348EA011290116473
B1514234531642N00614343EA011290116374
B1514244531638N00614337EA011280116409
B1514254531633N00614332EA011290116473
B1514264531630N00614327EA011300116357
B1514274531627N00614323EA011310116385
B1514284531625N00614319EA011330116254
B1514294531623N00614314EA011330116276
B1514304531622N00614308EA011330116158
B1514314531622N00614301EA011320116147
B1514324531623N00614294EA011300116082
B1514334531627N00614287EA011290115922
B1514344531632N00614281EA011280115839
B1514354531638N00614279EA011280115612
B1514364531644N00614278EA011270115588
B1514374531651N00614280EA011270115584
B1514384531658N00614283EA011270115642
B1514394531664N00614286EA011270115623
B1514404531669N00614289EA011280115659
B1514414531674N00614294EA011280115626
B1514424531678N00614301EA011280115551
B1514434531682N00614309EA011270115504
B1514444531684N00614318EA011260115537
B1514454531685N00614328EA011250115528
B1514464531684N00614337EA011250115457
B1514474531683N00614345EA011240115304
B1514484531680N00614351EA011240115228
B1514494531676N00614357EA011230115362
B1514504531671N00614361EA011220115167
B1514514531666N00614363EA011210115039
B1514524531661N00614363EA011200114914
B1514534531656N00614360EA011190114731
B1514544531652N00614355EA011190114637
B1514554531649N00614351EA011190114790
B1514564531647N00614346EA011190114874
B1514574531646N00614339EA011190114982
B1514584531645N00614330EA011190114997
B1514594531646N00614323EA011190114869
B1515004531648N00614318EA011180114690
B1515014531651N00614312EA011170114431
B1515024531657N00614306EA011160114237
B1515034531665N00614302EA011160114005
B1515044531673N00614299EA011160114043
B1515054531681N00614297EA011160114036
B1515064531688N00614297EA011170114173
B1515074531695N00614298EA011170114173
B1515084531702N00614301EA011170114091
B1515094531709N00614306EA011160114197
B1515104531715N00614314EA011150114244
B1515114531719N00614323EA011150114212
B1515124531720N00614332EA011150114292
B1515134531721N00614340EA011150114229
B1515144531720N00614348EA011150114219
B1515154531718N00614356EA011140114208
B1515164531715N00614363EA011130114205
B1515174531710N00614368EA011130114192
B1515184531706N00614371EA011110113910
B1515194531701N00614371EA011100113824
B1515204531696N00614369EA011090113817
B1515214531691N00614366EA011080113888
B1515224531687N00614363EA011070113893
B1515234531684N00614359EA011070113780
B1515244531682N00614354EA011060113702
B1515254531679N00614348EA011060113669
B1515264531677N00614342EA011050113657
B1515274531676N00614336EA011050113612
B1515284531675N00614329EA011040113671
B1515294531676N00614321EA011040113677
B1515304531678N00614315EA011030113562
B1515314531681N00614309EA011040113504
B1515324531683N00614304EA011040113474
B1515334531686N00614299EA011030113499
B1515344531691N00614295EA011020113349
B1515354531696N00614293EA011010113370
B1515364531702N00614291EA011000113252
B1515374531708N00614290EA010990113222
B1515384531713N00614289EA011000113142
B1515394531718N00614287EA011000113149
B1515404531723N00614286EA011000113146
B1515414531728N00614285EA011010113269
B1515424531733N00614286EA011020113260
B1515434531738N00614287EA011030113150
B1515444531743N00614288EA011030113235
B1515454531748N00614289EA011030113238
B1515464531753N00614290EA011030113241
B1515474531759N00614288EA011020113105
B1515484531764N00614285EA011020113141
B1515494531769N00614280EA011010113258
B1515504531774N00614277EA011020113231
B1515514531778N00614274EA011040113317
B1515524531781N00614273EA011060113390
B1515534531785N00614271EA011070113342
B1515544531788N00614268EA011080113396
B1515554531792N00614264EA011070113367
B1515564531796N00614259EA011060113424
B1515574531799N00614253EA011050113404
B1515584531800N00614247EA011050113375
B1515594531800N00614241EA011060113388
B1516004531799N00614236EA011050113324
B1516014531796N00614231EA011050113324
B1516024531791N00614227EA011040113358
B1516034531786N00614227EA011030113222
B1516044531780N00614229EA011030113197
B1516054531776N00614235EA011020113073
B1516064531773N00614244EA011010112997
B1516074531772N00614255EA011000112991
B1516084531773N00614264EA011000112928
B1516094531774N00614273EA011010113002
B1516104531774N00614280EA011020113025
B1516114531773N00614287EA011020112972
B1516124531771N00614294EA011030113080
B1516134531769N00614300EA011030113015
B1516144531766N00614306EA011040113149
B1516154531763N00614312EA011040113148
B1516164531759N00614317EA011050113155
B1516174531754N00614321EA011050113180
B1516184531749N00614323EA011050113286
B1516194531745N00614325EA011050113223
B1516204531740N00614325EA011050113288
B1516214531736N00614324EA011050113192
B1516224531733N00614319EA011040113165
B1516234531731N00614312EA011030113068
B1516244531731N00614305EA011020113031
B1516254531732N00614298EA011010112894
B1516264531736N00614293EA011000112752
B1516274531741N00614289EA010990112699
B1516284531748N00614288EA010980112537
B1516294531754N00614289EA010980112699
B1516304531760N00614292EA010990112692
B1516314531766N00614293EA010990112627
B1516324531771N00614294EA011000112540
B1516334531776N00614292EA011000112578
B1516344531782N00614290EA010990112521
B1516354531787N00614286EA010990112558
B1516364531792N00614283EA010980112576
B1516374531797N00614279EA010980112439
B1516384531801N00614275EA010970112314
B1516394531803N00614269EA010960112362
B1516404531805N00614261EA010950112359
B1516414531807N00614255EA010940112351
B1516424531810N00614249EA010940112253
B1516434531814N00614244EA010940112225
B1516444531818N00614240EA010940112244
B1516454531822N00614236EA010950112299
B1516464531827N00614234EA010950112261
B1516474531832N00614231EA010950112256
B1516484531837N00614229EA010950112241
B1516494531842N00614226EA010950112223
B1516504531846N00614223EA010950112291
B1516514531851N00614219EA010950112214
B1516524531855N00614215EA010950112200
B1516534531857N00614209EA010950112296
B1516544531859N00614203EA010940112185
B1516554531860N00614196EA010940112139
B1516564531859N00614190EA010930112123
B1516574531856N00614184EA010920112183
B1516584531853N00614180EA010920112131
B1516594531848N00614178EA010920112082
B1517004531843N00614178EA010920111983
B1517014531838N00614180EA010910111858
B1517024531834N00614187EA010900111700
B1517034531830N00614195EA010900111816
B1517044531827N00614204EA010900111895
B1517054531826N00614212EA010900111866
B1517064531825N00614220EA010910111822
B1517074531823N00614227EA010910111742
B1517084531821N00614233EA010910111709
B1517094531818N00614240EA010910111723
B1517104531814N00614246EA010900111794
B1517114531811N00614252EA010890111735
B1517124531808N00614258EA010890111706
B1517134531804N00614264EA010890111785
B1517144531801N00614270EA010880111643
B1517154531797N00614276EA010870111662
B1517164531793N00614281EA010870111758
B1517174531789N00614287EA010870111753
B1517184531785N00614292EA010870111775
B1517194531782N00614297EA010880111723
B1517204531778N00614301EA010880111779
B1517214531775N00614305EA010890111739
B1517224531771N00614309EA010890111796
B1517234531768N00614313EA010880111630
B1517244531764N00614316EA010870111621
B1517254531759N00614318EA010860111658
B1517264531754N00614321EA010850111653
B1517274531749N00614324EA010840111650
B1517284531744N00614327EA010840111670
B1517294531740N00614330EA010840111524
B1517304531735N00614334EA010840111581
B1517314531731N00614337EA010850111558
B1517324531727N00614342EA010840111511
B1517334531722N00614347EA010840111490
B1517344531719N00614352EA010840111527
B1517354531716N00614359EA010850111521
B1517364531713N00614365EA010850111557
B1517374531710N00614372EA010840111480
B1517384531707N00614377EA010840111485
B1517394531704N00614381EA010840111337
B1517404531700N00614384EA010830111325
B1517414531695N00614385EA010810111131
B1517424531691N00614383EA010800111011
B1517434531687N00614377EA010780110828
B1517444531684N00614371EA010770110637
B1517454531682N00614365EA010760110564
B1517464531683N00614357EA010760110721
B1517474531686N00614351EA010770110950
B1517484531690N00614346EA010770110894
B1517494531696N00614343EA010770110701
B1517504531701N00614340EA010770110721
B1517514531706N00614336EA010770110644
B1517524531711N00614331EA010750110685
B1517534531716N00614326EA010740110611
B1517544531720N00614320EA010730110515
B1517554531723N00614315EA010730110583
B1517564531727N00614310EA010730110556
B1517574531731N00614306EA010740110435
B1517584531735N00614302EA010740110417
B1517594531738N00614298EA010740110497
B1518004531742N00614294EA010740110382
B1518014531747N00614289EA010730110319
B1518024531751N00614286EA010730110370
B1518034531756N00614282EA010720110343
B1518044531760N00614278EA010720110394
B1518054531765N00614274EA010720110313
B1518064531769N00614269EA010720110219
B1518074531773N00614265EA010720110233
B1518084531777N00614260EA010710110186
B1518094531782N00614255EA010700110159
B1518104531787N00614251EA010700110133
B1518114531791N00614246EA010700110199
B1518124531796N00614242EA010700110137
B1518134531800N00614238EA010710110116
B1518144531803N00614234EA010710110082
B1518154531807N00614229EA010710110067
B1518164531811N00614224EA010710110059
B1518174531815N00614219EA010710110048
B1518184531819N00614215EA010700110050
B1518194531823N00614210EA010700109993
B1518204531828N00614205EA010690110034
B1518214531832N00614200EA010690110064
B1518224531836N00614195EA010700110067
B1518234531840N00614190EA010700109948
B1518244531844N00614185EA010700109907
B1518254531847N00614180EA010690109851
B1518264531850N00614174EA010690109892
B1518274531853N00614168EA010680109780
B1518284531856N00614161EA010670109715
B1518294531857N00614154EA010660109644
B1518304531857N00614146EA010650109688
B1518314531857N00614139EA010640109532
B1518324531856N00614132EA010640109511
B1518334531854N00614125EA010640109596
B1518344531853N00614119EA010640109484
B1518354531852N00614113EA010630109492
B1518364531851N00614107EA010630109391
B1518374531850N00614100EA010620109336
B1518384531848N00614094EA010620109321
B1518394531845N00614087EA010610109487
B1518404531843N00614082EA010620109430
B1518414531840N00614077EA010630109480
B1518424531838N00614072EA010640109452
B1518434531836N00614067EA010650109444
B1518444531834N00614062EA010650109436
B1518454531831N00614057EA010640109480
B1518464531829N00614050EA010630109307
B1518474531826N00614043EA010610109228
B1518484531823N00614036EA010590109252
B1518494531820N00614028EA010570109294
B1518504531818N00614021EA010570109263
B1518514531816N00614015EA010580109275
B1518524531814N00614010EA010590109196
B1518534531813N00614006EA010590108903
B1518544531810N00614001EA010580108952
B1518554531807N00613995EA010570108872
B1518564531804N00613988EA010550108835
B1518574531801N00613981EA010530108808
B1518584531797N00613975EA010520108796
B1518594531795N00613969EA010530108729
B1519004531792N00613965EA010530108741
B1519014531789N00613960EA010540108677
B1519024531787N00613956EA010540108613
B1519034531784N00613951EA010540108565
B1519044531782N00613945EA010530108419
B1519054531779N00613939EA010520108477
B1519064531777N00613933EA010510108461
B1519074531775N00613926EA010500108396
B1519084531774N00613920EA010500108336
B1519094531772N00613915EA010500108241
B1519104531770N00613910EA010500108232
B1519114531768N00613905EA010490108120
B1519124531766N00613899EA010480108024
B1519134531764N00613893EA010470108054
B1519144531762N00613887EA010460107962
B1519154531760N00613881EA010460107981
B1519164531758N00613875EA010460107896
B1519174531756N00613870EA010460107862
B1519184531754N00613865EA010460107712
B1519194531751N00613860EA010450107771
B1519204531749N00613854EA010450107764
B1519214531747N00613848EA010450107667
B1519224531745N00613843EA010440107643
B1519234531742N00613838EA010440107574
B1519244531739N00613833EA010440107575
B1519254531736N00613828EA010440107509
B1519264531731N00613824EA010430107468
B1519274531726N00613821EA010420107461
B1519284531721N00613817EA010420107408
B1519294531714N00613816EA010410107490
B1519304531709N00613816EA010420107412
B1519314531703N00613818EA010430107475
B1519324531698N00613822EA010440107481
B1519334531694N00613826EA010440107303
B1519344531689N00613830EA010430107318
B1519354531684N00613836EA010420107301
B1519364531679N00613842EA010410107235
B1519374531675N00613849EA010400107237
B1519384531672N00613857EA010400107256
B1519394531670N00613865EA010400107127
B1519404531667N00613873EA010400107195
B1519414531665N00613881EA010400107075
B1519424531663N00613889EA010390107088
B1519434531662N00613898EA010390106969
B1519444531661N00613908EA010380106995
B1519454531661N00613918EA010370106951
B1519464531661N00613926EA010370106969
B1519474531661N00613934EA010380106894
B1519484531662N00613940EA010390106867
B1519494531663N00613947EA010390106742
B1519504531664N00613954EA010380106756
B1519514531665N00613962EA010370106668
B1519524531666N00613971EA010360106692
B1519534531668N00613979EA010350106500
B1519544531669N00613986EA010350106507
B1519554531670N00613994EA010340106425
B1519564531671N00614002EA010330106365
B1519574531673N00614010EA010320106247
B1519584531676N00614018EA010300106106
B1519594531679N00614026EA010290106144
B1520004531683N00614033EA010270106092
B1520014531689N00614039EA010250105940
B1520024531695N00614042EA010240105918
B1520034531701N00614044EA010230105857
B1520044531707N00614045EA010230105667
B1520054531713N00614046EA010230105561
B1520064531719N00614046EA010230105541
B1520074531725N00614045EA010230105425
B1520084531730N00614044EA010230105367
B1520094531735N00614043EA010230105384
B1520104531740N00614041EA010230105284
B1520114531745N00614038EA010220105155
B1520124531750N00614034EA010220105105
B1520134531754N00614029EA010200105058
B1520144531758N00614024EA010200105079
B1520154531762N00614020EA010190104950
B1520164531765N00614015EA010190104850
B1520174531768N00614009EA010180104747
B1520184531771N00614004EA010170104652
B1520194531774N00613998EA010160104683
B1520204531777N00613992EA010150104676
B1520214531779N00613987EA010160104692
B1520224531780N00613982EA010160104582
B1520234531780N00613977EA010160104424
B1520244531778N00613972EA010150104324
B1520254531774N00613967EA010130104247
B1520264531769N00613964EA010110104231
B1520274531763N00613961EA010100104189
B1520284531759N00613960EA010100104114
B1520294531755N00613959EA010110104103
B1520304531751N00613958EA010110104024
B1520314531747N00613957EA010110103939
B1520324531742N00613958EA010110103990
B1520334531738N00613957EA010100103929
B1520344531733N00613957EA010090103958
B1520354531729N00613957EA010090103917
B1520364531724N00613957EA010090103865
B1520374531720N00613957EA010080103804
B1520384531715N00613957EA010070103836
B1520394531710N00613957EA010070103779
B1520404531706N00613958EA010060103612
B1520414531701N00613958EA010060103630
B1520424531696N00613957EA010040103540
B1520434531691N00613954EA010040103559
B1520444531687N00613951EA010030103433
B1520454531684N00613947EA010020103300
B1520464531681N00613941EA010010103250
B1520474531679N00613934EA010000103290
B1520484531679N00613926EA009990103126
B1520494531679N00613919EA009980103118
B1520504531679N00613913EA009980103054
B1520514531680N00613907EA009980102924
B1520524531681N00613901EA009970102725
B1520534531682N00613895EA009960102664
B1520544531684N00613889EA009940102602
B1520554531685N00613882EA009930102548
B1520564531686N00613876EA009910102461
B1520574531687N00613868EA009890102359
B1520584531688N00613861EA009870102113
B1520594531688N00613852EA009850102087
B1521004531689N00613843EA009830102077
B1521014531690N00613834EA009820101978
B1521024531691N00613826EA009830101876
B1521034531692N00613819EA009840101853
B1521044531693N00613812EA009850101718
B1521054531693N00613806EA009860101646
B1521064531693N00613800EA009850101522
B1521074531692N00613793EA009840101584
B1521084531692N00613785EA009830101489
B1521094531693N00613778EA009810101371
B1521104531695N00613770EA009800101275
B1521114531698N00613763EA009780101132
B1521124531701N00613756EA009770101052
B1521134531705N00613749EA009750100938
B1521144531709N00613743EA009740100878
B1521154531714N00613738EA009730100854
B1521164531719N00613734EA009740100761
B1521174531725N00613731EA009740100618
B1521184531731N00613731EA009750100525
B1521194531737N00613732EA009740100387
B1521204531744N00613736EA009730100385
B1521214531751N00613742EA009710100282
B1521224531758N00613749EA009690100110
B1521234531763N00613755EA009680100064
B1521244531768N00613761EA009670099976
B1521254531774N00613767EA009660099804
B1521264531779N00613773EA009640099670
B1521274531785N00613778EA009620099570
B1521284531792N00613782EA009600099423
B1521294531798N00613785EA009580099467
B1521304531805N00613788EA009570099311
B1521314531811N00613790EA009570099242
B1521324531817N00613791EA009570099069
B1521334531823N00613794EA009570098980
B1521344531830N00613796EA009560098816
B1521354531836N00613799EA009560098727
B1521364531841N00613803EA009550098694
B1521374531847N00613807EA009540098579
B1521384531853N00613813EA009520098407
B1521394531857N00613820EA009510098499
B1521404531861N00613829EA009500098228
B1521414531862N00613839EA009480098176
B1521424531862N00613849EA009470097968
B1521434531861N00613859EA009450097973
B1521444531860N00613867EA009450097867
B1521454531859N00613875EA009460097746
B1521464531858N00613883EA009460097722
B1521474531857N00613890EA009460097678
B1521484531857N00613899EA009460097670
B1521494531857N00613907EA009460097640
B1521504531856N00613914EA009460097673
B1521514531855N00613920EA009470097657
B1521524531853N00613926EA009470097587
B1521534531851N00613932EA009460097544
B1521544531848N00613938EA009460097544
B1521554531845N00613944EA009460097649
B1521564531842N00613951EA009460097694
B1521574531840N00613957EA009470097662
B1521584531838N00613962EA009480097634
B1521594531835N00613967EA009480097682
B1522004531833N00613972EA009480097523
B1522014531830N00613978EA009470097552
B1522024531827N00613984EA009460097574
B1522034531824N00613990EA009440097454
B1522044531821N00613996EA009430097401
B1522054531817N00614002EA009420097441
B1522064531813N00614008EA009410097484
B1522074531810N00614014EA009410097446
B1522084531807N00614020EA009420097523
B1522094531804N00614025EA009430097523
B1522104531801N00614029EA009440097648
B1522114531798N00614034EA009460097685
B1522124531796N00614039EA009470097650
B1522134531794N00614043EA009480097616
B1522144531791N00614047EA009470097636
B1522154531787N00614050EA009470097590
B1522164531783N00614049EA009460097482
B1522174531780N00614044EA009450097242
B1522184531777N00614036EA009430097188
B1522194531775N00614026EA009420097178
B1522204531776N00614018EA009420097283
B1522214531781N00614010EA009410097136
B1522224531788N00614006EA009420097119
B1522234531794N00614004EA009430097191
B1522244531801N00614000EA009440097089
B1522254531807N00613996EA009450097043
B1522264531812N00613991EA009450097060
B1522274531817N00613985EA009450097128
B1522284531821N00613980EA009450097169
B1522294531825N00613975EA009440097178
B1522304531829N00613970EA009440097100
B1522314531831N00613963EA009430097061
B1522324531833N00613955EA009420097021
B1522334531834N00613946EA009410097015
B1522344531834N00613938EA009400097093
B1522354531836N00613931EA009400097011
B1522364531838N00613925EA009400096910
B1522374531840N00613919EA009410096958
B1522384531842N00613915EA009410096820
B1522394531842N00613909EA009400096771
B1522404531842N00613901EA009380096607
B1522414531840N00613893EA009360096662
B1522424531839N00613884EA009340096551
B1522434531839N00613874EA009330096538
B1522444531840N00613866EA009320096539
B1522454531841N00613860EA009330096566
B1522464531842N00613855EA009350096472
B1522474531843N00613849EA009350096338
B1522484531843N00613843EA009340096345
B1522494531843N00613836EA009330096210
B1522504531843N00613827EA009310096118
B1522514531843N00613819EA009280096046
B1522524531844N00613811EA009270095907
B1522534531844N00613804EA009250095771
B1522544531845N00613796EA009230095635
B1522554531845N00613789EA009200095480
B1522564531846N00613781EA009180095343
B1522574531847N00613773EA009170095234
B1522584531848N00613765EA009140095181
B1522594531850N00613756EA009120094978
B1523004531852N00613748EA009100094856
B1523014531853N00613740EA009090094796
B1523024531854N00613732EA009080094576
B1523034531855N00613724EA009070094454
B1523044531856N00613716EA009050094253
B1523054531858N00613708EA009040094000
B1523064531859N00613699EA009020093979
B1523074531861N00613692EA009010093846
B1523084531863N00613685EA009000093628
B1523094531865N00613679EA008990093511
B1523104531867N00613671EA008960093325
B1523114531868N00613663EA008940093296
B1523124531870N00613655EA008930093126
B1523134531871N00613648EA008920092957
B1523144531873N00613642EA008920092700
B1523154531874N00613635EA008910092550
B1523164531875N00613627EA008900092486
B1523174531877N00613619EA008880092369
B1523184531880N00613612EA008860092233
B1523194531883N00613605EA008840092055
B1523204531886N00613598EA008820091837
B1523214531888N00613591EA008800091766
B1523224531890N00613584EA008780091570
B1523234531893N00613575EA008740091314
B1523244531896N00613566EA008700091354
B1523254531899N00613557EA008680091284
B1523264531902N00613549EA008680091235
B1523274531904N00613542EA008690091024
B1523284531906N00613535EA008700090818
B1523294531908N00613529EA008680090763
B1523304531911N00613521EA008660090678
B1523314531915N00613513EA008630090534
B1523324531918N00613504EA008600090563
B1523334531922N00613494EA008570090328
B1523344531925N00613486EA008560090263
B1523354531929N00613478EA008560090005
B1523364531932N00613470EA008540089864
B1523374531936N00613461EA008520089783
B1523384531940N00613451EA008490089690
B1523394531944N00613439EA008450089578
B1523404531948N00613428EA008430089447
B1523414531952N00613418EA008420089200
B1523424531955N00613408EA008400089053
B1523434531959N00613398EA008400088827
B1523444531962N00613389EA008400088795
B1523454531966N00613380EA008390088679
B1523464531970N00613372EA008380088443
B1523474531974N00613363EA008370088313
B1523484531978N00613354EA008350088204
B1523494531982N00613345EA008330088015
B1523504531985N00613336EA008320087995
B1523514531989N00613327EA008300087755
B1523524531993N00613318EA008280087624
B1523534531996N00613309EA008260087473
B1523544532000N00613300EA008240087263
B1523554532005N00613290EA008210087127
B1523564532010N00613280EA008160086946
B1523574532016N00613270EA008110086810
B1523584532022N00613259EA008090086736
B1523594532029N00613249EA008070086605
B1524004532035N00613240EA008060086491
B1524014532043N00613230EA008050086209
B1524024532049N00613221EA008020085956
B1524034532055N00613212EA008000085745
B1524044532060N00613203EA007980085499
B1524054532066N00613195EA007960085297
B1524064532073N00613187EA007930084928
B1524074532079N00613179EA007910084758
B1524084532086N00613170EA007880084509
B1524094532092N00613162EA007860084350
B1524104532099N00613153EA007830084142
B1524114532106N00613145EA007810083990
B1524124532114N00613137EA007800083753
B1524134532122N00613129EA007800083416
B1524144532129N00613121EA007800083234
B1524154532135N00613112EA007790083100
B1524164532138N00613102EA007780082843
B1524174532139N00613093EA007770082554
B1524184532138N00613083EA007750082496
B1524194532137N00613073EA007730082324
B1524204532135N00613063EA007710082226
B1524214532133N00613053EA007690082063
B1524224532132N00613042EA007660081968
B1524234532132N00613032EA007630081700
B1524244532131N00613021EA007610081621
B1524254532129N00613010EA007580081594
B1524264532127N00612999EA007560081395
B1524274532125N00612989EA007560081184
B1524284532123N00612979EA007560080958
B1524294532121N00612970EA007540080750
B1524304532119N00612959EA007510080569
B1524314532117N00612948EA007480080389
B1524324532115N00612937EA007440080298
B1524334532113N00612926EA007400080085
B1524344532111N00612915EA007360079896
B1524354532109N00612904EA007320079695
B1524364532107N00612893EA007280078671
B1524374532105N00612882EA007240078361
B1524384532103N00612872EA007210078090
B1524394532102N00612861EA007170077772
B1524404532101N00612849EA007130077370
B1524414532100N00612835EA007090077089
B1524424532100N00612824EA007060076711
B1524434532099N00612812EA007040076433
B1524444532098N00612800EA007040076136
B1524454532097N00612788EA007040075738
B1524464532096N00612777EA007030075597
B1524474532096N00612766EA007010075388
B1524484532097N00612755EA006980075223
B1524494532098N00612743EA006940075285
B1524504532101N00612731EA006910075086
B1524514532107N00612720EA006880074749
B1524524532114N00612715EA006830074473
B1524534532121N00612710EA006770074089
B1524544532129N00612705EA006700074040
B1524564532144N00612701EA006640073700
B1524574532154N00612715EA006660073646
B1524594532180N00612749EA006710073638
B1525004532188N00612762EA006730073601
B1525014532194N00612774EA006710073347
B1525024532201N00612788EA006680072510
B1525034532210N00612805EA006630071826
B1525044532217N00612823EA006560071493
B1525054532226N00612843EA006510070809
B1525064532232N00612861EA006460070385
B1525074532239N00612880EA006440069804
B1525084532244N00612913EA006450069610
B1525094532247N00612938EA006440069312
B1525104532252N00612953EA006430068868
B1525114532257N00612968EA006410068282
B1525124532263N00612982EA006370067718
B1525134532268N00612997EA006340067315
B1525144532273N00613012EA006300066911
B1525154532278N00613026EA006260066606
B1525164532282N00613041EA006230066386
B1525174532288N00613054EA006200066149
B1525184532296N00613063EA006200065855
B1525194532307N00613067EA006180065144
B1525204532317N00613060EA006140064298
B1525214532326N00613051EA006070063480
B1525224532334N00613040EA006000062801
B1525234532332N00613021EA005970062926
B1525244532331N00613008EA005990063427
B1525254532332N00612999EA006020063607
B1525264532333N00612991EA006050063738
B1525274532335N00612984EA006060063664
B1525284532338N00612976EA006050063311
B1525294532341N00612966EA006020063038
B1525304532344N00612956EA005990062796
B1525314532348N00612946EA005950062370
B1525324532352N00612934EA005900062159
B1525334532356N00612923EA005850061907
B1525344532359N00612912EA005810061838
B1525354532362N00612902EA005800061833
B1525364532365N00612892EA005820061737
B1525374532368N00612883EA005820061553
B1525384532372N00612874EA005800061211
B1525394532375N00612863EA005760060889
B1525404532379N00612852EA005730060498
B1525414532384N00612841EA005700060115
B1525424532388N00612830EA005650059954
B1525434532393N00612820EA005620059811
B1525444532397N00612810EA005600059646
B1525454532401N00612801EA005600059456
B1525464532405N00612792EA005590059188
B1525474532410N00612783EA005570058848
B1525484532415N00612774EA005530058434
B1525494532420N00612764EA005500058126
B1525504532425N00612754EA005470057937
B1525514532430N00612745EA005450057743
B1525524532435N00612736EA005430057642
B1525534532440N00612727EA005440057444
B1525544532445N00612718EA005420057131
B1525554532450N00612708EA005390056959
B1525564532456N00612699EA005350056822
B1525574532462N00612689EA005310056722
B1525584532468N00612679EA005280056513
B1525594532473N00612669EA005240056485
B1526004532479N00612660EA005210056240
B1526014532484N00612650EA005180056057
B1526024532489N00612641EA005170055804
B1526034532492N00612632EA005150055760
B1526044532495N00612622EA005140055514
B1526054532496N00612612EA005120055468
B1526064532496N00612603EA005100055284
B1526074532495N00612594EA005080055186
B1526084532493N00612586EA005060055086
B1526094532490N00612578EA005030054869
B1526104532486N00612572EA005000054692
B1526114532482N00612565EA004980054465
B1526124532477N00612558EA004940054199
B1526134532472N00612553EA004920053880
B1526144532467N00612548EA004910053651
B1526154532461N00612544EA004910053395
B1526164532456N00612543EA004900053021
B1526174532449N00612543EA004890052878
B1526184532443N00612546EA004870052716
B1526194532436N00612551EA004840052646
B1526204532430N00612557EA004820052517
B1526214532423N00612564EA004780052472
B1526224532419N00612567EA004790052313
B1526234532414N00612569EA004820052369
B1526244532411N00612571EA004860052168
B1526254532409N00612573EA004890051851
B1526264532408N00612575EA004880051756
B1526274532407N00612578EA004850051739
B1526284532405N00612582EA004810051701
B1526294532401N00612585EA004780051675
B1526304532398N00612588EA004750051410
B1526314532395N00612590EA004740051265
B1526324532393N00612592EA004750051055
B1526334532391N00612594EA004740050848
B1526344532388N00612598EA004730050791
B1526354532385N00612604EA004710050492
B1526364532384N00612613EA004680050271
B1526374532384N00612624EA004640049957
B1526384532385N00612637EA004600049826
B1526394532389N00612651EA004570049834
B1526404532398N00612662EA004580049695
B1526414532402N00612673EA004570049303
B1526424532403N00612683EA004530049389
B1526434532403N00612694EA004490049376
B1526444532403N00612706EA004480049335
B1526454532402N00612718EA004450049352
B1526464532396N00612723EA004390048194
B1526474532396N00612735EA004320048111
B1526484532396N00612746EA004300048080
B1526504532399N00612767EA004300048313
B1526514532401N00612772EA004210048189
B1526544532420N00612777EA003970045122
B1526564532430N00612791EA004050043318
B1526574532431N00612799EA004080043449
B1526584532436N00612801EA004100044719
B1526594532436N00612802EA004120045129
B1527004532437N00612806EA004140044916
B1527014532437N00612813EA004130044517
B1527024532435N00612822EA004100044271
B1527034532435N00612821EA004060044035
B1527044532433N00612830EA004010043949
B1527054532431N00612841EA003960043970
B1527074532430N00612859EA004040043737
B1527084532428N00612868EA004070043583
B1527094532427N00612877EA004010043332
B1527104532426N00612887EA003970043130
B1527114532425N00612897EA003980043077
B1527124532425N00612908EA004010042911
B1527134532423N00612918EA004000042791
B1527144532421N00612927EA003980042560
B1527154532419N00612934EA003960042544
B1527164532415N00612938EA003940042352
B1527174532411N00612939EA003920042171
B1527184532408N00612937EA003900041986
B1527194532406N00612934EA003890041795
B1527204532405N00612930EA003870041687
B1527214532404N00612927EA003860041581
B1527224532403N00612924EA003850041471
B1527234532402N00612921EA003830041362
B1527244532401N00612918EA003820041280
B1527254532401N00612914EA003810041141
B1527264532401N00612909EA003800041158
B1527274532402N00612905EA003800041116
B1527284532402N00612901EA003800041096
B1527294532403N00612897EA003800041086
B1527304532405N00612893EA003790040903
B1527314532406N00612888EA003780040964
B1527324532408N00612883EA003770040995
B1527334532412N00612879EA003760040832
B1527344532417N00612876EA003760040646
B1527354532424N00612875EA003740040529
B1527364532432N00612877EA003730040372
B1527374532442N00612881EA003710040221
B1527384532451N00612887EA003690040017
B1527394532458N00612897EA003680040051
B1527404532463N00612908EA003670039895
B1527414532466N00612920EA003670039773
B1527424532467N00612932EA003680039677
B1527434532468N00612942EA003680039607
B1527444532468N00612951EA003690039506
B1527454532467N00612959EA003690039405
B1527464532465N00612967EA003690039457
B1527474532462N00612976EA003680039490
B1527484532459N00612984EA003670039464
B1527494532456N00612991EA003660039406
B1527504532452N00612997EA003660039303
B1527514532449N00613000EA003650039215
B1527524532447N00613002EA003650039004
B1527534532445N00613002EA003640038791
B1527544532445N00612999EA003630038377
B1527554532445N00612997EA003620037952
B1527564532446N00612994EA003610038238
B1527574532449N00612990EA003590038433
B1527584532453N00612985EA003580038548
B1527594532457N00612981EA003580038658
B1528004532460N00612977EA003570038669
B1528014532463N00612966EA003560038511
B1528024532461N00612962EA003550038364
B1528034532458N00612959EA003540038361
B1528044532455N00612957EA003530038303
B1528054532451N00612956EA003530038382
B1528064532449N00612953EA003530038387
B1528074532449N00612949EA003530038135
B1528084532449N00612944EA003520038093
B1528094532450N00612939EA003510038027
B1528104532449N00612936EA003490037909
B1528114532446N00612935EA003470037885
B1528124532441N00612938EA003440037990
B1528134532436N00612941EA003420037872
B1528144532431N00612943EA003410037981
B1528154532429N00612941EA003380037745
B1528164532429N00612934EA003360037461
B1528174532432N00612924EA003350037263
B1528184532435N00612917EA003370037337
B1528194532438N00612912EA003380037211
B1528204532440N00612907EA003360037313
B1528214532440N00612904EA003350036809
B1528224532435N00612917EA003330036801
B1528234532433N00612913EA003320036897
B1528244532433N00612910EA003290036693
B1528254532434N00612905EA003270036471
B1528264532437N00612902EA003250035935
B1528274532440N00612900EA003220036106
B1528284532447N00612897EA003190036078
B1528294532453N00612900EA003160035791
B1528304532455N00612903EA003140035301
B1528314532456N00612906EA003150035293
B1528324532458N00612909EA003170035461
B1528344532460N00612899EA003160035579
B1528354532463N00612896EA003150035443
B1528364532466N00612907EA003120036370
B1528374532467N00612902EA003130036512
B1528384532467N00612900EA003120036434
B1528394532465N00612900EA003120036132
B1528404532463N00612900EA003110035764
B1528414532461N00612899EA003100035376
B1528424532459N00612898EA003080034941
B1528434532457N00612896EA003050034656
B1528444532454N00612894EA003030034498
B1528454532453N00612891EA003000034301
B1528464532452N00612886EA002980034387
B1528474532454N00612881EA002960034239
B1528484532456N00612876EA002960034244
B1528494532459N00612872EA002960033944
B1528504532463N00612870EA002960033605
B1528514532465N00612871EA002960033477
B1528524532467N00612871EA002950033115
B1528534532467N00612868EA002930032825
B1528544532465N00612865EA002900032642
B1528554532462N00612863EA002860032460
B1528564532459N00612867EA002820032165
B1528574532455N00612874EA002790031726
B1528584532453N00612881EA002770031232
B1528594532453N00612887EA002770031032
B1529004532447N00612912EA002770030494
B1529014532446N00612915EA002750030545
B1529024532443N00612917EA002720030040
B1529034532439N00612916EA002680029895
B1529054532435N00612912EA002600029320
B1529064532433N00612907EA002630029534
B1529074532432N00612902EA002640029290
B1529084532433N00612897EA002620029434
B1529094532434N00612893EA002610029331
B1529104532436N00612888EA002670029415
B1529114532437N00612882EA002640029659
B1529124532437N00612878EA002640029798
B1529134532437N00612875EA002640029688
B1529144532437N00612872EA002620029448
B1529154532437N00612870EA002630029319
B1529164532437N00612869EA002690029346
B1529174532437N00612868EA002690029444
B1529184532437N00612868EA002680029451
B1529194532437N00612867EA002660029452
B1529204532437N00612866EA002650029477
B1529214532437N00612866EA002650029493
B1529224532438N00612866EA002650029302
B1529234532438N00612866EA002650029302
B1529244532438N00612866EA002650029302
B1529254532438N00612866EA002650029302
B1529264532438N00612866EA002650029302
B1529274532438N00612866EA002650029302
B1529284532438N00612866EA002650029202
B1529294532438N00612866EA002650029202
B1529304532438N00612866EA002650029202
LXCTFAICIVLCOMPLIANT true
G118860606DEEE382B1F79A6F1E82299F4E8E79A1DE2BA67728C3127A0301704D
G0D4DCA79BFED41638B2C9A061E59DA71CFC4D8D63264843C2F1AF26ADDA5C055
G5B2D6EF1061194DD6A32F06CBED0C828895DAF20F459B103632271964FE0A820
G4D4E2E015A95C568608F7C2D1D9E49764952E904F9859ACC47BA66EA1BB3149A
