AXCTce9d9864-a984-420c-81ea-b05f4669e919
HFFTYFRTYPE:Google Pixel 9 Pro XL 15 Client:xctrack FlightId:019474e5-4176-71cc-a5c8-47547339ea16
HFRFWFIRMWAREVERSION:0.9.11.11 LIVE:UNKNOWN
HFPLTPILOTINCHARGE:Josh Cohn
HOSITSite:El Peñon
HFCCLCOMPETITIONCLASS:FAI-3 (PG)
HFGTYGLIDERTYPE:NIVIUK Icepeak X-One
HODTM100GPSDATUM:WGS-84
HFALPALTPRESSURE:ISA
HFALG:GEO
HFDTEDATE:170125,00
I023636LAD3737LOD
LXCTDEVICE eyJjYXBhYmlsaXRpZXMiOnsibWVtQ2xhc3MiOjI1NiwibWVtTGFyZ2VDbGFzcyI6N
LXCTDEVICE TEyLCJuYW4iOnRydWV9LCJkZXZpY2UiOnsiYm9hcmQiOiJrb21vZG8iLCJidWlsZE
LXCTDEVICE lkIjoiQVA0QS4yNDEyMDUuMDEzIiwiY3B1QUJJIjoiYXJtNjQtdjhhIiwiY3B1QUJ
LXCTDEVICE JMiI6IiIsImRldlF1ZXVlQnVpbGQiOiJmMjNhYWYxNDhlNWZhMGNjMGEwNTAzZWE4
LXCTDEVICE MTY1OTdjOWJjNDgwODBkIiwiZGV2aWNlU3RyaW5nIjoiR29vZ2xlIFBpeGVsIDkgU
LXCTDEVICE HJvIFhMIDE1IiwiZGlzcGxheSI6eyJoIjoyMjQ0LCJtbSI6MTQuMTczMjI4LCJ3Ij
LXCTDEVICE oxMDA4fSwiZmluZ2VycHJpbnQiOiJnb29nbGUva29tb2RvL2tvbW9kbzoxNS9BUDR
LXCTDEVICE BLjI0MTIwNS4wMTMvMTI2MjE2MDU6dXNlci9yZWxlYXNlLWtleXMiLCJoYXJkd2Fy
LXCTDEVICE ZSI6ImtvbW9kbyIsIm1hbnVmYWN0dXJlciI6Ikdvb2dsZSIsIm1vZGVsIjoiUGl4Z
LXCTDEVICE WwgOSBQcm8gWEwiLCJwcm9kdWN0Ijoia29tb2RvIiwic2RrIjozNSwidGltZXpvbm
LXCTDEVICE UiOiJBbWVyaWNhL01leGljb19DaXR5In0sImRldmljZUlkIjoiY2U5ZDk4NjQtYTk
LXCTDEVICE 4NC00MjBjLTgxZWEtYjA1ZjQ2NjllOTE5IiwieGN0cmFjayI6eyJ2ZXJzaW9uQ29k
LXCTDEVICE ZSI6OTExOTIsInZlcnNpb25OYW1lIjoiMC45LjExLjExIn19
B1705511903472N10005476WA024510262477
B1705521903476N10005470WA024540262402
B1705531903481N10005463WA024550262406
B1705541903487N10005457WA024540262556
B1705551903494N10005452WA024540262667
B1705561903502N10005448WA024550262815
B1705591903524N10005443WA024610263226
B1706001903531N10005444WA024630263461
B1706021903545N10005448WA024650263916
B1706031903548N10005452WA024700264267
B1706041903549N10005457WA024740264361
B1706051903549N10005462WA024760264340
B1706061903549N10005467WA024760264304
B1706071903548N10005472WA024750264409
B1706081903545N10005477WA024740264516
B1706091903540N10005481WA024750264854
B1706101903535N10005484WA024770265245
B1706111903531N10005486WA024800265719
B1706121903527N10005489WA024840266230
B1706141903519N10005492WA024920266451
B1706151903514N10005492WA024930266555
B1706161903508N10005492WA024930266531
B1706171903502N10005489WA024940266612
B1706181903497N10005483WA024940267028
B1706191903495N10005476WA024960267200
B1706201903494N10005468WA024980267585
B1706211903496N10005460WA025000267778
B1706221903500N10005453WA025030268009
B1706231903504N10005448WA025050268250
B1706241903509N10005443WA025070268472
B1706251903515N10005439WA025090268484
B1706261903522N10005436WA025120268476
B1706271903530N10005435WA025140268504
B1706281903537N10005436WA025150268660
B1706291903544N10005438WA025150268870
B1706301903550N10005440WA025160269198
B1706311903555N10005444WA025170269332
B1706321903557N10005449WA025190269384
B1706331903558N10005455WA025200269353
B1706341903557N10005460WA025200269399
B1706351903557N10005466WA025200269507
B1706361903557N10005472WA025210269705
B1706371903557N10005477WA025220269957
B1706381903557N10005481WA025240270068
B1706391903557N10005485WA025260270028
B1706401903556N10005490WA025270269945
B1706411903555N10005495WA025260269798
B1706421903556N10005502WA025250269702
B1706431903557N10005508WA025250269927
B1706441903559N10005515WA025240270040
B1706451903562N10005521WA025250270490
B1706461903566N10005525WA025280270998
B1706471903570N10005529WA025310271366
B1706481903573N10005533WA025360271553
B1706491903575N10005537WA025390271653
B1706501903576N10005542WA025420271755
B1706511903577N10005547WA025440271819
B1706521903577N10005553WA025460272132
B1706531903576N10005558WA025490272380
B1706541903574N10005561WA025510272519
B1706551903569N10005565WA025510272663
B1706561903564N10005567WA025520273077
B1706571903560N10005570WA025550273534
B1706581903557N10005574WA025580273933
B1706591903556N10005580WA025610274206
B1707001903555N10005587WA025650274591
B1707011903555N10005593WA025690275093
B1707021903555N10005599WA025730275432
B1707031903554N10005604WA025770275748
B1707041903553N10005609WA025810275725
B1707051903552N10005613WA025830275509
B1707061903550N10005619WA025810275011
B1707071903547N10005625WA025760274467
B1707081903544N10005633WA025710274028
B1707091903540N10005642WA025660274092
B1707101903538N10005650WA025630274153
B1707111903536N10005657WA025630274248
B1707121903534N10005665WA025640274232
B1707131903531N10005672WA025650274196
B1707141903529N10005680WA025640274012
B1707151903526N10005688WA025630273930
B1707161903523N10005695WA025620273988
B1707171903521N10005703WA025620273930
B1707181903518N10005709WA025610273889
B1707191903516N10005716WA025610273648
B1707201903514N10005723WA025600273326
B1707211903512N10005730WA025570273017
B1707221903509N10005738WA025550272964
B1707231903507N10005746WA025520272734
B1707241903505N10005754WA025500272760
B1707251903504N10005761WA025480272754
B1707261903503N10005768WA025480272773
B1707271903503N10005774WA025490272815
B1707281903502N10005780WA025500272746
B1707291903501N10005786WA025500272468
B1707301903500N10005793WA025480272089
B1707311903499N10005801WA025460271768
B1707321903498N10005810WA025410271504
B1707331903496N10005818WA025390271632
B1707341903494N10005825WA025390272091
B1707351903493N10005830WA025410272298
B1707361903493N10005836WA025440272210
B1707371903492N10005841WA025450272133
B1707381903491N10005847WA025440271811
B1707391903489N10005853WA025420271597
B1707401903488N10005860WA025390271388
B1707411903487N10005868WA025360271293
B1707421903487N10005876WA025340271000
B1707431903486N10005883WA025310270908
B1707441903484N10005891WA025300270983
B1707451903483N10005898WA025290270978
B1707461903483N10005906WA025300270803
B1707471903482N10005913WA025300270869
B1707481903482N10005921WA025300270736
B1707491903482N10005929WA025290270612
B1707501903482N10005936WA025280270528
B1707511903482N10005944WA025270270447
B1707521903482N10005952WA025260270469
B1707531903482N10005961WA025250270240
B1707541903482N10005969WA025240270214
B1707551903481N10005977WA025230270143
B1707561903480N10005984WA025220270059
B1707571903479N10005992WA025220270063
B1707581903478N10005999WA025210269968
B1707591903477N10006007WA025210269884
B1708001903477N10006015WA025200269622
B1708011903476N10006023WA025180269372
B1708021903476N10006031WA025160269138
B1708031903476N10006040WA025140269018
B1708041903476N10006049WA025120269038
B1708051903476N10006058WA025110269097
B1708061903477N10006067WA025120269180
B1708071903478N10006074WA025120269178
B1708081903479N10006082WA025130269066
B1708091903480N10006090WA025130269035
B1708101903481N10006098WA025130268913
B1708111903481N10006106WA025120268864
B1708121903482N10006114WA025120268815
B1708131903482N10006122WA025110268787
B1708141903483N10006131WA025110268501
B1708151903482N10006139WA025090268497
B1708161903482N10006148WA025080268221
B1708171903481N10006156WA025070268164
B1708181903481N10006164WA025060268057
B1708191903481N10006172WA025050267989
B1708201903482N10006181WA025030267801
B1708211903482N10006189WA025020267613
B1708221903482N10006197WA025000267417
B1708231903482N10006206WA024980267322
B1708241903482N10006214WA024970267256
B1708251903483N10006222WA024950267038
B1708261903484N10006230WA024940266917
B1708271903485N10006238WA024940266904
B1708281903485N10006246WA024940266970
B1708291903486N10006253WA024930266845
B1708301903487N10006260WA024930266758
B1708311903488N10006268WA024930266683
B1708321903490N10006275WA024920266518
B1708331903491N10006283WA024910266460
B1708341903492N10006290WA024900266293
B1708351903494N10006297WA024880266002
B1708361903495N10006304WA024860265802
B1708371903495N10006310WA024850265548
B1708381903495N10006317WA024820265294
B1708391903496N10006324WA024800264943
B1708401903496N10006331WA024760264583
B1708411903497N10006339WA024720264163
B1708421903498N10006347WA024680263768
B1708431903499N10006356WA024640263457
B1708441903500N10006366WA024590263250
B1708451903501N10006375WA024560263323
B1708461903501N10006383WA024570263685
B1708471903502N10006390WA024590263868
B1708481903503N10006397WA024620263943
B1708491903504N10006403WA024640263925
B1708501903504N10006409WA024660263877
B1708511903504N10006416WA024660263681
B1708521903504N10006423WA024640263482
B1708531903504N10006430WA024630263396
B1708541903505N10006438WA024610263156
B1708551903506N10006446WA024590262913
B1708561903506N10006453WA024570262789
B1708571903507N10006461WA024550262455
B1708581903508N10006469WA024530262103
B1708591903508N10006477WA024490261895
B1709001903509N10006485WA024460261699
B1709011903511N10006494WA024440261641
B1709021903513N10006501WA024430261709
B1709031903514N10006509WA024440261863
B1709041903516N10006516WA024450261954
B1709051903518N10006523WA024470261941
B1709061903520N10006529WA024470261825
B1709071903521N10006536WA024470261685
B1709081903522N10006544WA024450261492
B1709091903523N10006552WA024430261476
B1709101903524N10006560WA024420261418
B1709111903524N10006568WA024420261569
B1709121903525N10006576WA024430261615
B1709131903525N10006583WA024440261679
B1709141903526N10006591WA024440261642
B1709151903527N10006598WA024450261714
B1709161903528N10006605WA024460261608
B1709171903528N10006613WA024450261573
B1709181903529N10006621WA024440261435
B1709191903529N10006630WA024430261371
B1709201903530N10006638WA024420261426
B1709211903530N10006646WA024420261696
B1709221903531N10006653WA024440261839
B1709231903531N10006660WA024460261977
B1709241903531N10006667WA024470261995
B1709251903531N10006674WA024480261887
B1709261903531N10006682WA024470261862
B1709271903531N10006689WA024470261848
B1709281903531N10006697WA024470261945
B1709291903531N10006705WA024470261942
B1709301903531N10006712WA024470262089
B1709311903532N10006720WA024480262286
B1709321903534N10006728WA024480262365
B1709331903537N10006735WA024500262635
B1709341903540N10006741WA024530262949
B1709351903542N10006748WA024560263390
B1709361903545N10006753WA024610263727
B1709371903547N10006759WA024650264007
B1709381903548N10006766WA024690264450
B1709391903549N10006772WA024730264887
B1709401903550N10006779WA024770265295
B1709411903551N10006786WA024820265694
B1709421903552N10006793WA024860266044
B1709431903552N10006800WA024900266542
B1709441903551N10006806WA024940266969
B1709451903550N10006812WA024980267307
B1709461903547N10006817WA025040267642
B1709471903543N10006820WA025060267727
B1709481903538N10006824WA025050267806
B1709491903531N10006828WA025040267999
B1709501903525N10006833WA025040268340
B1709511903519N10006836WA025070269051
B1709521903514N10006838WA025110269888
B1709531903511N10006842WA025180270462
B1709541903509N10006846WA025250270837
B1709551903507N10006852WA025310271140
B1709561903504N10006857WA025350271176
B1709571903500N10006864WA025340271081
B1709581903496N10006870WA025320270819
B1709591903490N10006878WA025290270664
B1710001903484N10006886WA025260270671
B1710011903479N10006894WA025250270810
B1710021903474N10006901WA025270271037
B1710031903470N10006908WA025290271137
B1710041903466N10006915WA025310271196
B1710051903463N10006922WA025320271046
B1710061903459N10006929WA025320270878
B1710071903455N10006937WA025300270484
B1710081903451N10006945WA025270270088
B1710091903447N10006954WA025240269767
B1710101903442N10006963WA025200269352
B1710111903436N10006971WA025160269150
B1710121903429N10006978WA025120268986
B1710131903422N10006985WA025090268892
B1710141903416N10006991WA025070268871
B1710151903410N10006996WA025080268836
B1710161903404N10007001WA025090268703
B1710171903398N10007005WA025090268508
B1710181903391N10007010WA025080268396
B1710191903385N10007015WA025060268167
B1710201903378N10007021WA025030267895
B1710211903372N10007027WA025000267638
B1710221903365N10007034WA024970267493
B1710231903359N10007040WA024950267476
B1710241903354N10007046WA024960267607
B1710251903348N10007052WA024970267893
B1710261903344N10007057WA024990267909
B1710271903339N10007063WA025010268072
B1710281903335N10007068WA025030268164
B1710291903331N10007073WA025060268254
B1710301903327N10007078WA025070268373
B1710311903323N10007083WA025070268294
B1710321903320N10007088WA025070268125
B1710331903316N10007093WA025060268046
B1710341903312N10007098WA025060267989
B1710351903309N10007104WA025040267847
B1710361903306N10007110WA025030267739
B1710371903303N10007117WA025020267548
B1710381903300N10007125WA025000267340
B1710391903297N10007132WA024970267077
B1710401903296N10007140WA024950266808
B1710411903295N10007149WA024930266801
B1710421903294N10007156WA024920266977
B1710431903294N10007163WA024930267007
B1710441903292N10007170WA024940267170
B1710451903290N10007175WA024960267359
B1710461903288N10007181WA024980267406
B1710471903285N10007187WA024990267442
B1710481903282N10007193WA024990267480
B1710491903280N10007199WA024990267413
B1710501903277N10007205WA024990267598
B1710511903276N10007212WA025000267734
B1710521903274N10007219WA025010267872
B1710531903272N10007226WA025020268061
B1710541903270N10007233WA025030268342
B1710551903268N10007239WA025060268648
B1710561903267N10007245WA025090268907
B1710571903265N10007251WA025120269171
B1710581903264N10007256WA025150269427
B1710591903261N10007262WA025180269662
B1711001903258N10007267WA025200269858
B1711011903255N10007273WA025230269924
B1711021903251N10007278WA025240270199
B1711031903248N10007284WA025260270254
B1711041903244N10007289WA025260270297
B1711051903240N10007295WA025260270051
B1711061903235N10007300WA025250269804
B1711071903229N10007306WA025230269730
B1711081903223N10007311WA025210269778
B1711091903218N10007317WA025210269866
B1711101903213N10007323WA025210269993
B1711111903209N10007328WA025220270069
B1711121903205N10007334WA025230270035
B1711131903201N10007340WA025230270122
B1711141903197N10007346WA025240270111
B1711151903193N10007351WA025240270118
B1711161903189N10007357WA025240270128
B1711171903185N10007363WA025250270105
B1711181903181N10007368WA025250270346
B1711191903178N10007373WA025270270515
B1711201903175N10007378WA025280270615
B1711211903172N10007383WA025300270638
B1711221903169N10007389WA025300270634
B1711231903165N10007395WA025310270690
B1711241903162N10007400WA025310270635
B1711251903158N10007405WA025300270779
B1711261903155N10007411WA025300270752
B1711271903152N10007416WA025300270685
B1711281903149N10007421WA025300270569
B1711291903145N10007427WA025290270393
B1711301903141N10007433WA025280270211
B1711311903135N10007438WA025260270296
B1711321903130N10007444WA025250270263
B1711331903125N10007449WA025240270268
B1711341903121N10007455WA025240270212
B1711351903116N10007460WA025240270277
B1711361903111N10007466WA025240270391
B1711371903107N10007471WA025240270400
B1711381903102N10007475WA025250270526
B1711391903097N10007480WA025270270742
B1711401903092N10007484WA025280270847
B1711411903087N10007488WA025300270859
B1711421903082N10007492WA025310271078
B1711431903077N10007496WA025320271194
B1711441903073N10007499WA025340271129
B1711451903068N10007503WA025340271152
B1711461903063N10007506WA025340271165
B1711471903058N10007509WA025340271069
B1711481903053N10007513WA025330271068
B1711491903048N10007517WA025320270969
B1711501903043N10007521WA025320270966
B1711511903038N10007524WA025320270947
B1711521903033N10007527WA025320270917
B1711531903027N10007530WA025310270879
B1711541903022N10007534WA025310270848
B1711551903017N10007538WA025300270848
B1711561903012N10007542WA025300270679
B1711571903007N10007546WA025300270597
B1711581903002N10007550WA025290270267
B1711591902997N10007555WA025280270103
B1712001902991N10007561WA025260269970
B1712011902986N10007566WA025230269688
B1712021902981N10007572WA025210269495
B1712031902976N10007577WA025190269447
B1712041902970N10007581WA025170269489
B1712051902965N10007585WA025170269409
B1712061902959N10007589WA025180269406
B1712071902953N10007592WA025190269408
B1712081902946N10007595WA025190269364
B1712091902939N10007596WA025180269169
B1712101902931N10007597WA025170269078
B1712111902923N10007598WA025160268955
B1712121902915N10007599WA025150269028
B1712131902907N10007601WA025150269154
B1712141902900N10007603WA025160269213
B1712151902892N10007605WA025170269390
B1712161902885N10007606WA025180269484
B1712171902878N10007607WA025190269482
B1712181902871N10007608WA025200269480
B1712191902864N10007608WA025190269346
B1712201902856N10007609WA025180269246
B1712211902848N10007610WA025170269167
B1712221902840N10007611WA025170269178
B1712231902832N10007613WA025170269290
B1712241902825N10007614WA025170269205
B1712251902817N10007616WA025170269430
B1712261902810N10007616WA025200269946
B1712271902804N10007617WA025230270542
B1712281902799N10007617WA025270270959
B1712291902795N10007618WA025300270914
B1712301902790N10007618WA025330270833
B1712311902784N10007616WA025340270876
B1712321902779N10007611WA025330270629
B1712331902774N10007605WA025310270482
B1712341902772N10007597WA025300270630
B1712351902773N10007588WA025300271038
B1712361902776N10007582WA025330271451
B1712371902780N10007577WA025360271781
B1712381902785N10007574WA025400272137
B1712391902789N10007573WA025440272381
B1712401902794N10007572WA025480272449
B1712411902799N10007574WA025500272473
B1712421902805N10007577WA025500272442
B1712431902810N10007581WA025500272623
B1712441902812N10007586WA025510272855
B1712451902812N10007591WA025520272986
B1712461902811N10007596WA025530273086
B1712471902810N10007602WA025530273020
B1712481902809N10007607WA025530273019
B1712491902808N10007614WA025540273040
B1712501902807N10007619WA025540273228
B1712511902805N10007625WA025550273332
B1712521902803N10007630WA025570273433
B1712531902801N10007635WA025580273454
B1712541902799N10007640WA025580273376
B1712551902798N10007646WA025570273207
B1712561902796N10007653WA025560273126
B1712571902794N10007661WA025540273120
B1712581902791N10007667WA025530273399
B1712591902789N10007673WA025540273647
B1713001902787N10007678WA025570273835
B1713011902785N10007683WA025590273923
B1713021902783N10007688WA025610274053
B1713031902782N10007693WA025630274025
B1713041902781N10007698WA025640274028
B1713051902780N10007704WA025640273922
B1713061902779N10007710WA025630273831
B1713071902778N10007716WA025630273833
B1713081902777N10007722WA025620273930
B1713091902776N10007727WA025630273923
B1713101902774N10007732WA025630274083
B1713111902773N10007737WA025630273947
B1713121902771N10007743WA025620273984
B1713131902770N10007749WA025620273825
B1713141902768N10007755WA025620273856
B1713151902766N10007760WA025620274068
B1713161902764N10007765WA025640274132
B1713171902761N10007769WA025650274194
B1713181902759N10007773WA025660274078
B1713191902758N10007779WA025640273700
B1713201902756N10007785WA025610273267
B1713211902756N10007792WA025580273017
B1713221902756N10007799WA025540272908
B1713231902755N10007806WA025520272966
B1713241902754N10007812WA025520272888
B1713251902753N10007818WA025520272769
B1713261902752N10007825WA025520272636
B1713271902751N10007833WA025490272314
B1713281902750N10007841WA025470272107
B1713291902748N10007849WA025450272247
B1713301902747N10007856WA025450272317
B1713311902745N10007862WA025460272498
B1713321902745N10007868WA025470272244
B1713331902745N10007874WA025460271926
B1713341902745N10007881WA025440271574
B1713351902746N10007888WA025410271138
B1713361902746N10007896WA025380270956
B1713371902746N10007904WA025350270761
B1713381902746N10007911WA025330270685
B1713391902747N10007918WA025300270538
B1713401902748N10007925WA025280270428
B1713411902749N10007932WA025270270454
B1713421902750N10007938WA025280270396
B1713431902752N10007944WA025280270129
B1713441902753N10007951WA025270270026
B1713451902754N10007959WA025250269933
B1713461902755N10007967WA025230269925
B1713471902756N10007975WA025240270360
B1713481902758N10007981WA025270270844
B1713491902760N10007986WA025300271219
B1713501902761N10007992WA025340271564
B1713511902763N10007998WA025380271822
B1713521902764N10008004WA025420272011
B1713531902764N10008009WA025450272156
B1713541902764N10008014WA025480272169
B1713551902764N10008020WA025480272136
B1713561902763N10008026WA025470272118
B1713571902760N10008033WA025460272081
B1713581902757N10008039WA025450272072
B1713591902754N10008044WA025460272378
B1714001902752N10008049WA025480272738
B1714011902750N10008054WA025510273047
B1714021902748N10008059WA025520273154
B1714031902745N10008064WA025530273084
B1714041902742N10008069WA025530272853
B1714051902739N10008074WA025520272805
B1714061902735N10008079WA025520273067
B1714071902732N10008084WA025530273276
B1714081902730N10008088WA025550273508
B1714091902727N10008092WA025570273654
B1714101902724N10008096WA025580273481
B1714111902720N10008100WA025570273164
B1714121902715N10008105WA025540272831
B1714131902709N10008109WA025510272836
B1714141902703N10008113WA025500273001
B1714151902698N10008115WA025510273344
B1714161902694N10008116WA025540273588
B1714171902691N10008117WA025560273496
B1714181902688N10008118WA025570273166
B1714191902683N10008120WA025550272580
B1714201902677N10008121WA025520272053
B1714211902670N10008122WA025470271776
B1714221902663N10008124WA025430271552
B1714231902656N10008125WA025390271387
B1714241902650N10008127WA025370271220
B1714251902643N10008127WA025360271176
B1714261902637N10008128WA025360270900
B1714271902630N10008128WA025350270713
B1714281902622N10008128WA025330270467
B1714291902614N10008129WA025310270380
B1714301902606N10008129WA025280270273
B1714311902598N10008129WA025270270179
B1714321902590N10008130WA025260270171
B1714331902582N10008130WA025250270181
B1714341902575N10008129WA025260270006
B1714351902567N10008129WA025250269941
B1714361902559N10008128WA025250269887
B1714371902552N10008128WA025240269727
B1714381902544N10008129WA025230269682
B1714391902537N10008129WA025220269526
B1714401902529N10008129WA025220269667
B1714411902522N10008129WA025220269626
B1714421902515N10008129WA025220269608
B1714431902507N10008130WA025220269688
B1714441902500N10008132WA025220269634
B1714451902493N10008133WA025220269619
B1714461902485N10008135WA025230269673
B1714471902478N10008136WA025230269643
B1714481902471N10008137WA025230269525
B1714491902464N10008138WA025220269417
B1714501902456N10008140WA025210269272
B1714511902448N10008142WA025200269191
B1714521902441N10008144WA025190269124
B1714531902433N10008147WA025190269360
B1714541902427N10008149WA025200269503
B1714551902420N10008151WA025210269631
B1714561902413N10008152WA025230269687
B1714571902407N10008154WA025240269762
B1714581902401N10008156WA025250269831
B1714591902395N10008158WA025260269825
B1715001902389N10008160WA025260269809
B1715011902382N10008163WA025260269894
B1715021902376N10008165WA025260269988
B1715031902370N10008168WA025270270064
B1715041902364N10008171WA025270270132
B1715051902357N10008174WA025280270392
B1715061902351N10008177WA025290270570
B1715071902345N10008179WA025310270612
B1715081902338N10008181WA025330270793
B1715091902332N10008182WA025350270978
B1715101902326N10008182WA025380271149
B1715111902319N10008180WA025400271295
B1715121902313N10008175WA025410271284
B1715131902309N10008168WA025400271266
B1715141902307N10008160WA025400271356
B1715151902307N10008152WA025390271447
B1715161902309N10008145WA025400271657
B1715171902312N10008140WA025410271776
B1715181902316N10008137WA025420271695
B1715191902322N10008136WA025420271632
B1715201902327N10008136WA025420271687
B1715211902333N10008138WA025420271702
B1715221902337N10008140WA025430271896
B1715231902342N10008143WA025440271913
B1715241902345N10008147WA025450272081
B1715251902348N10008151WA025460272172
B1715261902351N10008156WA025470272212
B1715271902352N10008161WA025470272333
B1715281902352N10008166WA025480272418
B1715291902351N10008172WA025500272500
B1715301902349N10008176WA025520272715
B1715311902346N10008180WA025530272755
B1715321902342N10008184WA025540272775
B1715331902338N10008187WA025540272629
B1715341902332N10008190WA025530272526
B1715351902325N10008192WA025520272513
B1715361902317N10008192WA025510272564
B1715371902310N10008190WA025510272535
B1715381902303N10008187WA025510272653
B1715391902297N10008182WA025520272747
B1715401902292N10008177WA025530272977
B1715411902289N10008171WA025540273008
B1715421902286N10008165WA025550273133
B1715431902285N10008158WA025550273130
B1715441902286N10008150WA025550273207
B1715451902288N10008143WA025560273466
B1715461902291N10008138WA025570273581
B1715471902295N10008133WA025580273793
B1715481902300N10008129WA025600273729
B1715491902304N10008127WA025610273862
B1715501902309N10008125WA025620273943
B1715511902314N10008123WA025630273967
B1715521902320N10008123WA025640273903
B1715531902325N10008124WA025640274033
B1715541902330N10008126WA025650274004
B1715551902334N10008129WA025650274231
B1715561902337N10008132WA025660274261
B1715571902339N10008135WA025670274395
B1715581902341N10008139WA025680274354
B1715591902342N10008144WA025680274210
B1716001902341N10008149WA025670274281
B1716011902340N10008154WA025670274273
B1716021902339N10008159WA025670274234
B1716031902337N10008164WA025660274184
B1716041902336N10008169WA025660274195
B1716051902336N10008174WA025660273919
B1716061902335N10008180WA025650273944
B1716071902334N10008185WA025640273948
B1716081902333N10008191WA025630273910
B1716091902331N10008195WA025640273917
B1716101902328N10008200WA025640273821
B1716111902324N10008204WA025630273704
B1716121902318N10008208WA025620273662
B1716131902312N10008210WA025600273503
B1716141902304N10008211WA025590273463
B1716151902297N10008211WA025580273332
B1716161902290N10008210WA025580273347
B1716171902283N10008210WA025580273359
B1716181902276N10008211WA025580273266
B1716191902269N10008212WA025580273257
B1716201902262N10008214WA025580273222
B1716211902254N10008215WA025580273387
B1716221902247N10008217WA025580273384
B1716231902241N10008219WA025590273440
B1716241902235N10008220WA025600273466
B1716251902229N10008222WA025600273496
B1716261902224N10008225WA025600273245
B1716271902219N10008229WA025590272905
B1716281902213N10008234WA025570272684
B1716291902208N10008240WA025540272492
B1716301902204N10008246WA025510272322
B1716311902199N10008252WA025490272371
B1716321902195N10008257WA025480272388
B1716331902192N10008263WA025490272324
B1716341902188N10008268WA025490272499
B1716351902185N10008274WA025490272376
B1716361902182N10008280WA025480272134
B1716371902178N10008286WA025470272095
B1716381902175N10008292WA025460272028
B1716391902172N10008298WA025450272009
B1716401902168N10008304WA025450272069
B1716411902165N10008310WA025450272057
B1716421902162N10008316WA025450271944
B1716431902159N10008322WA025440271813
B1716441902155N10008328WA025430271776
B1716451902152N10008335WA025420271643
B1716461902149N10008341WA025410271628
B1716471902146N10008348WA025400271601
B1716481902142N10008353WA025400271799
B1716491902139N10008359WA025410271793
B1716501902136N10008364WA025420271794
B1716511902133N10008369WA025420271575
B1716521902130N10008374WA025410271339
B1716531902126N10008381WA025390271182
B1716541902123N10008387WA025370271027
B1716551902120N10008394WA025360271010
B1716561902116N10008400WA025340270992
B1716571902114N10008406WA025340271000
B1716581902111N10008411WA025340271024
B1716591902107N10008416WA025340270996
B1717001902104N10008421WA025320270606
B1717011902099N10008427WA025310270352
B1717021902095N10008432WA025280270146
B1717031902091N10008438WA025270270040
B1717041902087N10008443WA025260270075
B1717051902084N10008448WA025250270059
B1717061902081N10008454WA025250269921
B1717071902077N10008459WA025240269873
B1717081902074N10008464WA025230269705
B1717091902070N10008469WA025220269658
B1717101902066N10008475WA025210269491
B1717111902063N10008480WA025200269356
B1717121902060N10008486WA025180269204
B1717131902056N10008492WA025170269160
B1717141902053N10008497WA025160269028
B1717151902050N10008503WA025150268914
B1717161902046N10008508WA025150268899
B1717171902043N10008514WA025140268874
B1717181902040N10008520WA025130268721
B1717191902036N10008525WA025120268547
B1717201902032N10008531WA025100268357
B1717211902028N10008537WA025080268169
B1717221902024N10008544WA025050267861
B1717231902020N10008550WA025030267732
B1717241902016N10008556WA025010267511
B1717251902011N10008561WA024990267395
B1717261902007N10008567WA024970267183
B1717271902004N10008573WA024950266807
B1717281902000N10008580WA024930266655
B1717291901997N10008587WA024910266645
B1717301901994N10008593WA024910266689
B1717311901992N10008600WA024920266510
B1717321901989N10008605WA024920266448
B1717331901986N10008612WA024910266130
B1717341901982N10008618WA024880265757
B1717351901978N10008625WA024850265475
B1717361901974N10008632WA024820265263
B1717371901970N10008639WA024790265260
B1717381901966N10008645WA024770265182
B1717391901963N10008651WA024760265002
B1717401901959N10008657WA024750264835
B1717411901955N10008663WA024730264739
B1717421901951N10008670WA024720264534
B1717431901947N10008677WA024700264420
B1717441901943N10008683WA024690264329
B1717451901939N10008690WA024690264346
B1717461901935N10008697WA024690264271
B1717471901931N10008703WA024690264195
B1717481901928N10008709WA024680264037
B1717491901924N10008716WA024670263872
B1717501901921N10008722WA024660263718
B1717511901917N10008729WA024640263577
B1717521901914N10008736WA024630263427
B1717531901910N10008743WA024610263489
B1717541901907N10008750WA024600263379
B1717551901904N10008757WA024590263358
B1717561901901N10008764WA024590263254
B1717571901898N10008771WA024590263251
B1717581901895N10008777WA024590263159
B1717591901892N10008784WA024580263076
B1718001901889N10008791WA024580263084
B1718011901886N10008798WA024570263081
B1718021901883N10008804WA024570263098
B1718031901880N10008811WA024570262997
B1718041901877N10008818WA024570262996
B1718051901874N10008825WA024570262996
B1718061901872N10008832WA024570262917
B1718071901869N10008839WA024570262988
B1718081901867N10008847WA024560262981
B1718091901866N10008854WA024570262944
B1718101901865N10008861WA024560262926
B1718111901864N10008868WA024560262903
B1718121901862N10008874WA024570262936
B1718131901860N10008880WA024560262827
B1718141901857N10008886WA024560262586
B1718151901855N10008892WA024550262357
B1718161901853N10008899WA024530262130
B1718171901850N10008906WA024500261970
B1718181901848N10008913WA024480261941
B1718191901846N10008919WA024480262056
B1718201901845N10008925WA024490262122
B1718211901843N10008930WA024500262073
B1718221901842N10008935WA024490261803
B1718231901839N10008941WA024470261383
B1718241901837N10008948WA024440261031
B1718251901834N10008955WA024390260787
B1718261901832N10008963WA024350260573
B1718271901830N10008970WA024320260599
B1718281901829N10008977WA024310260617
B1718291901827N10008983WA024330260848
B1718301901826N10008989WA024350260913
B1718311901825N10008994WA024370260915
B1718321901824N10008999WA024380260706
B1718331901823N10009005WA024370260501
B1718341901822N10009011WA024350260362
B1718351901822N10009017WA024330260159
B1718361901823N10009024WA024310260027
B1718371901824N10009031WA024290260043
B1718381901825N10009037WA024290260195
B1718391901827N10009042WA024290260129
B1718401901828N10009048WA024300260143
B1718411901830N10009053WA024300260017
B1718421901832N10009058WA024300259919
B1718431901834N10009064WA024290259885
B1718441901837N10009070WA024280259751
B1718451901840N10009075WA024280259745
B1718461901843N10009080WA024270259679
B1718471901847N10009086WA024260259642
B1718481901851N10009091WA024260259525
B1718491901855N10009096WA024250259417
B1718501901859N10009101WA024250259429
B1718511901863N10009107WA024240259322
B1718521901867N10009112WA024230259217
B1718531901871N10009117WA024230259228
B1718541901875N10009122WA024230259247
B1718551901879N10009127WA024220259372
B1718561901883N10009131WA024230259395
B1718571901888N10009135WA024230259307
B1718581901892N10009140WA024230259230
B1718591901896N10009144WA024230259263
B1719001901901N10009148WA024230259108
B1719011901905N10009153WA024220259143
B1719021901909N10009157WA024220259197
B1719031901914N10009162WA024210259122
B1719041901918N10009166WA024210259156
B1719051901922N10009171WA024210259081
B1719061901927N10009175WA024200259006
B1719071901931N10009180WA024200259040
B1719081901935N10009184WA024200258953
B1719091901939N10009188WA024200258935
B1719101901942N10009192WA024200258976
B1719111901946N10009196WA024200258818
B1719121901949N10009201WA024200258733
B1719131901952N10009205WA024190258687
B1719141901956N10009210WA024180258534
B1719151901959N10009215WA024160258483
B1719161901963N10009220WA024150258340
B1719171901966N10009224WA024140258387
B1719181901970N10009229WA024140258203
B1719191901973N10009233WA024130258129
B1719201901976N10009238WA024120257965
B1719211901980N10009243WA024100257813
B1719221901983N10009248WA024090257683
B1719231901987N10009253WA024080257632
B1719241901990N10009258WA024070257571
B1719251901993N10009262WA024060257589
B1719261901997N10009267WA024060257415
B1719271902000N10009272WA024060257342
B1719281902003N10009276WA024050257179
B1719291902007N10009282WA024040257000
B1719301902010N10009287WA024020256941
B1719311902013N10009292WA024010256972
B1719321902016N10009297WA024000256882
B1719331902019N10009302WA024000256860
B1719341902022N10009306WA023990256757
B1719351902025N10009311WA023990256744
B1719361902028N10009316WA023980256641
B1719371902031N10009320WA023970256448
B1719381902034N10009325WA023960256338
B1719391902037N10009330WA023950256219
B1719401902040N10009336WA023940256101
B1719411902042N10009341WA023930256161
B1719421902045N10009346WA023930256010
B1719431902047N10009350WA023920255968
B1719441902050N10009355WA023910255806
B1719451902052N10009360WA023900255666
B1719461902055N10009365WA023900255527
B1719471902057N10009371WA023870255380
B1719481902060N10009376WA023870255234
B1719491902062N10009381WA023860255196
B1719501902065N10009386WA023840255047
B1719511902067N10009391WA023830254976
B1719521902070N10009396WA023820254804
B1719531902072N10009401WA023810254731
B1719541902074N10009406WA023800254570
B1719551902077N10009411WA023790254420
B1719561902079N10009416WA023770254380
B1719571902082N10009421WA023770254212
B1719581902084N10009426WA023720254133
B1719591902086N10009431WA023730254044
B1720001902088N10009436WA023730254036
B1720011902090N10009441WA023730253836
B1720021902092N10009446WA023710253736
B1720031902094N10009451WA023720253649
B1720041902096N10009457WA023710253544
B1720051902098N10009463WA023700253530
B1720061902100N10009468WA023690253424
B1720071902101N10009473WA023680253497
B1720081902103N10009479WA023670253370
B1720091902105N10009484WA023660253272
B1720101902107N10009489WA023650253155
B1720111902109N10009494WA023640252948
B1720121902111N10009500WA023620252853
B1720131902113N10009505WA023620252767
LXCTFAICIVLCOMPLIANT true
G9633B5A354D2C6ACB17852F101018838C812EB83699D75F81C3CF92849681101
GFA34C716A7BA4900E9F0A72CAFAA4F40A1CA8707F54A6664F8993550AA653588
GE73C84A13D9BE25C1775C620C9F90CB9F728D5CDBA178A10740899C369AB2E11
G12399A4987978576658ECDDD9ABC46D9E89176E3ABF12C8F4C2EE2283925840D
