AXFH000,FLIGHT:1
HFDTE101116
HFPLTPILOT:Josh Cohn
HFGTYGLIDERTYPE:Ozone Zeno
HFDTM100GPSDATUM:WGS84
HFRFWFIRMWAREVERSION:5.2
HFRHWHARDWAREVERSION:iPhone 6s
HFFTYFRTYPE:Flyskyhy,5.2
HFGPS:Apple
HFPRSVARIO:Built-in
HFCCLCOMPETITIONCLASS:Paraglider
HFTZNTIMEZONE:-3
HFSITSITE:Quixada - Morro do Urucum,BR
I053638FXA3941VXA4244GSP4547CCO4850HDT
C101116111801101116000105TASK
C0000000N00000000ETAKEOFF
C0502505S03859964W00000000000400000000360000STARTAREA Start
C0451315S03934412W00004009999999000000360000TURNAREA B07___
C0447006S04003800W00004009999999000000360000TURNAREA B25___
C0442007S04033783W00004009999999000000360000TURNAREA B26___
C0425817S04126370W00004009999999000000360000TURNAREA B15___
C0416007S04146617W00004009999999000000360000TURNAREA B27___
C0409933S04255579W00000000000400000000360000FINISHAREA Miguel Alves 445
C0000000N00000000ELANDING
B1117310502186S03900462WA0047800478005003000358301
B1117320502186S03900462WA0047800478005003000013301
B1117320502186S03900462WA0047800478005003001006303
B1117330502185S03900463WA0047800478005003001316268
B1117340502185S03900463WA0047800479005003004302253
B1117350502184S03900464WA0047800479005003004062138
B1117360502184S03900464WA0047900478005003005099116
B1117370502184S03900463WA0047900479005003008122107
B1117380502185S03900461WA0047900479005003008121118
B1117390502186S03900460WA0047900480005003010126103
B1117400502187S03900459WA0047900481005003009107111
B1117410502187S03900457WA0048000482005003009103118
B1117420502188S03900456WA0048000482005003008137105
B1117430502189S03900455WA0048100484005003008155112
B1117440502190S03900455WA0048300485005003008143119
B1117450502191S03900454WA0048500487005003006128106
B1117460502191S03900453WA0048700488005003006130106
B1117470502192S03900453WA0048800489005003005147102
B1117480502193S03900452WA0049000490005003005127112
B1117490502193S03900452WA0049100490005003005114110
B1117500502194S03900450WA0049200488005003012121115
B1117510502195S03900448WA0049100484005003016121117
B1117520502197S03900446WA0048900484005003016124119
B1117530502199S03900443WA0048600484005003019128125
B1117540502201S03900440WA0048400485005003021138132
B1117550502203S03900438WA0048400487005003021137132
B1117560502206S03900437WA0048400490005003019148123
B1117570502208S03900436WA0048700491005003016152130
B1117580502210S03900435WA0048800492005003016149123
B1117590502212S03900433WA0049100493005003018133125
B1118000502214S03900431WA0049300492005003018135123
B1118010502217S03900429WA0049400493005003020141125
B1118030502222S03900425WA0049600494005003018139118
B1118040502224S03900423WA0049600497005003018141105
B1118060502228S03900420WA0049800501005003016136121
E111806Waypoint TH72 reached
B1118070502230S03900418WA0050000501005003016137117
B1118090502232S03900415WA0050500488005003020121123
B1118110502236S03900409WA0051000488005003023144141
B1118120502239S03900407WA0051200490005003024144152
B1118130502242S03900405WA0051300492005003027152143
B1118150502250S03900402WA0051600495005003027161136
B1118170502257S03900402WA0052100504005003020185146
B1118180502259S03900402WA0052400507005003011171140
B1118190502261S03900401WA0052800508005003016152132
B1118200502263S03900400WA0053200510005004016148130
B1118220502269S03900397WA0053700516005004023154135
B1118240502275S03900394WA0053800524005004020164141
B1118250502277S03900394WA0053800534005004017162139
B1118270502282S03900391WA0054200538005004019141137
B1118290502287S03900388WA0054900541005004021160137
B1118310502292S03900386WA0055300548005004020161157
B1118320502294S03900385WA0055500552005006012161152
B1118330502295S03900385WA0055700552005006012156149
B1118350502298S03900383WA0056400557005006010137141
B1118360502300S03900381WA0056800559005006015131146
B1118380502303S03900378WA0057300560005006015138148
B1118390502304S03900376WA0057400560005006014141150
B1118400502306S03900375WA0057500561005006013140152
B1118420502309S03900373WA0057600562005006015156153
B1118430502311S03900372WA0057600561005006015154151
B1118440502313S03900371WA0057700561005004016156148
B1118450502315S03900370WA0057700561005004017150152
B1118460502317S03900368WA0057700563005004019130152
B1118480502320S03900364WA0057700566005004016149144
B1118490502322S03900364WA0057800569005004013153155
B1118500502324S03900362WA0057800571005004017145151
B1118520502328S03900357WA0058200577005003022114141
B1118540502329S03900351WA0058700586005003021105144
B1118560502330S03900348WA0059300595005003009084154
B1118570502329S03900346WA0059700596005003009092144
B1118590502332S03900341WA0060700597005003019131146
B1119000502335S03900338WA0061000597005003030120132
B1119020502338S03900330WA0061200601005003030109106
B1119040502343S03900324WA0061500610005003023136115
B1119060502343S03900324WA0062100624005004006149107
B1119080502342S03900324WA0063300630005006008094131
B1119100502343S03900319WA0064300631005006018119121
B1119120502344S03900317WA0064700640005006003122111
B1119140502345S03900317WA0065200648005006005122114
B1119150502345S03900316WA0065200649005006010128118
B1119160502346S03900314WA0065600650005006013133126
B1119180502349S03900310WA0066300654005006016129123
B1119190502351S03900309WA0066500658005006013154134
B1119200502352S03900308WA0066600662005006008188121
B1119220502353S03900310WA0067100667005006004229122
B1119230502354S03900310WA0067400669005006005228122
B1119250502355S03900308WA0068100669005006007135111
B1119270502356S03900307WA0068400672005006006104125
B1119280502356S03900306WA0068500673005006011098101
B1119300502356S03900302WA0068800674005006013099113
B1119310502357S03900300WA0068900676005006010116114
B1119330502358S03900298WA0069100682005006006133101
B1119340502359S03900297WA0069300687005006007138110
B1119360502361S03900295WA0069900690005006012137106
B1119370502363S03900294WA0070200692005006012139110
B1119390502366S03900292WA0070600694005006016138109
B1119410502370S03900288WA0070700698005004018124111
B1119420502371S03900285WA0070900700005004018120112
B1119440502373S03900281WA0071200707005004014100105
B1119460502373S03900277WA0071600713005006013089108
B1119480502373S03900273WA0072200715005006012094115
B1119500502374S03900270WA0072600715005006010132118
B1119520502377S03900267WA0072900716005006011134116
B1119540502379S03900265WA0073000717005006013132114
B1119550502380S03900263WA0073000718005006013135113
B1119570502384S03900261WA0073100719005006013155114
B1119590502387S03900260WA0073300723005006014153121
B1120010502391S03900258WA0073500726005006012154114
B1120020502392S03900258WA0073700729005006009194111
B1120040502394S03900258WA0074100732005006004189110
B1120060502396S03900258WA0074400733005006009155109
B1120080502399S03900257WA0074600735005006011163102
B1120100502402S03900256WA0074700736005006009150105
B1120120502404S03900255WA0074900737005006008137104
B1120140502405S03900253WA0075000737005006006129101
B1120160502406S03900250WA0075100737005006010102102
B1120180502407S03900246WA0075100733005006016111101
B1120190502408S03900244WA0075000732005006012115109
B1120210502410S03900241WA0074700732005004011124066
B1120220502410S03900239WA0074600734005006010125079
B1120240502413S03900237WA0074600737005006011144076
B1120260502416S03900236WA0074900742005006011171068
B1120270502418S03900236WA0075100743005006011171084
B1120290502421S03900234WA0075500741005006018140087
B1120310502427S03900230WA0075500738005006027150100
B1120330502433S03900227WA0075400742005006017156088
B1120350502436S03900226WA0075200749005006010170088
B1120370502440S03900225WA0075600751005004015142086
B1120380502441S03900223WA0075900751005006014141083
B1120390502443S03900222WA0076200751005006015148089
B1120410502447S03900220WA0076400751005006016144088
B1120430502450S03900215WA0076300747005006020123077
B1120440502452S03900213WA0076200744005006019111063
B1120460502452S03900207WA0075800740005006016073061
B1120480502450S03900203WA0075400736005008014066062
B1120490502449S03900201WA0075200735005006011064065
B1120510502448S03900199WA0074900733005006010040069
B1120530502445S03900197WA0074600731005006013045074
B1120540502444S03900195WA0074600728005006014070079
B1120560502443S03900191WA0074200725005006013077082
B1120580502442S03900187WA0074000723005006014079078
B1120590502442S03900185WA0073800721005006015083076
B1121000502442S03900183WA0073700720005006015088077
B1121020502442S03900179WA0073500718005006015086076
B1121040502441S03900174WA0073200716005006017081078
B1121050502440S03900171WA0073100715005006018078075
B1121060502440S03900169WA0073100715005006016073088
E112106Waypoint Start reached
E112106Waypoint Start reached
B1121070502438S03900166WA0073000715005006016068083
B1121090502435S03900163WA0072800714005006016054072
B1121100502434S03900161WA0072700713005006016069088
B1121110502434S03900159WA0072700711005006014082082
B1121120502433S03900157WA0072600710005006013078084
B1121140502432S03900154WA0072400710005006011054081
B1121150502431S03900152WA0072300709005006010064085
B1121160502431S03900151WA0072200707005006013082089
B1121180502431S03900146WA0072100703005006016092089
B1121200502431S03900142WA0071800703005006011102085
B1121210502432S03900141WA0071600703005006008090074
B1121220502432S03900139WA0071600704005006008083088
B1121240502432S03900137WA0071600706005006007060081
B1121250502431S03900136WA0071600705005006009064094
B1121270502430S03900133WA0071800704005006014067096
B1121290502428S03900129WA0071800703005006015062092
B1121310502426S03900126WA0071600702005006013050094
B1121320502425S03900124WA0071600702005006013053097
B1121340502423S03900120WA0071500701005006016076098
B1121350502423S03900118WA0071500701005006016082093
B1121370502423S03900114WA0071400703005006011081098
B1121380502423S03900113WA0071400704005006009081095
B1121400502423S03900110WA0071500706005006008118095
B1121420502425S03900107WA0071800706005006014126096
B1121430502426S03900105WA0071900705005006015127101
B1121450502428S03900103WA0071800703005006008137094
B1121470502429S03900101WA0071700701005006011121101
B1121480502430S03900099WA0071600699005006016110108
B1121490502431S03900096WA0071600696005006018108104
B1121510502433S03900091WA0071300692005006020110100
B1121530502434S03900085WA0070800689005006022102094
B1121550502436S03900078WA0070400687005006023105105
B1121560502437S03900075WA0070300688005006021099095
B1121570502437S03900072WA0070100687005006021100093
B1121590502440S03900065WA0070000687005006025122105
B1122000502442S03900062WA0070000687005006025124110
B1122020502445S03900055WA0069900686005006027109115
B1122030502446S03900052WA0069900687005006024104110
B1122050502446S03900046WA0069900689005006014083099
B1122060502445S03900044WA0070000690005006016070098
B1122080502444S03900039WA0070200691005006016072097
B1122090502443S03900037WA0070300692005006014070098
B1122100502442S03900036WA0070300693005006012063097
B1122110502441S03900035WA0070400693005006007064102
B1122130502441S03900034WA0070500693005006007085101
B1122150502441S03900029WA0070600689005006018096111
B1122160502442S03900027WA0070600687005006020091105
B1122170502441S03900024WA0070500685005006020077103
B1122190502440S03900018WA0070200681005006020076109
B1122210502440S03900013WA0069700677005006016108123
B1122220502441S03900010WA0069500674005006020119122
B1122230502442S03900008WA0069300674005006020120122
B1122250502446S03900002WA0068900669005008022121126
B1122270502450S03859997WA0068400665005008017134128
B1122280502452S03859995WA0068100665005008015132127
B1122290502454S03859993WA0068000664005008014136129
B1122310502461S03859992WA0067700660005008022157136
B1122320502464S03859990WA0067600659005008026160135
B1122340502473S03859987WA0067200656005008031166143
B1122350502477S03859987WA0067100656005008032172151
B1122370502487S03859988WA0066900658005008035192177
B1122380502491S03859992WA0066900659005006038211178
B1122400502502S03859998WA0067000659005006039207169
B1122420502513S03900002WA0067100658005006039197167
B1122440502524S03900005WA0067100658005008038195165
B1122460502534S03900009WA0067100659005008035200163
B1122470502539S03900011WA0067100660005006033198167
B1122490502548S03900014WA0067100661005008034193163
B1122500502553S03900015WA0067200662005008034195170
B1122520502562S03900018WA0067400666005006029199164
B1122540502570S03900021WA0067700670005008028208171
B1122560502579S03900026WA0068100673005006031214177
B1122580502587S03900031WA0068400675005006029214172
B1123000502593S03900036WA0068700677005006030216181
B1123020502601S03900042WA0068900678005006032215184
B1123040502609S03900047WA0069000679005006029214178
B1123060502616S03900051WA0069100681005006028215184
B1123080502623S03900057WA0069200682005006031213183
B1123100502631S03900062WA0069300681005006036214190
B1123120502642S03900069WA0069400679005006043213198
B1123130502647S03900072WA0069400679005006041215199
B1123150502656S03900078WA0069200679005006035216194
B1123160502661S03900082WA0069200680005006033216197
B1123180502669S03900087WA0069200680005006032212197
B1123190502673S03900089WA0069200679005006033210189
B1123210502683S03900094WA0069200675005006040206190
B1123220502689S03900097WA0069100673005006046206194
B1123230502695S03900101WA0068900671005006049208197
B1123250502707S03900108WA0068500669005006047210193
B1123270502719S03900115WA0068200669005006043210193
B1123280502725S03900118WA0068200669005004040211190
B1123300502735S03900124WA0068200671005004038211189
B1123310502739S03900127WA0068200670005004038209186
B1123320502745S03900130WA0068200670005006042204179
B1123340502757S03900134WA0068200671005006042201177
B1123360502767S03900139WA0068200677005006036213194
B1123380502775S03900145WA0068300683005006033217203
B1123390502779S03900148WA0068600687005006029219188
B1123410502785S03900156WA0069200691005006036236233
B1123420502788S03900161WA0069600693005006045244264
B1123430502790S03900170WA0069900695005006054260295
B1123450502788S03900187WA0070500699005006058288347
B1123470502775S03900194WA0070900705005006048341058
B1123490502766S03900193WA0071400710005006022044089
B1123500502764S03900191WA0071700713005006015061110
B1123520502766S03900189WA0072300721005006015179150
B1123540502773S03900190WA0073000727005006032205189
B1123550502778S03900194WA0073300730005006045215193
B1123570502788S03900206WA0073700735005006055245266
B1123580502791S03900214WA0073900739005006053250291
B1124000502788S03900229WA0074400745005008052280335
B1124010502782S03900235WA0074700748005006051313332
B1124030502770S03900243WA0075400757005006037339017
B1124050502762S03900245WA0076100761005006021003063
B1124060502759S03900245WA0076500765005006015019087
B1124080502758S03900242WA0077300772005006008139112
B1124100502762S03900242WA0078100779005006025186142
B1124120502771S03900243WA0078700782005004031186134
B1124140502779S03900243WA0079200790005004025171136
B1124160502786S03900241WA0079600797005006025169131
B1124180502793S03900239WA0080200804005006023157116
B1124200502798S03900236WA0080900810005006020163154
B1124220502807S03900239WA0081500813005006042213221
B1124230502812S03900244WA0081500813005006055230240
B1124250502818S03900261WA0082000814005006058258282
B1124260502818S03900269WA0082000816005006056278294
B1124270502816S03900277WA0082100818005006054285303
B1124290502809S03900291WA0082200820005006050306350
B1124310502799S03900302WA0082500819005006044325359
B1124320502794S03900305WA0082600819005006038327008
B1124340502784S03900309WA0082700824005006031333019
B1124350502781S03900311WA0082800829005004022340046
B1124370502775S03900310WA0083300837005006016038079
B1124380502774S03900308WA0083700839005006016066091
B1124400502774S03900304WA0084300843005006013139115
B1124410502776S03900303WA0084500846005006017164137
B1124430502782S03900303WA0084900850005004025192169
B1124450502791S03900308WA0085300851005004035212171
B1124470502800S03900313WA0085400851005006036209182
B1124490502810S03900319WA0085500853005006038213186
B1124510502819S03900326WA0085500856005006038226200
B1124530502827S03900335WA0085700858005006041230208
B1124540502830S03900339WA0085800859005006042229207
B1124560502839S03900349WA0086100859005006045231213
B1124580502848S03900360WA0086200859005006049237217
B1125000502856S03900374WA0086200858005006055237214
B1125020502865S03900387WA0086200859005006052236210
B1125040502869S03900393WA0086200860005004051237213
B1125060502878S03900406WA0086300863005004049235212
B1125080502887S03900419WA0086500866005003053236234
B1125100502895S03900432WA0086700868005003052238223
B1125120502904S03900446WA0087000870005003056241217
B1125130502910S03900462WA0087000874005003058250245
B1125150502916S03900476WA0087200881005003049247226
B1125170502922S03900491WA0087700885005003052250205
B1125180502926S03900498WA0088000884005003055242189
B1125190502931S03900505WA0088300884005003055234140
B1125200502936S03900511WA0088500883005003055230115
B1125220502944S03900517WA0088500884005004036225074
B1125230502949S03900516WA0088500885005004032209060
B1125250502945S03900513WA0088500891005004010295037
B1125270502932S03900511WA0088900894005004028337044
B1125280502928S03900511WA0089100897005004024340043
B1125300502922S03900513WA0089500899005006017342052
B1125320502916S03900515WA0089900900005006017352057
B1125330502913S03900514WA0089900900005006015001065
B1125340502910S03900514WA0090000900005006015004070
B1125360502906S03900515WA0090000902005006015360065
B1125380502901S03900515WA0090100905005006013357067
B1125390502899S03900514WA0090100907005006013354065
B1125410502894S03900515WA0090400910005006016003049
B1125420502891S03900515WA0090600911005006019354058
B1125440502886S03900516WA0090900916005006020340044
B1125450502883S03900517WA0091000918005006019335042
B1125470502878S03900519WA0091400921005006021333023
B1125480502875S03900520WA0091600923005006026336019
B1125500502866S03900525WA0092100926005006041326342
B1125520502858S03900536WA0092500931005006053295298
B1125540502855S03900553WA0092900936005006061273254
B1125550502857S03900561WA0093100940005006056252227
B1125560502860S03900569WA0093400943005006054251188
B1125580502871S03900577WA0094000947005006041206143
B1125590502876S03900579WA0094300950005006035198126
B1126010502882S03900579WA0094800954005006011147094
B1126020502882S03900577WA0095000956005006010068072
B1126040502878S03900576WA0095300958005006022001043
B1126050502875S03900577WA0095500960005006026346036
B1126060502871S03900578WA0095600962005006028338021
B1126070502867S03900579WA0095700963005006030332023
B1126090502859S03900586WA0096000965005006042320351
B1126110502849S03900596WA0096300965005006051311359
B1126130502840S03900613WA0096500967005006061289267
B1126140502838S03900621WA0096500972005006053278259
B1126160502840S03900635WA0096900981005006048254216
B1126180502846S03900648WA0097800984005006050236178
B1126200502857S03900658WA0098300985005006042214153
B1126220502867S03900662WA0098500988005006024184099
B1126230502869S03900661WA0098600990005006008135065
B1126250502865S03900659WA0098900989005008027015062
B1126260502861S03900658WA0099000988005008027009055
B1126270502857S03900658WA0099000988005008023360057
B1126290502850S03900659WA0098900989005008024003059
B1126310502843S03900657WA0098900986005008026019063
B1126330502836S03900654WA0098900983005008027039065
B1126350502830S03900648WA0098600984005008024043077
B1126370502825S03900644WA0098400983005008021040075
B1126380502822S03900642WA0098400983005008020052084
B1126390502821S03900639WA0098400981005008019079096
B1126400502821S03900637WA0098400979005006019094094
B1126420502822S03900631WA0098100975005006020094104
B1126430502822S03900628WA0097900975005006019102112
B1126450502824S03900623WA0097600976005006017123100
B1126470502827S03900618WA0097600984005006013120086
B1126480502827S03900617WA0097800987005006010083067
B1126500502825S03900615WA0098500992005006014024058
B1126510502823S03900614WA0098800995005006014007058
B1126530502818S03900616WA0099300998005006024345022
B1126550502808S03900618WA0099700998005006039348014
B1126570502796S03900620WA0099800999005006037347020
B1126580502791S03900622WA0099801000005006037334008
B1127000502781S03900630WA0099901000005006051310307
B1127020502772S03900648WA0100000997005008065287281
B1127030502770S03900657WA0100000998005008062278262
B1127050502772S03900672WA0099801000005006048256209
B1127060502774S03900679WA0099801003005006048249186
B1127070502779S03900684WA0099901004005006045226163
B1127090502789S03900690WA0100301005005006033199128
B1127110502796S03900690WA0100501008005006014167092
B1127130502797S03900689WA0100701010005006007085077
B1127140502796S03900687WA0100901010005006009043073
B1127160502792S03900686WA0101001009005006018021046
B1127180502785S03900686WA0100901008005006027351038
B1127190502781S03900687WA0100901008005006030344029
B1127200502777S03900688WA0100801008005006030341031
B1127210502773S03900690WA0100801007005006029341034
B1127230502766S03900691WA0100801007005006024358043
B1127240502762S03900691WA0100801008005006022000052
B1127260502756S03900691WA0100801013005006020349054
B1127270502754S03900692WA0100801016005006015353076
B1127280502752S03900692WA0100901020005006008010098
B1127300502755S03900692WA0101401022005006021197154
B1127320502763S03900697WA0102001023005006034216199
B1127330502766S03900707WA0102101022005006061245237
B1127350502770S03900725WA0102201021005006070272281
B1127370502768S03900744WA0102201026005006063284332
B1127390502758S03900757WA0102401032005006045316014
B1127400502753S03900761WA0102701033005006042328025
B1127420502742S03900765WA0103101034005006031351047
B1127430502738S03900767WA0103201036005006022002062
B1127440502735S03900767WA0103301039005006019001073
B1127460502734S03900764WA0103501043005008008060100
B1127480502734S03900763WA0103901046005006008195098
B1127490502736S03900764WA0104101046005006016208127
B1127510502741S03900766WA0104501044005006021201129
B1127530502748S03900768WA0104601039005006022183130
B1127540502752S03900767WA0104501036005006024175119
B1127560502760S03900766WA0104101033005006021164113
B1127580502764S03900763WA0103501029005006018145106
B1127590502766S03900762WA0103301027005006014141105
B1128000502767S03900761WA0103001026005006011142100
B1128020502769S03900760WA0102701026005006009146107
B1128040502773S03900758WA0102601025005006019161111
B1128050502776S03900757WA0102601026005006019179112
B1128070502780S03900758WA0102601030005006011196109
B1128090502784S03900760WA0102801035005006013204103
B1128110502788S03900759WA0103301037005006011163099
B1128120502789S03900758WA0103301039005006008148086
B1128140502790S03900758WA0103601044005006007207105
B1128150502791S03900759WA0103701045005006012202105
B1128170502796S03900759WA0104201045005006022180124
B1128180502800S03900759WA0104401043005006028174123
B1128200502809S03900758WA0104501041005006031177122
B1128220502817S03900758WA0104301041005006025179125
B1128230502820S03900758WA0104201041005006022182102
B1128250502827S03900758WA0104101041005006019175105
B1128270502833S03900756WA0104101038005006022160104
B1128280502837S03900755WA0104001035005006022159107
B1128300502842S03900753WA0103701033005006018156101
B1128320502847S03900751WA0103301031005006014153107
B1128340502851S03900749WA0103101028005006014160103
B1128350502853S03900749WA0103001025005006015163123
B1128370502858S03900747WA0102901019005006024154109
B1128390502866S03900743WA0102501011005006030150114
B1128410502872S03900739WA0101801006005006028148108
B1128430502879S03900735WA0101101002005006027151109
B1128440502882S03900732WA0100801000005006028145106
B1128460502889S03900727WA0100300998005006031142104
B1128480502897S03900722WA0099900994005006032144097
B1128500502904S03900716WA0099500990005006033136101
B1128520502910S03900708WA0099100989005006033115098
B1128530502913S03900703WA0099000990005006028112099
B1128550502916S03900697WA0099000996005006023124093
B1128570502920S03900690WA0099401003005006025128096
B1128590502925S03900684WA0100001009005006025126107
B1129010502930S03900679WA0100601014005006023127100
B1129030502933S03900675WA0100901020005006016131101
B1129040502935S03900673WA0101201023005006014135099
B1129060502939S03900671WA0101801028005006014141102
B1129080502942S03900669WA0102301031005006011136104
B1129090502943S03900667WA0102601032005006011113098
B1129110502944S03900663WA0103001032005006017097104
B1129120502944S03900660WA0103101031005006022098098
B1129140502944S03900652WA0103101030005006027095084
B1129150502945S03900648WA0103101029005006029096093
B1129170502947S03900640WA0103001033005006022109071
B1129180502947S03900637WA0103001034005006020108084
B1129200502949S03900631WA0103301040005006019109080
B1129210502950S03900629WA0103501043005006016124082
B1129220502952S03900627WA0103701047005006015138085
B1129240502954S03900623WA0104401054005006015124088
B1129250502956S03900622WA0104701058005006015126088
B1129260502957S03900620WA0105101061005006016133092
B1129280502960S03900616WA0105501067005006012114086
B1129300502959S03900612WA0106201071005006014072058
B1129320502955S03900609WA0106701076005006024013016
B1129330502951S03900609WA0107001077005006033348355
B1129350502941S03900615WA0107401080005006044316312
B1129370502934S03900627WA0107701082005006049285276
B1129390502934S03900643WA0108001083005008054263232
B1129410502939S03900657WA0108201087005006047234182
B1129430502949S03900663WA0108501093005006033193132
B1129450502955S03900663WA0109001097005006013157092
B1129470502957S03900661WA0109501102005006012092077
B1129490502954S03900658WA0110001105005006022023021
B1129500502950S03900657WA0110201106005006028000002
B1129520502941S03900660WA0110501106005006038336352
B1129540502932S03900671WA0110601105005006047306335
B1129560502923S03900680WA0110601105005006040327031
B1129570502917S03900682WA0110601103005006037349047
B1129590502906S03900680WA0110501099005006034013044
B1130010502898S03900677WA0110201096005006030019043
B1130020502893S03900676WA0110001094005006030021053
B1130030502888S03900674WA0109801094005006031024057
B1130050502878S03900668WA0109501087005006043036066
B1130070502870S03900661WA0109001075005006044043066
B1130080502865S03900657WA0108501070005006046043055
B1130100502855S03900648WA0107401064005006038037062
B1130120502846S03900644WA0106601069005006029017055
B1130140502837S03900643WA0106701074005006027010044
B1130160502828S03900642WA0107201076005006031002043
B1130170502824S03900641WA0107401078005006028003050
B1130180502820S03900641WA0107501080005006024359058
B1130200502814S03900642WA0107701084005006022359062
B1130210502810S03900641WA0107801083005006025007061
B1130230502803S03900638WA0108201083005006027017056
B1130240502799S03900638WA0108301084005006025011046
B1130260502792S03900637WA0108301087005006024002045
B1130280502784S03900638WA0108401087005006027357048
B1130300502776S03900638WA0108601087005006027354050
B1130320502768S03900640WA0108701091005006029342044
B1130340502760S03900643WA0108901095005006029343045
B1130350502756S03900645WA0109101096005006029346052
B1130360502751S03900645WA0109301098005004030347048
B1130380502743S03900648WA0109701105005006028347049
B1130400502735S03900649WA0109901108005006023348064
B1130420502728S03900651WA0110301114005004024336054
B1130440502722S03900654WA0110801124005004025336045
B1130460502714S03900657WA0111101145005004033339053
B1130480502707S03900660WA0111701138005004021345081
B1130500502703S03900661WA0112301147005004008320102
B1130510502703S03900662WA0112601150005004006319116
B1130530502705S03900665WA0113201158005006016224141
B1130550502709S03900671WA0113901162005004030234171
B1130570502715S03900682WA0114601169005004052251232
B1130580502717S03900691WA0115001171005004067263275
B1131000502718S03900712WA0115501175005006070269313
B1131010502716S03900724WA0115701177005006074276335
B1131030502703S03900734WA0116001185005006050319018
B1131040502696S03900739WA0116301188005006040326040
B1131050502689S03900743WA0116601191005006035333055
B1131060502684S03900744WA0117001192005006029343060
B1131080502677S03900746WA0117601197005006014351091
B1131100502676S03900747WA0118001201005006010215135
B1131120502682S03900752WA0118201207005006041230193
B1131130502686S03900759WA0118501209005006052243213
B1131150502688S03900777WA0119001215005006068273279
B1131170502682S03900799WA0119501218005006075291325
B1131190502669S03900813WA0120001224005006063318013
B1131200502664S03900819WA0120201224005006055325029
B1131210502657S03900822WA0120401226005006042332057
B1131230502648S03900826WA0120901232005006022342080
B1131250502644S03900826WA0121501235005006011012077
B1131270502642S03900827WA0121901239005006002243108
B1131280502642S03900828WA0122101242005006008218121
B1131300502646S03900830WA0122501244005006023209148
B1131320502653S03900834WA0122901247005006027219177
B1131340502658S03900843WA0123101255005006047249231
B1131360502661S03900861WA0123701260005006065270271
B1131380502657S03900881WA0124001263005006071288304
B1131400502648S03900901WA0124501271005006072292315
B1131420502640S03900923WA0125001275005008075292302
B1131440502631S03900946WA0125701274005008088294306
B1131460502619S03900970WA0126001273005006090295303
B1131470502613S03900983WA0126001274005006087296313
B1131490502599S03901003WA0125901279005006082302313
B1131510502588S03901026WA0126201281005006089295293
B1131530502577S03901051WA0126501279005006094290295
B1131550502568S03901078WA0126501277005006090289296
B1131560502563S03901090WA0126401278005006085290299
B1131570502559S03901102WA0126301277005006084291292
B1131580502554S03901113WA0126301276005006085292300
B1131590502549S03901125WA0126201274005006087291304
B1132010502539S03901150WA0126101270005006090292296
B1132020502534S03901163WA0126101268005008092292297
B1132040502524S03901189WA0125701264005006088289297
B1132060502516S03901213WA0125201262005006084284294
B1132080502511S03901238WA0124901255005006085285295
B1132100502503S03901263WA0124601247005006089287293
B1132110502499S03901275WA0124301247005006088285291
B1132130502493S03901299WA0123601246005006075285295
B1132140502490S03901309WA0123301245005006067289303
B1132160502482S03901327WA0123101245005006064297312
B1132170502477S03901335WA0123101244005006065296321
B1132180502473S03901344WA0123001242005006066297315
B1132200502464S03901362WA0122901239005006069294321
B1132210502460S03901372WA0122701236005006071295314
B1132230502451S03901392WA0122301230005006071295315
B1132250502441S03901412WA0121801223005006080298312
B1132260502435S03901423WA0121501219005006082297302
B1132280502424S03901444WA0121101215005006082295302
B1132290502420S03901456WA0120701215005006079293302
B1132310502410S03901476WA0120201215005006073295305
B1132330502401S03901495WA0120001215005006066294311
B1132350502393S03901513WA0120001215005006062295309
B1132370502387S03901530WA0120001214005006063289305
B1132390502380S03901548WA0119901211005008064288302
B1132400502377S03901558WA0119801208005006067291319
B1132420502368S03901577WA0119501203005006076300315
B1132430502362S03901587WA0119301201005006078300312
B1132450502350S03901608WA0118801198005006078297310
B1132470502340S03901628WA0118401195005006073295311
B1132490502332S03901648WA0118201190005006074293304
B1132500502327S03901659WA0118001187005006076293301
B1132520502318S03901681WA0117501182005006078293302
B1132540502309S03901702WA0117201180005006074293300
B1132560502301S03901721WA0116701182005006068292303
B1132580502295S03901739WA0116601183005006062287304
B1133000502290S03901757WA0116701183005006066287304
B1133010502287S03901767WA0116801183005008065290311
B1133020502283S03901776WA0116801183005008065289305
B1133040502279S03901794WA0116801184005006059283306
B1133050502277S03901803WA0116801183005006059283304
B1133070502272S03901820WA0116801182005006063290310
B1133080502269S03901829WA0116801181005006063292311
B1133090502265S03901838WA0116801181005006061291308
B1133110502259S03901853WA0116701180005006054290318
B1133120502256S03901861WA0116601179005006054296316
B1133130502252S03901868WA0116601175005006056296323
B1133150502242S03901885WA0116201167005006070302309
B1133170502231S03901908WA0115601162005006081298312
B1133190502222S03901927WA0115201168005006065296307
B1133210502216S03901939WA0114901181005006040293312
B1133230502210S03901950WA0115501189005006041304360
B1133240502206S03901955WA0116101191005006042322024
B1133260502196S03901957WA0117201194005006030008074
B1133280502193S03901954WA0117601197005006017122133
B1133300502201S03901954WA0118001202005006040200192
B1133310502207S03901958WA0118301203005006048227222
B1133330502212S03901974WA0118801209005006061264287
B1133350502210S03901991WA0119201213005006059283313
B1133360502208S03901999WA0119401218005004053287322
B1133380502205S03902006WA0119701222005004049291340
B1133390502197S03902017WA0120401228005004046314016
B1133410502191S03902020WA0120701230005003043332038
B1133430502182S03902019WA0121301236005003026015104
B1133450502184S03902017WA0121501242005003013169163
B1133470502192S03902020WA0122101242005003034202191
B1133490502203S03902036WA0122501246005003055237227
B1133500502205S03902044WA0122501249005003056252266
B1133510502206S03902052WA0122601253005003054264269
B1133520502205S03902060WA0122701257005003052276301
B1133540502200S03902075WA0123301259005003054290294
B1133560502195S03902091WA0124001264005003056291317
B1133580502185S03902104WA0124401270005003053309008
B1134000502173S03902111WA0125001274005003045334048
B1134010502168S03902112WA0125201277005003035346080
B1134030502164S03902111WA0125701282005004005002139
B1134050502171S03902113WA0126101286005004038211195
B1134070502179S03902127WA0126501290005006069254253
B1134090502180S03902148WA0126901294005006073273277
B1134110502177S03902169WA0127101301005006066274267
B1134120502177S03902179WA0127301303005006066273274
B1134130502176S03902189WA0127601304005006070276287
B1134140502175S03902200WA0127901305005006074280294
B1134150502172S03902211WA0128201304005006077283300
B1134160502170S03902224WA0128401304005006083283286
B1134180502165S03902249WA0128501303005006087280282
B1134200502161S03902276WA0128501304005006089279287
B1134210502159S03902289WA0128401305005006089282293
B1134230502152S03902314WA0128501308005006085287307
B1134250502144S03902337WA0128801310005008080289289
B1134270502137S03902360WA0129001310005008080284290
B1134280502133S03902372WA0129001309005006082285300
B1134300502126S03902397WA0129001305005006090287292
B1134310502122S03902410WA0128901303005006091289301
B1134330502113S03902436WA0128601299005008088290297
B1134340502108S03902448WA0128301300005006082290298
B1134350502104S03902459WA0128201301005006078290293
B1134370502097S03902482WA0128101300005006078288305
B1134380502093S03902493WA0128101299005006080288298
B1134400502085S03902516WA0128201290005006083290306
B1134420502077S03902539WA0127801281005006085292299
B1134440502068S03902565WA0127001272005006085291313
B1134460502060S03902588WA0126101269005006082289319
B1134480502052S03902612WA0125201262005006086288307
B1134500502043S03902637WA0124601256005006085291308
B1134520502034S03902659WA0123901253005006080292311
B1134540502024S03902681WA0123501250005006076294319
B1134560502015S03902701WA0123201245005006076297320
B1134570502010S03902711WA0123001243005006077299325
B1134590501999S03902731WA0122601238005006077298320
B1135000501993S03902741WA0122301237005006077299323
B1135020501982S03902762WA0121901235005006078299320
B1135040501971S03902783WA0121801233005006075298324
B1135060501961S03902802WA0121601232005006069300327
B1135070501956S03902811WA0121501232005006068300322
B1135090501945S03902827WA0121401230005006068302337
B1135100501940S03902836WA0121301228005006068302327
B1135120501928S03902854WA0121201227005006072302334
B1135140501917S03902873WA0120901225005006073301327
B1135160501906S03902892WA0120601222005006073300323
B1135180501895S03902911WA0120401221005006073297328
B1135190501890S03902920WA0120301219005006070297329
B1135210501881S03902939WA0120101215005006070298336
B1135220501876S03902948WA0120001213005006071299332
B1135240501866S03902967WA0119601208005006072300330
B1135260501855S03902984WA0119101203005008071301333
B1135280501844S03903003WA0118601199005008073302336
B1135290501838S03903012WA0118601196005008073303340
B1135310501826S03903030WA0118101192005008073302336
B1135320501820S03903039WA0117901190005008073301334
B1135340501809S03903059WA0117401186005006074301331
B1135350501803S03903068WA0117201184005006074302327
B1135360501797S03903078WA0117001182005006074301333
B1135380501786S03903097WA0116601179005008074303334
B1135390501780S03903106WA0116401176005008076305338
B1135400501773S03903116WA0116201173005008077306339
B1135410501766S03903126WA0115901169005008080305333
B1135430501752S03903147WA0115301162005008082304336
B1135440501745S03903157WA0114901159010012081306335
B1135450501738S03903168WA0114601157010012080306335
B1135470501724S03903186WA0114001154010012078307338
B1135490501712S03903206WA0113601150010012078304334
B1135510501701S03903226WA0113301149005008074305338
B1135520501695S03903235WA0113101148005008070304338
B1135540501685S03903253WA0112901145005006069305333
B1135560501672S03903270WA0112801141005006073306340
B1135580501659S03903287WA0112501138005006070305333
B1135590501653S03903296WA0112301137005004068305344
B1136000501647S03903305WA0112201136005006071305345
B1136010501641S03903313WA0112001133005006069302342
B1136030501630S03903330WA0111701131005006070305339
B1136040501623S03903339WA0111601129005006071306340
B1136060501611S03903357WA0111201125005006072305340
B1136080501600S03903374WA0110801122005006072303339
B1136100501588S03903392WA0110401119005006072303331
B1136120501577S03903410WA0110101115005006073303337
B1136130501572S03903419WA0109901113005006073302336
B1136150501559S03903439WA0109501108005006076302336
B1136160501553S03903448WA0109301106005006077303337
B1136180501542S03903468WA0108901102005006075302339
B1136190501535S03903477WA0108601100005006075302335
B1136200501529S03903486WA0108601099005006075304344
B1136220501517S03903504WA0108201095005006075306342
B1136240501502S03903522WA0107901091005008075308342
B1136250501496S03903532WA0107701087005008076306342
B1136270501485S03903552WA0107301083005008076304340
B1136290501473S03903571WA0106801081005008073304341
B1136310501460S03903588WA0106301078005006072307340
B1136330501445S03903606WA0106001074005006077310340
B1136340501439S03903616WA0105801071005006079305340
B1136360501428S03903636WA0105401065005006078303338
B1136370501422S03903646WA0105101063005006075303340
B1136380501416S03903655WA0104801062005006073303335
B1136400501405S03903674WA0104401060005006070302339
B1136410501400S03903683WA0104301058005006070302340
B1136430501387S03903701WA0104001052005006076306341
B1136440501382S03903711WA0103801049005006077303336
B1136460501372S03903731WA0103501046005004076298336
B1136470501367S03903741WA0103201045005004075296331
B1136480501363S03903751WA0103001043005004074295330
B1136500501352S03903771WA0102601039005004074296326
B1136520501341S03903792WA0102201036005004081298333
B1136540501329S03903812WA0101801035005004074299323
B1136560501321S03903830WA0101401036005006061294320
B1136580501313S03903847WA0101301035005006064297320
B1137000501303S03903867WA0101301028005006077298332
B1137020501291S03903887WA0100901021005006077297331
B1137040501282S03903905WA0100201022005006056295333
B1137060501276S03903919WA0100001023005006053295336
B1137070501272S03903927WA0100001021005006058296340
B1137090501263S03903944WA0100001014005006070298339
B1137110501252S03903963WA0099501010005004072300336
B1137130501242S03903981WA0099201011005006060299341
B1137150501234S03903996WA0098901009005004059301340
B1137170501224S03904012WA0098801004005006066302336
B1137190501216S03904033WA0098600998005006071297334
B1137200501212S03904042WA0098400998005006070296334
B1137210501207S03904052WA0098100997005006069295336
B1137230501199S03904069WA0097600994005006068296350
B1137240501195S03904078WA0097500992005006069297339
B1137250501191S03904088WA0097300990005006071298338
B1137260501186S03904097WA0097200987005006072299337
B1137280501174S03904116WA0096700984005006073300340
B1137290501169S03904125WA0096500983005006072300340
B1137310501158S03904144WA0096200981005006068301345
B1137330501147S03904162WA0096000979005006069301342
B1137350501136S03904180WA0095800975005006070301339
B1137370501126S03904197WA0095500972005006068301345
B1137390501116S03904215WA0095300969005006071298340
B1137410501106S03904234WA0095000967005006068297343
B1137420501101S03904243WA0094900965005006067298341
B1137440501092S03904260WA0094600962005006068298341
B1137460501082S03904279WA0094300961005006070299339
B1137470501076S03904287WA0094200960005006069300341
B1137490501067S03904305WA0093900959005004066298339
B1137510501059S03904322WA0093800960005003059296338
B1137520501055S03904330WA0093800960005004058295336
B1137540501048S03904347WA0093900960005004060294335
B1137560501040S03904363WA0093900958005004060296342
B1137570501036S03904371WA0093900958005004059296337
B1137590501029S03904387WA0093900959005006059294336
B1138000501025S03904395WA0093900959005006060293340
B1138010501022S03904404WA0093900959005006059292336
B1138030501015S03904419WA0094000959005006058293337
B1138040501011S03904428WA0094000959005006059293336
B1138060501004S03904444WA0094000961005006062296330
B1138070501000S03904452WA0094000962005006059296337
B1138090500992S03904468WA0094100966005006056295333
B1138100500989S03904476WA0094200967005006057296330
B1138110500984S03904483WA0094400968005006059297329
B1138130500978S03904499WA0094700969005006054291306
B1138150500975S03904515WA0094900972005006050272273
B1138170500976S03904529WA0095200973005006047258259
B1138180500978S03904536WA0095300973005006047256257
B1138190500980S03904543WA0095300974005006047257256
B1138200500982S03904550WA0095400975005008046258259
B1138220500984S03904564WA0095500977005006048264273
B1138240500984S03904578WA0095700979005006047268280
B1138260500985S03904593WA0096000981005006052268282
B1138270500984S03904601WA0096100981005006053269284
B1138290500985S03904617WA0096100981005006054268284
B1138300500985S03904625WA0096200982005006053268283
B1138320500985S03904640WA0096200984005006052268288
B1138330500985S03904648WA0096200985005006052266290
B1138350500986S03904663WA0096400986005006049266289
B1138360500987S03904671WA0096500987005006050269298
B1138370500987S03904679WA0096600987005006051271294
B1138390500986S03904694WA0096800988005008050275310
B1138410500984S03904709WA0096900988005008054276318
B1138430500984S03904728WA0096900986005008064271306
B1138440500984S03904737WA0096900985005008064269302
B1138460500984S03904755WA0096700987005008055268296
B1138470500985S03904763WA0096700989005006052271295
B1138490500984S03904778WA0096900992005006054273309
B1138500500984S03904788WA0097100991005006060275305
B1138510500983S03904797WA0097200990005006064277295
B1138530500981S03904815WA0097200991005008054277304
B1138540500980S03904822WA0097200991005008052275297
B1138560500978S03904839WA0097200991005008059276298
B1138580500975S03904857WA0097200991005008060276302
B1138590500974S03904866WA0097200991005008059276296
B1139010500973S03904883WA0097200992005008058271293
B1139020500973S03904891WA0097200992005008056270289
B1139030500973S03904900WA0097200992005008056269288
B1139050500973S03904916WA0097300993005008052269294
B1139070500973S03904933WA0097300992005008058274302
B1139090500971S03904952WA0097300989005008066274301
B1139110500970S03904972WA0097100984005008070273301
B1139130500970S03904993WA0096700981005008069269302
B1139140500970S03905004WA0096500981005008070267300
B1139160500972S03905026WA0096300978005008073262296
B1139170500974S03905037WA0096200977005008074259296
B1139190500979S03905058WA0096000974005008073261306
B1139200500981S03905069WA0095900974005008072260304
B1139220500985S03905089WA0095700976005008068257297
B1139240500988S03905107WA0095600978005008059264297
B1139250500989S03905116WA0095700980005008054266300
B1139260500990S03905124WA0095700981005008051266296
B1139280500990S03905140WA0096000982005008055267329
B1139300500991S03905157WA0096200981005008060269311
B1139310500991S03905166WA0096200981005008060271307
B1139330500991S03905184WA0096200982005008060271309
B1139340500990S03905193WA0096200982005008060270309
B1139360500991S03905211WA0096300983005006058268306
B1139370500992S03905219WA0096300984005006057266305
B1139390500993S03905236WA0096500986005008054265307
B1139410500994S03905252WA0096600988005008050265308
B1139430500995S03905266WA0096800988005008048272311
B1139450500995S03905282WA0096900984005006060271313
B1139470500995S03905302WA0096800979005006070267315
B1139490500996S03905323WA0096500976005006069266307
B1139510500998S03905342WA0096000977005008062265307
B1139530500999S03905361WA0095800977005008061268308
B1139540500999S03905370WA0095800977005008060270316
B1139560500998S03905388WA0095800976005006065272320
B1139570500997S03905399WA0095800975005006067273320
B1139580500997S03905409WA0095800974005006067272314
B1140000500997S03905428WA0095600972005006065266303
B1140020501000S03905448WA0095400971005006067258284
B1140030501003S03905458WA0095300971005008066255284
B1140050501009S03905476WA0095200972005008065252278
B1140060501012S03905485WA0095200973005008063252288
B1140080501015S03905502WA0095300980010008055258318
B1140100501016S03905516WA0095800986005008051282314
B1140120501010S03905530WA0096100987005006052309356
B1140140501000S03905538WA0096600987005006040336027
B1140150500995S03905539WA0096700988005006031351057
B1140170500989S03905539WA0096800990005006011027079
B1140190500990S03905538WA0096900992005006006162111
B1140200500991S03905537WA0097000992005006008173116
B1140220500994S03905538WA0097200994005006017201147
B1140240501001S03905543WA0097400996005006040225191
B1140260501008S03905555WA0097600996005006055241229
B1140280501014S03905571WA0097700999005006057261271
B1140300501012S03905588WA0097801001005006060288308
B1140310501008S03905596WA0098001002005006058301328
B1140330500998S03905608WA0098201004005006046320006
B1140340500992S03905611WA0098301004005006039332034
B1140360500983S03905614WA0098501005005006025360066
B1140380500980S03905612WA0098501007005006008084101
B1140400500984S03905612WA0098601008005006025194156
B1140410500988S03905614WA0098701008005006033206170
B1140430500997S03905621WA0098901008005006043225205
B1140440501001S03905626WA0098901009005006046232197
B1140460501009S03905637WA0098901011005006048240219
B1140470501012S03905643WA0098901011005006047243228
B1140490501017S03905657WA0099101013005006051256256
B1140500501018S03905665WA0099201013005006055267269
B1140510501018S03905674WA0099301013005006057272280
B1140530501016S03905690WA0099401011005006055279275
B1140540501015S03905698WA0099301011005006056278277
B1140560501013S03905715WA0099201008005008063277281
B1140580501011S03905735WA0099001002005008067276280
B1141000501009S03905755WA0098601002005008057278279
B1141010501007S03905764WA0098401002005008055276280
B1141030501006S03905780WA0098301000005008058270280
B1141040501007S03905789WA0098300999005008062272284
B1141050501006S03905798WA0098300998005008061275287
B1141070501005S03905816WA0098100997005008057272281
B1141090501004S03905833WA0097900996005008059271278
B1141100501005S03905841WA0097900994005008061270273
B1141110501005S03905851WA0097800993005008062269272
B1141130501006S03905870WA0097600992005008061269266
B1141140501005S03905880WA0097500992005008061270264
B1141150501005S03905889WA0097400992005008060272266
B1141170501004S03905908WA0097300991005008062272266
B1141180501003S03905917WA0097300990005008064271270
B1141190501003S03905927WA0097200990005008065270268
B1141210501003S03905946WA0097100990005008061271256
B1141220501002S03905955WA0097100991005008058272262
B1141230501002S03905964WA0097100991005008058270257
B1141250501003S03905981WA0097200990005006059262258
B1141260501004S03905989WA0097200990005008056263270
B1141270501005S03905998WA0097200990005006054267272
B1141290501003S03906015WA0097100986005006061277281
B1141300501002S03906024WA0097100984005006064276280
B1141320501001S03906043WA0096900980005006065274279
B1141330501000S03906053WA0096700979005006065274282
B1141350501000S03906072WA0096300978005006064271278
B1141370500999S03906091WA0096000977005006062272282
B1141390500998S03906110WA0095900976005006062278295
B1141400500996S03906119WA0095800975005006061282296
B1141410500994S03906128WA0095700974005006061284296
B1141430500990S03906146WA0095600972005006062283301
B1141450500986S03906164WA0095400970005006064280298
B1141470500983S03906184WA0095200967005006066279299
B1141490500979S03906203WA0094900965005006065282296
B1141500500975S03906222WA0094700962005004064282298
B1141520500974S03906231WA0094600960005004064281299
B1141530500970S03906250WA0094400958005004063281301
B1141550500968S03906259WA0094400957005003062282306
B1141560500966S03906268WA0094300956005003063283308
B1141570500964S03906277WA0094200954005003064284308
B1141580500961S03906287WA0094100953005003064285310
B1142000500957S03906305WA0093900951005003060284306
B1142010500955S03906313WA0093800951005003058284310
B1142030500949S03906330WA0093600949005003060287311
B1142050500944S03906347WA0093500948005003059289312
B1142070500939S03906362WA0093400949005003052287307
B1142090500936S03906376WA0093500951005003047285305
B1142110500932S03906391WA0093600952005003050288303
B1142130500926S03906407WA0093700950005004057285303
B1142150500922S03906421WA0093700950005004051287305
B1142170500918S03906435WA0093600950005004052286308
B1142190500912S03906452WA0093600946005004060288309
B1142200500909S03906460WA0093500943005004062288306
B1142220500903S03906478WA0093300940005004062287307
B1142240500899S03906496WA0092900939005003058286310
B1142250500897S03906505WA0092800938005004059285312
B1142270500892S03906523WA0092600934005004064285312
B1142290500887S03906541WA0092300930005004064287309
B1142310500881S03906559WA0091900929005004059287312
B1142330500877S03906576WA0091600925005004059286317
B1142350500871S03906593WA0091300920005004064289316
B1142370500865S03906612WA0090800916005006062288316
B1142390500860S03906629WA0090300913005006061286312
B1142410500855S03906647WA0090000910005006060286313
B1142420500852S03906655WA0089800909005004061286310
B1142440500847S03906673WA0089500905005004060289317
B1142460500840S03906689WA0089200901005004060291319
B1142480500834S03906706WA0089000898005006061293321
B1142500500827S03906723WA0088700896005006059293318
B1142520500820S03906739WA0088400894005006058294321
B1142540500813S03906756WA0088200892005006059294323
B1142550500805S03906772WA0088000890005006059295326
B1142560500801S03906780WA0087900890005006059296325
B1142580500793S03906796WA0087700888005006060295319
B1142590500789S03906804WA0087600886005006061295314
B1143000500785S03906813WA0087400885005006062289308
B1143020500780S03906832WA0087200882005006063287305
B1143030500778S03906841WA0087100881005006062285301
B1143050500773S03906859WA0086800879005008062281293
B1143060500772S03906869WA0086700879005008061278292
B1143070500771S03906878WA0086600878005008058277293
B1143090500768S03906894WA0086500879005008058277287
B1143100500767S03906903WA0086500878005008062277288
B1143120500764S03906923WA0086400876005008066277291
B1143140500762S03906944WA0086400874005008066273280
B1143160500762S03906963WA0086200874005008064271278
B1143170500761S03906972WA0086100873005008063273286
B1143180500761S03906982WA0086000871005008064274282
B1143200500760S03907001WA0086000867005008068271285
B1143210500760S03907011WA0085800867005008070269294
B1143230500761S03907031WA0085500864005008064266287
B1143250500762S03907050WA0085100863005008063267280
B1143260500763S03907060WA0085000861005008065268283
B1143280500763S03907080WA0084800857005008071272288
B1143290500763S03907091WA0084700853005008071272295
B1143300500762S03907102WA0084400850010012071272289
B1143310500762S03907113WA0084200847005012072274287
B1143330500762S03907135WA0083600844005004066272295
B1143350500763S03907154WA0083100840005006066269286
B1143360500762S03907164WA0083000838005006066268286
B1143370500762S03907173WA0082800835005006067268282
B1143390500763S03907193WA0082500830005006065269283
B1143410500765S03907213WA0082000827005008065263264
B1143430500768S03907233WA0081500822005008066257261
B1143450500775S03907251WA0081200819005008058249249
B1143460500778S03907259WA0081000816005008060249266
B1143480500784S03907276WA0080600813005008064250274
B1143500500791S03907295WA0080100806005008067250264
B1143510500794S03907305WA0079800804005008066252239
B1143530500798S03907323WA0079200807005008058257234
B1143540500801S03907330WA0079100809005008056256236
B1143550500803S03907338WA0079100811005006055255238
B1143570500807S03907355WA0079500813005008058256243
B1143590500812S03907371WA0079800812005008062251222
B1144000500815S03907380WA0079800812005008060247225
B1144020500823S03907394WA0079800814005008051238206
B1144040500832S03907407WA0079800816005004050234208
B1144060500840S03907420WA0080000815005006055235209
B1144070500844S03907426WA0080100815005006051235205
B1144090500853S03907439WA0080100816005006054233213
B1144100500859S03907446WA0080100814005008058232210
B1144120500871S03907460WA0080200813005008063231214
B1144130500876S03907467WA0080100813005008059235213
B1144140500880S03907475WA0080000813005004054243225
B1144160500887S03907489WA0079900812005006057244235
B1144180500896S03907506WA0079800805005006064244232
B1144200500903S03907524WA0079400800005008067253238
B1144210500906S03907534WA0079100798005008067254234
B1144230500911S03907554WA0078600793005008067256236
B1144240500914S03907565WA0078400792005008069257240
B1144250500916S03907574WA0078100790005008070258248
B1144270500920S03907595WA0077800787005008069259248
B1144290500922S03907615WA0077500783005008070260245
B1144310500927S03907636WA0077300776005008076262254
B1144330500930S03907659WA0076800768005008080265258
B1144350500932S03907684WA0076100761005006082267261
B1144370500935S03907709WA0075400756005006079263246
B1144380500937S03907720WA0075000755005008076262240
B1144400500942S03907740WA0074400753005008073253233
B1144410500946S03907751WA0074200751005006074252237
B1144430500952S03907774WA0073800747005006077254241
B1144450500956S03907796WA0073400745005008072262257
B1144470500957S03907816WA0073200748005008066271266
B1144490500957S03907834WA0073300749005008065273266
B1144510500956S03907855WA0073500748005008066274276
B1144520500955S03907865WA0073500746005008071272282
B1144540500955S03907886WA0073300742005008069270268
B1144550500955S03907896WA0073100742005008065270271
B1144570500956S03907916WA0073000740005008066264256
B1144590500959S03907936WA0072800736005008072257243
B1145000500961S03907947WA0072700734005008071255243
B1145020500966S03907967WA0072400734005008064260256
B1145030500967S03907976WA0072200734005008065264259
B1145050500970S03907996WA0072000733005006066264262
B1145060500971S03908008WA0072000732005006069262262
B1145080500974S03908028WA0071900730005006066263256
B1145100500975S03908048WA0071700730005008064269259
B1145110500975S03908057WA0071700730005008063270256
B1145120500976S03908066WA0071700729005008065269268
B1145140500977S03908086WA0071600726005008069267270
B1145150500977S03908095WA0071500725005008068269264
B1145170500977S03908113WA0071200725005008054271266
B1145190500978S03908129WA0071100722005008055271277
B1145200500977S03908137WA0071100719005008060275282
B1145210500976S03908147WA0071000715005008063276280
B1145220500975S03908156WA0070800711005008062276282
B1145240500973S03908174WA0070400707005008059279288
B1145250500972S03908183WA0070100705005008060280287
B1145270500969S03908202WA0069500701005008062282293
B1145290500964S03908220WA0069100697005008063280295
B1145310500961S03908238WA0068700694005008064280293
B1145320500960S03908247WA0068500692005008066281291
B1145340500956S03908267WA0068000686005008067280292
B1145360500952S03908287WA0067500682005006067281292
B1145370500950S03908296WA0067200679005006067282294
B1145380500948S03908306WA0067000677005006067281293
B1145390500946S03908316WA0066700675005008066281299
B1145410500944S03908336WA0066300672005006065278305
B1145430500942S03908355WA0065900668005006066275297
B1145440500941S03908365WA0065700666005006067274293
B1145460500940S03908386WA0065400664005006065272294
B1145470500939S03908395WA0065200665005008061279300
B1145480500937S03908403WA0065100665005006056285291
B1145490500935S03908411WA0065100663005006056292306
B1145510500927S03908427WA0065100658005006061298318
B1145520500923S03908435WA0065000656005006062297319
B1145530500919S03908444WA0064900654005006062296316
B1145550500911S03908461WA0064400654005006061292294
B1145570500907S03908479WA0064100657005006053282294
B1145590500903S03908493WA0064100659005008048286299
B1146000500901S03908499WA0064200660005006048285296
B1146020500897S03908513WA0064500661005006049284304
B1146030500895S03908520WA0064600662005006048288308
B1146050500889S03908532WA0064800662005006047301343
B1146070500880S03908541WA0064800660005008037323027
B1146080500877S03908544WA0064800659005008027339041
B1146100500871S03908544WA0064600657005008014011083
B1146120500869S03908543WA0064400655005008007097112
B1146140500873S03908541WA0064300653005008025174158
B1146160500883S03908545WA0064100649005008047211195
B1146180500895S03908555WA0063800648005008051225205
B1146190500901S03908559WA0063700649005008049225210
B1146200500906S03908565WA0063500651005008047225199
B1146220500914S03908574WA0063500655005008042226202
B1146240500921S03908583WA0063800657005008039233223
B1146260500928S03908596WA0064200657005008053246259
B1146280500931S03908612WA0064300656005008053266287
B1146300500926S03908628WA0064300657005008049293313
B1146320500919S03908639WA0064300659005008042310002
B1146340500910S03908644WA0064400659005008028336047
B1146360500905S03908644WA0064500658005008011063086
B1146380500907S03908640WA0064500657005008018153134
B1146390500911S03908640WA0064400657005008025178150
B1146400500914S03908641WA0064400658005008030191168
B1146420500923S03908645WA0064400659005008038213191
B1146440500932S03908653WA0064400659005008044227215
B1146460500940S03908665WA0064500660005008047247250
B1146470500942S03908672WA0064500659005008049252248
B1146480500945S03908679WA0064500659005008049257250
B1146500500946S03908694WA0064600660005008050274278
B1146520500943S03908710WA0064600659005008054287291
B1146530500941S03908717WA0064600657005006056288297
B1146540500939S03908725WA0064500656005006057288297
B1146560500933S03908740WA0064300657005006052297321
B1146580500925S03908751WA0064300658005006041319005
B1147000500915S03908755WA0064400657005006026347039
B1147020500910S03908755WA0064300656005008009058086
B1147030500911S03908753WA0064300656005006012130109
B1147050500917S03908752WA0064300655005006030184152
B1147070500927S03908757WA0064200654005006047219202
B1147090500936S03908770WA0064100652005008057249248
B1147110500938S03908788WA0064000652005008056270287
B1147120500936S03908796WA0063900652005008057286297
B1147130500934S03908803WA0063900652005006054293313
B1147150500927S03908816WA0063800652005006045304342
B1147160500923S03908822WA0063800653005006041310337
B1147180500915S03908832WA0063900652005006043310339
B1147190500911S03908837WA0063900652005006045309335
B1147200500906S03908843WA0063900652005006045311337
B1147220500897S03908853WA0063800652005006045311328
B1147240500889S03908864WA0063800652005006046306334
B1147250500884S03908869WA0063800652005006045309332
B1147270500876S03908880WA0063800650005006048307325
B1147290500867S03908893WA0063800647005006056304316
B1147300500862S03908900WA0063700645005006057306321
B1147320500853S03908913WA0063500643005006052302313
B1147330500849S03908919WA0063300643005006051300315
B1147340500846S03908925WA0063100643005006050300308
B1147350500842S03908932WA0063000643005006049299313
B1147370500835S03908946WA0062900640005006056300311
B1147390500826S03908961WA0062800638005004060301302
B1147400500822S03908969WA0062700636005006058302309
B1147410500817S03908977WA0062600636005006060303312
B1147430500807S03908993WA0062400632005006064304313
B1147450500798S03909012WA0062100626005006067294303
B1147460500795S03909021WA0061800623005006064293301
B1147480500787S03909038WA0061300618005006062295319
B1147490500782S03909047WA0061000614005006064299319
B1147510500772S03909063WA0060400606005006063301318
B1147530500762S03909078WA0059700599005008063304320
B1147540500756S03909086WA0059300597005008063305318
B1147560500747S03909103WA0058600592010008062298312
B1147570500744S03909113WA0058600590005012062295312
B1147590500735S03909129WA0058100585005012062299311
B1148000500730S03909137WA0057900583010012062303313
B1148020500719S03909152WA0057500578010012064307320
B1148040500707S03909167WA0057000573010012064307323
B1148060500699S03909182WA0056600572010008061306320
B1148080500690S03909198WA0056100565005006061300321
B1148100500681S03909215WA0055500559005006062296315
B1148120500673S03909231WA0054900556005008059297323
B1148130500669S03909239WA0054600555005008056298318
B1148150500662S03909254WA0054300550005006057293291
B1148170500661S03909277WA0054000544005008072273284
B1148190500662S03909298WA0053400537005008070271282
B1148200500662S03909308WA0053000536005008066272282
B1148220500660S03909326WA0052700535005008059273281
B1148230500659S03909335WA0052500534005008059273285
B1148250500660S03909353WA0052300527005008061273275
B1148270500659S03909373WA0052000521005008069271280
B1148280500658S03909383WA0051700519005008070270280
B1148300500660S03909405WA0051100515005008073263273
B1148320500661S03909424WA0050600514005008059269279
B1148330500661S03909433WA0050400514005006054272288
B1148350500661S03909450WA0050200512005006060270288
B1148370500660S03909469WA0050000505005006067274290
B1148390500659S03909490WA0049500500005008067276293
B1148400500658S03909499WA0049200500005008065278287
B1148420500655S03909518WA0048800501005008058278293
B1148430500654S03909526WA0048800501005012056279291
B1148450500651S03909542WA0048800501005008054279292
B1148470500649S03909559WA0048800499005008057283338
B1148480500646S03909567WA0048800498005008058287338
B1148500500641S03909583WA0048700497005008053290328
B1148510500638S03909590WA0048600496005008053290332
B1148520500635S03909598WA0048500496005008054293328
B1148540500628S03909611WA0048400493005008056298333
B1148550500624S03909618WA0048300492005008055300332
B1148560500620S03909625WA0048200492005006054299334
B1148580500613S03909639WA0048000492005006052295336
B1148590500610S03909646WA0047900492005006051295335
B1149010500603S03909660WA0047900492005006054299342
B1149020500598S03909667WA0047900491005006054304352
B1149040500589S03909679WA0047900491005006050305347
B1149060500581S03909692WA0047800493005006047301343
B1149070500577S03909699WA0047900493005006045303350
B1149090500568S03909709WA0048000492005006047316017
B1149110500558S03909717WA0048000489005006038335032
B1149130500548S03909721WA0047900488005006032329032
B1149150500542S03909727WA0047600488005006027319034
B1149170500534S03909733WA0047600485005006036333015
B1149180500529S03909735WA0047600482005006042335024
B1149200500516S03909742WA0047300479005008048330023
B1149220500504S03909748WA0046900479005008044331016
B1149240500495S03909755WA0046600479005008041329014
B1149250500489S03909759WA0046600479005008046328015
B1149260500483S03909763WA0046600478005006051328005
B1149280500469S03909771WA0046600475005008050334018
B1149290500462S03909774WA0046500474005008049335015
B1149310500449S03909780WA0046200472005006051327010
B1149320500442S03909785WA0046100472005006052327011
B1149330500435S03909789WA0046000471005006053327002
B1149340500428S03909794WA0045900469005006055328009
B1149350500421S03909799WA0045800468005006056326359
B1149370500409S03909807WA0045600467005006045321008
B1149380500404S03909811WA0045500468005006040320009
B1149400500395S03909819WA0045500467005006045327011
B1149420500383S03909827WA0045500463005006052327009
B1149440500370S03909836WA0045400462005006048323006
B1149460500359S03909844WA0045000464005006044322004
B1149470500354S03909848WA0045000464005006039320356
B1149490500345S03909855WA0045100465005006038325008
B1149500500340S03909858WA0045200464005006046334021
B1149520500328S03909864WA0045200459005006045334019
B1149540500315S03909871WA0044800456010008047335023
B1149560500300S03909879WA0044400450005008053338009
B1149580500286S03909885WA0044000448005008057322354
B1149590500280S03909891WA0043700448005008056316348
B1150010500269S03909901WA0043500445005008054324018
B1150030500255S03909908WA0043400440005006051343036
B1150040500248S03909909WA0043200439005006046346038
B1150060500236S03909912WA0043000438005006039347033
B1150070500231S03909913WA0042800436005006039349041
B1150090500219S03909915WA0042600432005006042000045
B1150100500212S03909915WA0042500429005006045006043
B1150120500198S03909913WA0042100425005006047004043
B1150130500191S03909913WA0041800425005006047000037
B1150150500179S03909913WA0041400426005006041353038
B1150170500166S03909914WA0041300427005006040354023
B1150180500160S03909915WA0041300425005006046352019
B1150190500152S03909916WA0041300422005006052351017
B1150210500136S03909919WA0041100418005006048349032
B1150230500123S03909921WA0040700420005006037345031
B1150240500118S03909924WA0040600421005006035346041
B1150260500107S03909925WA0040700420005006036001044
B1150280500096S03909925WA0040800418005006037006048
B1150300500087S03909924WA0040800421005006031356045
B1150320500077S03909928WA0040700424005006030339043
B1150340500071S03909930WA0040900424005006026340052
B1150350500067S03909932WA0041000423005006026347064
B1150370500060S03909933WA0041100423005006022352073
B1150390500056S03909932WA0041100423005006010013069
B1150410500054S03909932WA0041100426005006004013089
B1150430500055S03909933WA0041200429005008005223105
B1150440500056S03909933WA0041300429005008003138110
B1150450500057S03909932WA0041500428005008006125103
B1150470500059S03909929WA0041600426005008010134112
B1150480500060S03909928WA0041500426005008009129105
B1150490500061S03909927WA0041400426005008007081101
B1150510500060S03909925WA0041400428005008008026095
B1150520500059S03909924WA0041400429005008007014099
B1150540500057S03909925WA0041600431005008001357102
B1150560500057S03909925WA0041700433005008002358104
B1150570500057S03909925WA0041800433005008001358112
B1150590500056S03909925WA0042000433005008005358099
B1151010500054S03909927WA0042000429005008008326098
B1151020500053S03909927WA0042000427005008009358093
B1151040500050S03909927WA0041800424005008011029100
B1151060500048S03909926WA0041300420005008010024099
B1151080500045S03909924WA0040900419005008008032104
B1151100500043S03909922WA0040600416005008011056102
B1151110500042S03909921WA0040500413005008011050108
B1151130500040S03909917WA0040200407005008015066106
B1151140500040S03909915WA0039900406005008016069101
B1151160500038S03909910WA0039400399005008019050095
B1151180500035S03909906WA0038900393005008018046093
B1151190500033S03909905WA0038500393005008019036091
B1151200500030S03909903WA0038500390005008021031093
B1151220500024S03909899WA0038100385005008023032085
B1151240500017S03909895WA0037700380005008030025074
B1151260500008S03909893WA0037200376005008034013072
B1151270500003S03909892WA0036900375005008033016075
B1151290459994S03909888WA0036500373005008030027086
B1151300459991S03909886WA0036300371005008030035084
B1151320459983S03909881WA0036000366005008034033086
B1151330459979S03909878WA0035700364005008034032083
B1151350459971S03909873WA0035300361005008030027088
B1151370459963S03909869WA0034900359005006030030087
B1151380459959S03909866WA0034800357005006032031088
B1151400459951S03909861WA0034600351005006037036093
B1151420459942S03909854WA0034100349005008033040093
B1151440459934S03909849WA0033700348005006030032092
B1151460459925S03909843WA0033500345005006034031084
B1151480459917S03909839WA0033500342005006034026087
B1151490459913S03909836WA0033400342005008035027087
B1151510459904S03909831WA0033100341005006031025083
B1151530459894S03909828WA0032900340005008031013078
B1151550459885S03909827WA0032800338005008031010083
B1151570459874S03909823WA0032700334005008039018072
B1151580459868S03909821WA0032500331005008042018065
B1152000459856S03909817WA0032100329005006037010068
B1152020459846S03909817WA0031700332005006031007074
B1152030459842S03909816WA0031700333005006027006068
B1152050459835S03909815WA0031900333005006024012102
B1152070459828S03909813WA0032000331005006025024094
B1152080459825S03909812WA0032000331005006023031101
B1152100459820S03909808WA0031900331005006019046109
B1152110459819S03909806WA0031900332005006017040098
B1152120459817S03909805WA0031800332005006014014101
B1152140459812S03909805WA0031800329005006018006098
B1152150459810S03909804WA0031900327005006018023112
B1152170459804S03909803WA0031800321005006021010079
B1152190459793S03909804WA0031400315005006043346015
B1152200459786S03909806WA0031100313005006053336009
B1152220459772S03909815WA0030500312005004055323343
B1152230459766S03909821WA0030200305005006051316324
B1152250459756S03909834WA0029800302005006058305307
B1152260459752S03909843WA0029700301005006060302301
B1152280459744S03909859WA0029400295005008062294271
B1152300459741S03909877WA0028900287005008061276237
B1152310459743S03909886WA0028600285005008057259229
B1152320459745S03909894WA0028300284005008057256213
B1152330459747S03909902WA0028000286005008053255200
B1152340459752S03909905WA0027700287005008041230177
B1152350459757S03909910WA0027700286005008037227159
B1152370459762S03909912WA0027800288005008018160134
B1152380459764S03909911WA0027800288005006020121110
B1152390459765S03909908WA0027900289005006020103097
B1152410459763S03909902WA0028000295005006022063082
B1152430459759S03909897WA0028200297005006023030061
B1152450459753S03909895WA0028700300005006024348069
B1152460459749S03909896WA0028800300005006024348063
B1152480459744S03909896WA0029000298005006016028088
B1152490459743S03909895WA0029000295005006011045087
B1152500459742S03909893WA0029000295005006004045110
B1152510459742S03909893WA0028900295005006002045111
B1152530459743S03909895WA0028700294005006008249125
B1152540459744S03909896WA0028600293005006008244127
B1152550459745S03909897WA0028600290005008011226127
B1152570459749S03909898WA0028400282005008015193127
B1152580459751S03909899WA0028100279005006013182124
B1153000459755S03909897WA0027400274005006013158117
B1153020459757S03909895WA0026800274005006004153104
B1153030459758S03909895WA0026800275005006002153119
B1153050459758S03909894WA0026600272005006004153111
B1153070459759S03909893WA0026600269005006012116107
B1153090459761S03909889WA0026400267005006012113113
B1153110459763S03909886WA0026000268005006007133104
B1153120459764S03909885WA0025900268005006008173097
B1153130459765S03909885WA0025900267005006006172176
B1153150459766S03909884WA0025900267005006002171295
B1153170459765S03909884WA0025900267005006002172360
B1153180459765S03909885WA0025900267005006006303340
B1153200459763S03909886WA0025900267005006002303318
B1153220459763S03909886WA0025900267005006000303333
B1153240459763S03909886WA0025900267005006000303340
B1153250459763S03909886WA0025900267005006000303334
B1153270459763S03909886WA0025900267005006000303335
B1153290459763S03909886WA0025900236005004000303328
B1153310459763S03909886WA0025900236005006000303320
B1153320459763S03909886WA0025900235005006000303319
B1153330459763S03909886WA0025900235005006000303323
B1153350459763S03909886WA0025900234005006000303322
B1153360459763S03909886WA0025900234005006000303321
B1153370459763S03909886WA0025900233005006000303321
B1153390459763S03909886WA0025900233005004000303321
B1153410459763S03909886WA0025900233005006000303321
B1153430459763S03909886WA0026000233005006000303320
B1153450459763S03909886WA0025900233005006000303324
B1153470459764S03909886WA0025900232005006003334333
B1153490459763S03909886WA0025900232005008002334335
GU1GkofBwJnajrY+b3gEcVZ+yA3zpMsQKaVvc4GqmUkHFd1A+vYZ3bli7x98iLdNc
GT4Zjm3WQZty9hpBvAindedVZ2E8cM0+nyhVjVVDRKnR0lazJ4SfZcSqU6+JameqV
Gpke+AhUZFVAG+4c49lWVhYs0MFSptPklCJRB0/qEHKc=
