AXCTd451c34731cb4298
HFFTYFRTYPE:Google Pixel 3 11 Client:xctrack FlightId:a5aa598e-b1cd-42f8-8512-73140ac1866a
HFRFWFIRMWAREVERSION:0.9.6.1-beta LIVE:74091acaa350f52ff9207d2b3ab6fe4a79266c54
HFPLTPILOTINCHARGE:Josh Cohn
HOSITSite:Chelan Butte
HSCCLCOMPETITION CLASS:FAI-3 (PG)
HFGTYGLIDERTYPE:ozone alpina 4
HODTM100GPSDATUM:WGS-84
HFALPALTPRESSURE:ISA
HFALG:GEO
I023636LAD3737LOD
HFDTEDATE:160721,00
LXCTDEVICE eyJkZXZpY2UiOnsiY3B1QUJJIjoiYXJtNjQtdjhhIiwic2RrIjozMCwibWFudWZhY
LXCTDEVICE 3R1cmVyIjoiR29vZ2xlIiwiZGlzcGxheSI6eyJ3IjoxMDgwLCJoIjoyMDI4LCJtbS
LXCTDEVICE I6MTcuMzIyODM0fSwiZGV2aWNlU3RyaW5nIjoiR29vZ2xlIFBpeGVsIDMgMTEiLCJ
LXCTDEVICE maW5nZXJwcmludCI6Imdvb2dsZS9ibHVlbGluZS9ibHVlbGluZToxMS9SUTNBLjIx
LXCTDEVICE MDYwNS4wMDUvNzM0OTQ5OTp1c2VyL3JlbGVhc2Uta2V5cyIsImJ1aWxkSWQiOiJSU
LXCTDEVICE TNBLjIxMDYwNS4wMDUiLCJjcHVBQkkyIjoiIiwibW9kZWwiOiJQaXhlbCAzIiwiYm
LXCTDEVICE 9hcmQiOiJibHVlbGluZSIsImRldlF1ZXVlQnVpbGQiOiJmMjNhYWYxNDhlNWZhMGN
LXCTDEVICE jMGEwNTAzZWE4MTY1OTdjOWJjNDgwODBkIiwicHJvZHVjdCI6ImJsdWVsaW5lIiwi
LXCTDEVICE dGltZXpvbmUiOiJBbWVyaWNhL0xvc19BbmdlbGVzIiwiYW5kcm9pZElkIjoiZDQ1M
LXCTDEVICE WMzNDczMWNiNDI5OCIsImhhcmR3YXJlIjoiYmx1ZWxpbmUifSwieGN0cmFjayI6ey
LXCTDEVICE J2ZXJzaW9uQ29kZSI6OTA2MDIsInZlcnNpb25OYW1lIjoiMC45LjYuMS1iZXRhIn0
LXCTDEVICE sImNhcGFiaWxpdGllcyI6eyJtZW1MYXJnZUNsYXNzIjo1MTIsIm1lbUNsYXNzIjox
LXCTDEVICE OTIsIm5hbiI6dHJ1ZX19
B1830044748193N12002209WA014090142616
B1830054748196N12002216WA014120143060
B1830064748200N12002221WA014150143078
B1830074748206N12002224WA014170142925
B1830084748211N12002225WA014190142981
B1830094748216N12002223WA014210143376
B1830104748220N12002220WA014230143576
B1830114748223N12002216WA014250143886
B1830124748226N12002211WA014270143910
B1830134748226N12002203WA014270144096
B1830144748225N12002195WA014270144083
B1830154748222N12002188WA014270144198
B1830164748218N12002185WA014280144481
B1830174748214N12002185WA014290144598
B1830184748212N12002189WA014310144962
B1830194748210N12002194WA014330145064
B1830204748214N12002202WA014340145007
B1830214748217N12002209WA014350145174
B1830224748222N12002214WA014360145376
B1830234748228N12002218WA014380145601
B1830244748232N12002219WA014400145977
B1830254748237N12002221WA014430146172
B1830264748243N12002223WA014450146372
B1830274748249N12002224WA014470146491
B1830284748255N12002224WA014490146795
B1830294748260N12002224WA014520147083
B1830304748265N12002225WA014540147441
B1830314748269N12002226WA014570147670
B1830324748274N12002225WA014600147815
B1830334748278N12002221WA014620147961
B1830344748282N12002215WA014640148046
B1830354748286N12002209WA014650148126
B1830364748289N12002205WA014670148591
B1830374748293N12002201WA014700148877
B1830384748298N12002198WA014720149104
B1830394748303N12002195WA014740149201
B1830404748308N12002191WA014760149429
B1830414748313N12002189WA014780149747
B1830424748318N12002187WA014810150018
B1830434748322N12002185WA014840150366
B1830444748327N12002182WA014860150550
B1830454748331N12002177WA014880150778
B1830464748335N12002173WA014890150853
B1830474748338N12002167WA014890150949
B1830484748339N12002161WA014890151046
B1830494748338N12002154WA014890151057
B1830504748334N12002149WA014890150912
B1830514748329N12002145WA014890151189
B1830524748325N12002144WA014900151423
B1830534748321N12002144WA014920151632
B1830544748318N12002144WA014940151839
B1830554748315N12002145WA014950152045
B1830564748312N12002147WA014970152141
B1830574748310N12002149WA014990152123
B1830584748308N12002154WA015010152121
B1830594748305N12002158WA015030152481
B1831004748305N12002163WA015050152566
B1831014748306N12002169WA015070152799
B1831024748310N12002175WA015090152942
B1831034748315N12002179WA015110153013
B1831044748320N12002181WA015130153206
B1831054748325N12002183WA015150153648
B1831064748330N12002185WA015180153978
B1831074748335N12002188WA015200154360
B1831084748340N12002190WA015230154563
B1831094748345N12002192WA015260154743
B1831104748350N12002194WA015290155056
B1831114748355N12002197WA015320155341
B1831124748360N12002199WA015350155630
B1831134748365N12002199WA015390155827
B1831144748370N12002199WA015410156048
B1831154748375N12002199WA015440156262
B1831164748380N12002195WA015460156341
B1831174748384N12002191WA015470156540
B1831184748386N12002183WA015470156649
B1831194748386N12002175WA015470156714
B1831204748386N12002168WA015490157126
B1831214748385N12002162WA015510157452
B1831224748383N12002158WA015540157841
B1831234748380N12002156WA015560158025
B1831244748376N12002156WA015590158129
B1831254748372N12002158WA015610158497
B1831264748370N12002162WA015640158872
B1831274748370N12002166WA015670159048
B1831284748371N12002171WA015700159176
B1831294748374N12002177WA015720159253
B1831304748378N12002183WA015720159129
B1831314748383N12002189WA015720159180
B1831324748389N12002192WA015730159556
B1831334748394N12002194WA015760160137
B1831344748398N12002196WA015790160695
B1831354748404N12002198WA015820160904
B1831364748409N12002199WA015850161166
B1831374748415N12002200WA015890161486
B1831384748421N12002199WA015920161553
B1831394748426N12002196WA015940161748
B1831404748430N12002191WA015970161738
B1831414748433N12002185WA015970161731
B1831424748434N12002177WA015970161787
B1831434748435N12002170WA015970161827
B1831444748435N12002164WA015980162173
B1831454748435N12002159WA016000162327
B1831464748433N12002156WA016030162697
B1831474748431N12002155WA016050162883
B1831484748429N12002154WA016070163039
B1831494748426N12002161WA016100163270
B1831504748425N12002167WA016120163457
B1831514748426N12002176WA016140163581
B1831524748429N12002183WA016170163976
B1831534748433N12002189WA016200164490
B1831544748440N12002191WA016230164716
B1831554748445N12002191WA016250164697
B1831564748451N12002191WA016260164690
B1831574748457N12002187WA016260164734
B1831584748460N12002182WA016260164792
B1831594748463N12002176WA016260164757
B1832004748465N12002171WA016270164992
B1832014748468N12002165WA016270165163
B1832024748471N12002159WA016290165338
B1832034748474N12002153WA016310165648
B1832044748477N12002148WA016330165922
B1832054748479N12002141WA016360166298
B1832064748482N12002135WA016390166523
B1832074748483N12002129WA016410166843
B1832084748482N12002123WA016440167037
B1832094748480N12002119WA016470167048
B1832104748478N12002117WA016490167100
B1832114748475N12002115WA016510167360
B1832124748473N12002116WA016530167446
B1832134748471N12002119WA016550167540
B1832144748469N12002121WA016570167659
B1832154748467N12002125WA016590167887
B1832164748465N12002130WA016610167992
B1832184748463N12002140WA016650168245
B1832194748462N12002148WA016680141671
B1832204748462N12002154WA016700148449
B1832214748463N12002161WA016730152548
B1832224748465N12002168WA016760159311
B1832234748467N12002173WA016780160777
B1832244748472N12002179WA016810161603
B1832254748477N12002183WA016820163540
B1832264748483N12002185WA016830165243
B1832274748489N12002186WA016830166661
B1832284748496N12002184WA016830167210
B1832294748501N12002179WA016830167951
B1832304748505N12002172WA016820167870
B1832314748507N12002162WA016820167818
B1832324748508N12002154WA016820168237
B1832334748508N12002147WA016830168780
B1832344748508N12002140WA016850169483
B1832354748507N12002134WA016880170290
B1832364748507N12002129WA016920170435
B1832374748506N12002125WA016950170546
B1832384748504N12002122WA016990170981
B1832394748503N12002118WA017020171316
B1832404748501N12002115WA017050171612
B1832414748498N12002112WA017080172097
B1832424748496N12002111WA017100172351
B1832434748493N12002112WA017120172636
B1832444748490N12002115WA017120172859
B1832454748488N12002120WA017120173006
B1832464748485N12002126WA017140173162
B1832474748485N12002131WA017160173379
B1832484748486N12002137WA017180173783
B1832494748490N12002143WA017200174114
B1832504748495N12002147WA017220174228
B1832514748500N12002151WA017250174571
B1832524748506N12002152WA017270174945
B1832534748512N12002153WA017300175232
B1832544748517N12002153WA017330175573
B1832554748523N12002152WA017360176003
B1832564748528N12002149WA017390176184
B1832574748533N12002143WA017410176369
B1832584748538N12002138WA017430176524
B1832594748542N12002132WA017460176806
B1833004748545N12002126WA017490177219
B1833014748546N12002120WA017510177646
B1833024748546N12002114WA017540177863
B1833034748546N12002107WA017560177926
B1833044748545N12002101WA017560177968
B1833054748544N12002096WA017570178036
B1833064748542N12002091WA017580178248
B1833074748540N12002088WA017590178551
B1833084748537N12002086WA017610178679
B1833094748534N12002086WA017620178678
B1833104748532N12002087WA017640178809
B1833114748529N12002090WA017650179181
B1833124748527N12002093WA017660179342
B1833134748526N12002097WA017680179405
B1833144748525N12002102WA017700179613
B1833154748525N12002107WA017720179834
B1833164748527N12002111WA017750180091
B1833174748529N12002115WA017770180465
B1833184748532N12002121WA017800180682
B1833194748536N12002126WA017820180806
B1833204748545N12002128WA017840180908
B1833214748553N12002129WA017860181117
B1833224748560N12002128WA017880181400
B1833234748566N12002126WA017900181814
B1833244748571N12002123WA017930182359
B1833254748576N12002120WA017960182799
B1833264748582N12002116WA017980182943
B1833274748587N12002110WA018010183199
B1833284748592N12002103WA018030183412
B1833294748593N12002094WA018060183697
B1833304748594N12002087WA018080183731
B1833314748591N12002082WA018090183775
B1833324748588N12002080WA018100184082
B1833334748585N12002079WA018110184273
B1833344748582N12002080WA018130184391
B1833354748581N12002081WA018140184519
B1833364748580N12002085WA018170184739
B1833374748581N12002090WA018190185045
B1833384748583N12002095WA018210185279
B1833394748586N12002101WA018240185463
B1833404748592N12002105WA018260185617
B1833414748597N12002108WA018290185887
B1833424748603N12002109WA018310185897
B1833434748610N12002107WA018320186055
B1833444748616N12002103WA018330186268
B1833454748620N12002096WA018340186393
B1833464748624N12002088WA018350186628
B1833474748626N12002081WA018370186702
B1833484748625N12002074WA018380186884
B1833494748625N12002067WA018390186998
B1833504748625N12002061WA018410186920
B1833514748624N12002055WA018420187268
B1833524748622N12002051WA018440187487
B1833534748620N12002049WA018450187436
B1833544748617N12002048WA018440179220
B1833554748614N12002050WA018440182610
B1833564748611N12002053WA018440184362
B1833574748609N12002058WA018440185391
B1833584748609N12002064WA018450185862
B1833594748611N12002070WA018460186538
B1834004748614N12002076WA018470186959
B1834014748619N12002080WA018490187327
B1834024748625N12002082WA018510187666
B1834034748632N12002083WA018530187811
B1834044748639N12002081WA018550188009
B1834054748645N12002080WA018570188363
B1834064748652N12002076WA018590188527
B1834074748657N12002071WA018610188857
B1834084748661N12002064WA018630188928
B1834094748663N12002055WA018640189037
B1834104748663N12002046WA018640189195
B1834114748662N12002039WA018640189164
B1834124748661N12002033WA018650189311
B1834134748658N12002031WA018660189622
B1834144748656N12002029WA018670189608
B1834154748653N12002029WA018690189631
B1834164748650N12002029WA018690189776
B1834174748648N12002033WA018700189863
B1834184748647N12002038WA018710190020
B1834194748646N12002043WA018720190281
B1834204748647N12002048WA018730190388
B1834214748650N12002056WA018750190401
B1834224748654N12002062WA018760190418
B1834234748659N12002068WA018770190555
B1834244748665N12002072WA018780190580
B1834254748672N12002074WA018790190693
B1834264748679N12002075WA018800190876
B1834274748686N12002075WA018810191065
B1834284748693N12002072WA018820191106
B1834294748699N12002068WA018840191341
B1834304748704N12002061WA018850191487
B1834314748709N12002054WA018870191507
B1834324748711N12002047WA018880191669
B1834334748713N12002041WA018890191710
B1834344748711N12002035WA018910191830
B1834354748709N12002030WA018920191994
B1834364748707N12002026WA018930192093
B1834374748705N12002024WA018940192276
B1834384748703N12002023WA018950192302
B1834394748700N12002023WA018960192493
B1834404748698N12002024WA018970192458
B1834414748697N12002028WA018970192548
B1834424748696N12002033WA018970192536
B1834434748697N12002039WA018970192513
B1834444748698N12002044WA018980192639
B1834454748700N12002050WA018980192754
B1834464748703N12002056WA018990192932
B1834474748707N12002062WA019000193071
B1834484748712N12002067WA019010193115
B1834494748717N12002072WA019020193248
B1834504748723N12002077WA019020193222
B1834514748729N12002081WA019030193356
B1834524748736N12002085WA019040193402
B1834534748742N12002088WA019060193624
B1834544748748N12002090WA019070193755
B1834554748754N12002091WA019080193878
B1834564748761N12002091WA019100194071
B1834574748768N12002089WA019110194161
B1834584748775N12002086WA019120194254
B1834594748781N12002081WA019130194367
B1835004748785N12002074WA019150203292
B1835014748789N12002067WA019160200081
B1835024748791N12002059WA019160198155
B1835034748792N12002052WA019160197220
B1835044748791N12002045WA019160196632
B1835054748789N12002039WA019170196482
B1835064748787N12002034WA019180196368
B1835074748784N12002031WA019190196378
B1835084748782N12002031WA019200196321
B1835094748780N12002030WA019220196439
B1835104748778N12002030WA019230196445
B1835114748776N12002030WA019250196672
B1835124748775N12002030WA019270196738
B1835134748773N12002031WA019280196662
B1835144748771N12002034WA019290196490
B1835154748770N12002038WA019290196458
B1835164748769N12002044WA019280196316
B1835174748767N12002050WA019280196353
B1835184748765N12002055WA019280196469
B1835194748764N12002060WA019280196509
B1835204748763N12002066WA019290196610
B1835214748762N12002071WA019300196714
B1835224748761N12002077WA019300196702
B1835234748759N12002084WA019300196862
B1835244748758N12002091WA019300196626
B1835254748756N12002098WA019300196408
B1835264748754N12002106WA019300196425
B1835274748752N12002113WA019310196642
B1835284748752N12002118WA019320196709
B1835294748751N12002125WA019340197065
B1835304748750N12002131WA019360197173
B1835314748749N12002137WA019380197154
B1835324748746N12002143WA019390197133
B1835334748743N12002149WA019400197012
B1835344748740N12002156WA019400197175
B1835354748738N12002165WA019400197271
B1835364748737N12002173WA019410197405
B1835374748735N12002181WA019430197610
B1835384748732N12002186WA019450197874
B1835394748731N12002191WA019490198429
B1835404748729N12002195WA019530198954
B1835414748728N12002199WA019570199434
B1835424748726N12002202WA019610199898
B1835434748724N12002204WA019640200209
B1835444748720N12002207WA019670200297
B1835454748717N12002210WA019700200250
B1835464748714N12002212WA019720200191
B1835474748712N12002213WA019750200434
B1835484748710N12002214WA019770200774
B1835494748708N12002215WA019800201080
B1835504748706N12002214WA019800201228
B1835514748703N12002214WA019800201154
B1835524748700N12002214WA019790201025
B1835534748696N12002214WA019790201045
B1835544748693N12002213WA019790201137
B1835554748690N12002213WA019790201044
B1835564748688N12002213WA019790201106
B1835574748685N12002213WA019790201175
B1835584748682N12002211WA019780200988
B1835594748679N12002210WA019770200685
B1836004748676N12002209WA019750200336
B1836014748672N12002209WA019730200131
B1836024748669N12002208WA019720200004
B1836034748666N12002207WA019700200015
B1836044748662N12002206WA019690199974
B1836054748659N12002205WA019670199856
B1836064748656N12002203WA019660199879
B1836074748652N12002202WA019650199854
B1836084748648N12002199WA019640199886
B1836094748645N12002196WA019640199827
B1836104748642N12002194WA019650199944
B1836114748639N12002192WA019650199944
B1836124748636N12002190WA019640199977
B1836134748632N12002188WA019640199687
B1836144748629N12002186WA019630199527
B1836154748625N12002185WA019620199563
B1836164748622N12002184WA019610199681
B1836174748619N12002182WA019600199588
B1836184748616N12002180WA019590199582
B1836194748613N12002176WA019580199468
B1836204748610N12002173WA019580199345
B1836214748606N12002170WA019570199393
B1836224748603N12002168WA019560204807
B1836234748599N12002167WA019550202602
B1836244748594N12002166WA019550201573
B1836254748591N12002164WA019550200926
B1836264748588N12002163WA019550200503
B1836274748584N12002162WA019560200379
B1836284748581N12002162WA019560200118
B1836294748577N12002161WA019560199965
B1836304748573N12002161WA019550199750
B1836314748570N12002160WA019550199501
B1836324748566N12002160WA019550199572
B1836334748563N12002159WA019550199469
B1836344748559N12002160WA019550199292
B1836354748556N12002160WA019560199252
B1836364748552N12002159WA019560199158
B1836374748548N12002159WA019550199166
B1836384748545N12002160WA019550199245
B1836394748541N12002160WA019550199127
B1836404748537N12002160WA019550199291
B1836414748534N12002159WA019540199127
B1836424748529N12002159WA019530199194
B1836434748525N12002159WA019520199073
B1836444748521N12002158WA019510198958
B1836454748517N12002158WA019510198974
B1836464748514N12002158WA019500198900
B1836474748509N12002157WA019500198886
B1836484748506N12002156WA019500198817
B1836494748502N12002156WA019500198827
B1836504748497N12002156WA019500198784
B1836514748494N12002156WA019500198726
B1836524748490N12002156WA019500198619
B1836534748486N12002157WA019500198621
B1836544748482N12002157WA019490198688
B1836554748479N12002159WA019490198515
B1836564748475N12002160WA019490198509
B1836574748471N12002163WA019480198410
B1836584748467N12002165WA019480198431
B1836594748463N12002166WA019470198549
B1837004748459N12002168WA019470198467
B1837014748456N12002170WA019470198407
B1837024748452N12002173WA019460198359
B1837034748450N12002177WA019450198313
B1837044748446N12002181WA019440198164
B1837054748443N12002185WA019430198202
B1837064748439N12002189WA019420198141
B1837074748436N12002192WA019410198125
B1837084748433N12002196WA019400198001
B1837094748429N12002200WA019390198071
B1837104748427N12002204WA019380197969
B1837114748425N12002209WA019370197601
B1837124748422N12002213WA019360197419
B1837134748419N12002218WA019350197341
B1837144748416N12002222WA019330197275
B1837154748413N12002226WA019320197348
B1837164748410N12002231WA019310197142
B1837174748407N12002235WA019300197154
B1837184748404N12002239WA019290197047
B1837194748401N12002243WA019280197066
B1837204748399N12002247WA019270196946
B1837214748396N12002251WA019260196575
B1837224748393N12002255WA019260196423
B1837234748390N12002258WA019260196337
B1837244748387N12002261WA019250196233
B1837254748384N12002264WA019260180561
B1837264748381N12002267WA019250186970
B1837274748378N12002269WA019250190379
B1837284748375N12002273WA019240192388
B1837294748372N12002277WA019230193567
B1837304748369N12002281WA019210194074
B1837314748366N12002285WA019200194364
B1837324748363N12002288WA019190194668
B1837334748360N12002292WA019190194872
B1837344748357N12002295WA019180194899
B1837354748354N12002299WA019170194862
B1837364748351N12002303WA019160194883
B1837374748349N12002307WA019150194807
B1837384748345N12002311WA019140194779
B1837394748342N12002315WA019140194865
B1837404748339N12002319WA019130194895
B1837414748336N12002323WA019130194786
B1837424748334N12002328WA019130194620
B1837434748331N12002331WA019120194658
B1837444748328N12002335WA019110194665
B1837454748325N12002338WA019110194676
B1837464748323N12002342WA019100194613
B1837474748319N12002346WA019090194594
B1837484748316N12002350WA019080194577
B1837494748313N12002353WA019070194477
B1837504748310N12002357WA019060194395
B1837514748307N12002360WA019050194298
B1837524748304N12002364WA019040194248
B1837534748301N12002368WA019030194120
B1837544748298N12002370WA019030194157
B1837554748295N12002372WA019020193908
B1837564748291N12002375WA019010193962
B1837574748287N12002376WA019000193889
B1837584748284N12002378WA019000193719
B1837594748280N12002380WA018990193647
B1838004748276N12002382WA018980193550
B1838014748273N12002383WA018970193401
B1838024748269N12002384WA018960193283
B1838034748265N12002385WA018950193084
B1838044748262N12002386WA018940192814
B1838054748258N12002386WA018930192704
B1838064748254N12002387WA018910192610
B1838074748250N12002386WA018900192445
B1838084748246N12002385WA018880192217
B1838094748242N12002384WA018860192104
B1838104748237N12002383WA018850192081
B1838114748233N12002381WA018830191959
B1838124748229N12002380WA018820191858
B1838134748225N12002380WA018810191822
B1838144748221N12002378WA018800191839
B1838154748217N12002377WA018790191626
B1838164748212N12002375WA018780191595
B1838174748208N12002373WA018770191363
B1838184748204N12002371WA018750191269
B1838194748200N12002370WA018760191179
B1838204748197N12002369WA018750191066
B1838214748193N12002368WA018740190861
B1838224748189N12002366WA018730190823
B1838234748185N12002364WA018710190610
B1838244748181N12002361WA018700190528
B1838254748176N12002359WA018680190487
B1838264748172N12002357WA018670190456
B1838274748168N12002355WA018650190435
B1838284748163N12002353WA018640190390
B1838294748159N12002350WA018630190395
B1838304748155N12002348WA018620190382
B1838314748151N12002345WA018610190295
B1838324748148N12002342WA018610190119
B1838334748144N12002340WA018600189902
B1838344748139N12002337WA018590189873
B1838354748135N12002334WA018580189846
B1838364748131N12002331WA018570189836
B1838374748126N12002328WA018560189776
B1838384748122N12002326WA018550189633
B1838394748118N12002323WA018540189466
B1838404748114N12002321WA018530189221
B1838414748109N12002317WA018520189167
B1838424748105N12002314WA018510188941
B1838434748101N12002310WA018510188935
B1838444748097N12002305WA018500188849
B1838454748094N12002301WA018490188802
B1838464748090N12002297WA018480188737
B1838474748086N12002294WA018470188620
B1838484748082N12002289WA018460188667
B1838494748078N12002284WA018450188577
B1838504748075N12002280WA018440188336
B1838514748071N12002276WA018430188227
B1838524748067N12002273WA018420188180
B1838534748064N12002268WA018410188029
B1838544748060N12002264WA018400188088
B1838554748057N12002260WA018390187827
B1838564748053N12002256WA018380187866
B1838574748050N12002252WA018380187719
B1838584748046N12002248WA018370187767
B1838594748043N12002244WA018360187558
B1839004748039N12002240WA018350187367
B1839014748035N12002237WA018340187281
B1839024748032N12002233WA018340187103
B1839034748028N12002229WA018330187166
B1839044748024N12002225WA018320187197
B1839054748021N12002222WA018310187012
B1839064748017N12002218WA018300186990
B1839074748014N12002214WA018290186816
B1839084748010N12002211WA018280186740
B1839094748006N12002207WA018270186680
B1839104748003N12002203WA018260188649
B1839114747999N12002199WA018250187857
B1839124747995N12002195WA018240187386
B1839134747992N12002191WA018230187038
B1839144747988N12002186WA018220186989
B1839154747985N12002181WA018210186786
B1839164747982N12002177WA018200186444
B1839174747978N12002172WA018200186098
B1839184747976N12002168WA018190185806
B1839194747973N12002164WA018180185764
B1839204747970N12002159WA018180185463
B1839214747967N12002154WA018170185343
B1839224747964N12002149WA018160185234
B1839234747961N12002145WA018150185049
B1839244747957N12002141WA018140184899
B1839254747954N12002137WA018140184729
B1839264747950N12002133WA018130184676
B1839274747947N12002129WA018130184632
B1839284747943N12002125WA018120184572
B1839294747939N12002121WA018120184691
B1839304747936N12002117WA018120184520
B1839314747932N12002112WA018110184555
B1839324747928N12002107WA018100184496
B1839334747925N12002102WA018100184318
B1839344747921N12002098WA018090184351
B1839354747918N12002093WA018080184344
B1839364747915N12002088WA018070184344
B1839374747912N12002082WA018060184274
B1839384747910N12002075WA018050184117
B1839394747907N12002069WA018040184053
B1839404747904N12002063WA018030183950
B1839414747901N12002057WA018020183835
B1839424747898N12002053WA018010183839
B1839434747895N12002051WA018000183710
B1839444747892N12002050WA017990183533
B1839454747889N12002051WA017980183468
B1839464747887N12002054WA017970183243
B1839474747885N12002058WA017960182998
B1839484747885N12002063WA017940182737
B1839494747886N12002069WA017930182616
B1839504747887N12002076WA017920182550
B1839514747890N12002082WA017900182444
B1839524747894N12002088WA017890187314
B1839534747897N12002095WA017870185235
B1839544747900N12002102WA017860184130
B1839554747903N12002108WA017850183226
B1839564747906N12002114WA017850182819
B1839574747909N12002120WA017850182428
B1839584747911N12002126WA017850182289
B1839594747915N12002132WA017840182056
B1840004747918N12002139WA017830181636
B1840014747921N12002146WA017810181486
B1840024747925N12002153WA017800181316
B1840034747927N12002160WA017790181232
B1840044747929N12002166WA017780181199
B1840054747933N12002173WA017770181110
B1840064747936N12002179WA017760181141
B1840074747939N12002185WA017750180912
B1840084747941N12002192WA017740180682
B1840094747944N12002199WA017730180598
B1840104747948N12002206WA017710180509
B1840114747950N12002214WA017710180393
B1840124747954N12002221WA017700180321
B1840134747957N12002228WA017690180271
B1840144747961N12002235WA017680180154
B1840154747964N12002242WA017670180072
B1840164747968N12002248WA017660179925
B1840174747971N12002255WA017650179843
B1840184747974N12002261WA017650179789
B1840194747978N12002268WA017640179615
B1840204747981N12002275WA017620179674
B1840214747985N12002282WA017610179514
B1840224747989N12002288WA017600179255
B1840234747994N12002294WA017600179208
B1840244747998N12002301WA017590179150
B1840254748003N12002307WA017580179012
B1840264748007N12002314WA017580178910
B1840274748011N12002319WA017570178829
B1840284748015N12002326WA017560178834
B1840294748019N12002332WA017550178771
B1840304748024N12002338WA017540178633
B1840314748028N12002344WA017530178544
B1840324748032N12002350WA017530178481
B1840334748036N12002355WA017520178499
B1840344748040N12002361WA017510178299
B1840354748045N12002368WA017500178122
B1840364748050N12002374WA017490177912
B1840374748054N12002379WA017480177844
B1840384748058N12002385WA017470177930
B1840394748062N12002390WA017470177894
B1840404748067N12002396WA017460177880
B1840414748071N12002401WA017450177656
B1840424748076N12002407WA017440177408
B1840434748080N12002413WA017420177305
B1840444748084N12002419WA017410177347
B1840454748088N12002425WA017400177286
B1840464748093N12002431WA017390177256
B1840474748097N12002437WA017380177081
B1840484748102N12002442WA017370176953
B1840494748107N12002448WA017360176941
B1840504748112N12002453WA017350176759
B1840514748117N12002459WA017340176695
B1840524748123N12002465WA017330176532
B1840534748128N12002470WA017310172587
B1840544748133N12002476WA017300173788
B1840554748139N12002482WA017280174348
B1840564748144N12002489WA017260174475
B1840574748149N12002496WA017250174691
B1840584748155N12002502WA017230174932
B1840594748161N12002506WA017230175017
B1841004748167N12002507WA017230175258
B1841014748173N12002507WA017220174950
B1841024748179N12002505WA017200174970
B1841034748187N12002491WA017170174717
B1841044748190N12002480WA017160174639
B1841054748194N12002474WA017160175235
B1841064748198N12002469WA017160175511
B1841074748203N12002464WA017160175442
B1841084748209N12002458WA017150175256
B1841094748216N12002452WA017140174875
B1841104748223N12002446WA017120174772
B1841114748229N12002440WA017110174798
B1841124748235N12002436WA017100174764
B1841134748241N12002432WA017090174742
B1841144748247N12002427WA017090174638
B1841154748253N12002423WA017080174540
B1841164748259N12002417WA017070174384
B1841174748265N12002411WA017060174179
B1841184748271N12002406WA017060174156
B1841194748277N12002401WA017050174123
B1841204748282N12002396WA017040173970
B1841214748288N12002390WA017030173821
B1841224748293N12002383WA017020173697
B1841234748299N12002377WA017010173580
B1841244748305N12002369WA016990173379
B1841254748311N12002364WA016990173231
B1841264748316N12002358WA016980173274
B1841274748321N12002352WA016980173168
B1841284748327N12002346WA016980173139
B1841294748333N12002341WA016970172921
B1841304748339N12002334WA016970172819
B1841314748345N12002329WA016960172810
B1841324748351N12002323WA016950172710
B1841334748356N12002316WA016940172675
B1841344748362N12002309WA016940172600
B1841354748366N12002301WA016930172454
B1841364748370N12002294WA016920172362
B1841374748374N12002287WA016910172140
B1841384748378N12002280WA016900172031
B1841394748382N12002272WA016890171853
B1841404748386N12002264WA016870171740
B1841414748390N12002255WA016860171562
B1841424748394N12002246WA016840171444
B1841434748398N12002239WA016830171370
B1841444748402N12002232WA016820171114
B1841454748405N12002225WA016820171058
B1841464748408N12002217WA016810171079
B1841474748411N12002209WA016800170972
B1841484748415N12002201WA016790170859
B1841494748419N12002194WA016780170417
B1841504748422N12002187WA016770170205
B1841514748425N12002181WA016750170112
B1841524748428N12002174WA016730169816
B1841534748431N12002166WA016710169716
B1841544748434N12002158WA016690169308
B1841554748436N12002150WA016660169185
B1841564748438N12002142WA016630168999
B1841574748441N12002136WA016600168711
B1841584748443N12002130WA016570168647
B1841594748446N12002125WA016550168321
B1842004748450N12002119WA016510167920
B1842014748454N12002112WA016470167306
B1842024748459N12002105WA016420166650
B1842034748464N12002099WA016390166530
B1842044748468N12002093WA016350166415
B1842054748472N12002088WA016330166220
B1842064748476N12002082WA016310165953
B1842074748480N12002077WA016280165585
B1842084748485N12002072WA016240165432
B1842094748488N12002064WA016210164869
B1842104748490N12002055WA016180164336
B1842114748491N12002047WA016160164455
B1842124748492N12002040WA016170164509
B1842134748491N12002034WA016190164774
B1842144748491N12002027WA016200164827
B1842154748491N12002020WA016210164838
B1842164748491N12002013WA016210164892
B1842174748492N12002005WA016200164694
B1842184748494N12001996WA016190164429
B1842194748495N12001988WA016180164444
B1842204748497N12001979WA016180164509
B1842214748498N12001972WA016180164661
B1842224748499N12001965WA016200164991
B1842234748501N12001958WA016220165259
B1842244748503N12001953WA016240165561
B1842254748506N12001946WA016260165566
B1842264748509N12001940WA016280165640
B1842274748512N12001933WA016300165712
B1842284748514N12001925WA016310165958
B1842294748516N12001919WA016330166113
B1842304748517N12001912WA016350166352
B1842314748518N12001905WA016360165535
B1842324748519N12001899WA016380166013
B1842334748517N12001894WA016390166263
B1842344748515N12001889WA016400166439
B1842354748511N12001887WA016400166554
B1842364748507N12001887WA016400166664
B1842374748504N12001890WA016400166735
B1842384748501N12001895WA016400166677
B1842394748499N12001902WA016400166792
B1842404748499N12001908WA016400166773
B1842414748499N12001914WA016400166842
B1842424748499N12001919WA016410167036
B1842434748499N12001925WA016420167110
B1842444748498N12001930WA016430167268
B1842454748497N12001935WA016440167429
B1842464748496N12001941WA016460167432
B1842474748495N12001946WA016470167685
B1842484748496N12001951WA016470167406
B1842494748495N12001957WA016460167294
B1842504748494N12001963WA016440166920
B1842514748491N12001966WA016420166706
B1842524748486N12001967WA016390166477
B1842534748482N12001967WA016360166157
B1842544748477N12001967WA016330165787
B1842554748473N12001968WA016310165656
B1842564748469N12001968WA016290165588
B1842574748465N12001969WA016270165451
B1842584748460N12001968WA016250165176
B1842594748454N12001969WA016220164988
B1843004748450N12001971WA016210164915
B1843014748445N12001973WA016220164766
B1843024748441N12001974WA016220164845
B1843034748437N12001974WA016220164876
B1843044748433N12001974WA016210164714
B1843054748427N12001974WA016190164562
B1843064748422N12001974WA016170164324
B1843074748416N12001973WA016140164099
B1843084748412N12001973WA016120163711
B1843094748406N12001971WA016090163488
B1843104748402N12001970WA016070163224
B1843114748397N12001968WA016050163168
B1843124748393N12001967WA016020162901
B1843134748388N12001966WA016000162633
B1843144748383N12001965WA015970162374
B1843154748379N12001964WA015940162134
B1843164748374N12001963WA015920161986
B1843174748370N12001962WA015890161733
B1843184748366N12001960WA015870161436
B1843194748362N12001958WA015840161029
B1843204748357N12001956WA015810160866
B1843214748353N12001954WA015780160651
B1843234748344N12001947WA015730160533
B1843244748339N12001944WA015710137366
B1843254748333N12001940WA015680144679
B1843264748327N12001936WA015660148917
B1843274748321N12001931WA015660151605
B1843284748315N12001925WA015670153669
B1843294748310N12001919WA015680154989
B1843304748305N12001914WA015700156092
B1843314748302N12001908WA015720156926
B1843324748298N12001902WA015740157779
B1843334748296N12001897WA015770158477
B1843344748294N12001893WA015790158953
B1843354748292N12001889WA015820159233
B1843364748289N12001884WA015840159556
B1843374748286N12001880WA015860159869
B1843384748283N12001878WA015880160282
B1843394748281N12001875WA015900160586
B1843404748280N12001872WA015930160929
B1843414748278N12001870WA015950161189
B1843424748276N12001865WA015970161067
B1843434748274N12001859WA015990161279
B1843444748272N12001854WA016000161444
B1843454748268N12001848WA016000161678
B1843464748265N12001846WA016010161781
B1843474748262N12001843WA016020162075
B1843484748259N12001841WA016030162362
B1843494748255N12001840WA016030162366
B1843504748253N12001840WA016050162615
B1843514748250N12001841WA016060162595
B1843524748248N12001844WA016080162882
B1843534748249N12001847WA016090163032
B1843544748250N12001851WA016110163200
B1843554748251N12001854WA016130163274
B1843564748254N12001857WA016150163373
B1843574748258N12001859WA016170163644
B1843584748262N12001860WA016190163843
B1843594748266N12001861WA016210164087
B1844004748271N12001863WA016230164218
B1844014748274N12001867WA016250164493
B1844024748277N12001871WA016270164564
B1844034748279N12001874WA016290164958
B1844044748280N12001878WA016310165173
B1844054748281N12001882WA016330165393
B1844064748283N12001885WA016350165558
B1844074748285N12001889WA016360165662
B1844084748290N12001890WA016380165637
B1844094748295N12001890WA016380165632
B1844104748301N12001883WA016370165572
B1844114748306N12001874WA016370165596
B1844124748310N12001864WA016370165768
B1844134748314N12001854WA016380166244
B1844144748312N12001846WA016390166452
B1844154748312N12001838WA016410166717
B1844164748310N12001831WA016430166885
B1844174748308N12001824WA016440167090
B1844184748306N12001816WA016460167094
B1844194748304N12001810WA016470167126
B1844204748300N12001805WA016490167386
B1844214748297N12001802WA016500167521
B1844224748293N12001801WA016520167558
B1844234748290N12001803WA016540167886
B1844244748289N12001807WA016550168042
B1844254748290N12001811WA016570168108
B1844264748291N12001815WA016570168346
B1844274748294N12001817WA016580168347
B1844284748297N12001819WA016590168597
B1844294748303N12001820WA016600168616
B1844304748308N12001819WA016610168591
B1844314748314N12001816WA016620168777
B1844324748320N12001810WA016630168878
B1844334748325N12001803WA016650168974
B1844344748331N12001796WA016660169018
B1844354748332N12001786WA016670169131
B1844364748333N12001777WA016680169331
B1844374748332N12001767WA016690169466
B1844384748330N12001759WA016700169679
B1844394748328N12001753WA016720169819
B1844404748324N12001749WA016730170097
B1844414748321N12001746WA016740170298
B1844424748319N12001744WA016760170328
B1844434748316N12001744WA016770170442
B1844444748314N12001745WA016780170526
B1844454748312N12001747WA016790170507
B1844464748310N12001750WA016790170698
B1844474748310N12001754WA016800170766
B1844484748310N12001758WA016820170971
B1844494748311N12001761WA016830171121
B1844504748312N12001764WA016840171364
B1844514748313N12001766WA016860171398
B1844524748316N12001770WA016870171379
B1844534748320N12001773WA016890171674
B1844544748326N12001773WA016910171728
B1844554748331N12001771WA016920171892
B1844564748338N12001766WA016940171838
B1844574748343N12001761WA016960171972
B1844584748348N12001755WA016970172149
B1844594748352N12001749WA017000172485
B1845004748357N12001741WA017010172614
B1845014748360N12001731WA017030172668
B1845024748362N12001721WA017050172956
B1845034748362N12001712WA017070173150
B1845044748361N12001703WA017080173238
B1845054748358N12001698WA017100173325
B1845064748355N12001693WA017110173548
B1845074748352N12001692WA017110173429
B1845084748348N12001693WA017120173478
B1845094748345N12001695WA017130173641
B1845104748343N12001700WA017150173893
B1845114748343N12001705WA017160174120
B1845124748345N12001710WA017180174385
B1845134748349N12001714WA017190174442
B1845144748354N12001716WA017200174517
B1845154748359N12001718WA017220174711
B1845164748364N12001718WA017240174845
B1845174748369N12001717WA017250174966
B1845184748374N12001716WA017260175196
B1845194748380N12001716WA017260175160
B1845204748385N12001713WA017260175167
B1845214748391N12001709WA017260175229
B1845224748396N12001704WA017270175323
B1845234748400N12001696WA017280175450
B1845244748402N12001686WA017290175693
B1845254748402N12001676WA017310188888
B1845264748401N12001668WA017320183839
B1845274748398N12001662WA017330181161
B1845284748395N12001657WA017340179777
B1845294748392N12001655WA017350178855
B1845304748389N12001655WA017360178358
B1845314748387N12001656WA017380178017
B1845324748383N12001657WA017390177890
B1845334748382N12001659WA017400177899
B1845344748380N12001662WA017420177792
B1845354748379N12001666WA017430177831
B1845364748378N12001671WA017440177813
B1845374748378N12001675WA017450177987
B1845384748380N12001680WA017460177954
B1845394748384N12001684WA017470177906
B1845404748388N12001686WA017480177949
B1845414748393N12001687WA017490177855
B1845424748399N12001686WA017500177904
B1845434748404N12001684WA017500177942
B1845444748410N12001679WA017500177916
B1845454748415N12001672WA017490177860
B1845464748420N12001661WA017480177612
B1845474748422N12001650WA017470177541
B1845484748423N12001640WA017480196610
B1845494748422N12001631WA017490188884
B1845504748420N12001624WA017500184999
B1845514748418N12001619WA017500182726
B1845524748414N12001615WA017510181463
B1845534748411N12001612WA017520180748
B1845544748408N12001613WA017530180344
B1845554748406N12001615WA017530179949
B1845564748404N12001620WA017530179561
B1845574748403N12001625WA017520179332
B1845584748402N12001630WA017520179118
B1845594748400N12001637WA017510179063
B1846004748399N12001643WA017510178923
B1846014748398N12001648WA017510178915
B1846024748397N12001654WA017510178800
B1846034748396N12001659WA017510178725
B1846044748395N12001665WA017500178661
B1846054748395N12001671WA017500178645
B1846064748395N12001675WA017510178657
B1846074748396N12001679WA017510178624
B1846084748397N12001682WA017510178619
B1846094748398N12001687WA017500178664
B1846104748399N12001693WA017480178289
B1846114748399N12001700WA017460177853
B1846124748397N12001705WA017430177586
B1846134748396N12001709WA017410189815
B1846144748392N12001712WA017390184893
B1846154748390N12001714WA017370182154
B1846164748388N12001716WA017350180616
B1846174748385N12001719WA017330179691
B1846184748383N12001721WA017320178921
B1846194748380N12001723WA017300178154
B1846204748377N12001727WA017280189233
B1846214748376N12001733WA017260184123
B1846224748375N12001738WA017240181399
B1846234748375N12001745WA017220179766
B1846244748375N12001751WA017210178528
B1846254748374N12001758WA017190177765
B1846264748373N12001765WA017180177190
B1846274748373N12001772WA017180176770
B1846284748374N12001779WA017170176402
B1846294748374N12001788WA017150176050
B1846304748375N12001797WA017140175663
B1846314748376N12001806WA017130175481
B1846324748378N12001814WA017120175303
B1846334748379N12001821WA017120175291
B1846344748381N12001828WA017110175056
B1846354748383N12001836WA017110174937
B1846364748385N12001845WA017100174640
B1846374748388N12001853WA017080174403
B1846384748391N12001862WA017070174202
B1846394748392N12001871WA017060174095
B1846404748395N12001879WA017050173943
B1846414748397N12001887WA017040173961
B1846424748399N12001894WA017050174047
B1846434748401N12001902WA017050173963
B1846444748404N12001908WA017050173808
B1846454748407N12001916WA017040173642
B1846464748411N12001924WA017030173411
B1846474748414N12001931WA017020194188
B1846484748419N12001940WA017010185002
B1846494748423N12001947WA016990180518
B1846504748427N12001955WA016980177954
B1846514748431N12001962WA016970176423
B1846524748434N12001970WA016950175360
B1846534748438N12001976WA016940174507
B1846544748441N12001983WA016930173998
B1846554748445N12001991WA016910173537
B1846564748449N12001999WA016900173201
B1846574748452N12002006WA016890172963
B1846584748455N12002013WA016880172667
B1846594748458N12002021WA016860172490
B1847004748460N12002028WA016850172191
B1847014748462N12002036WA016840171974
B1847024748463N12002043WA016820171927
B1847034748463N12002051WA016810171681
B1847044748463N12002058WA016800171665
B1847054748462N12002066WA016790171562
B1847064748461N12002074WA016780171491
B1847074748460N12002081WA016760171289
B1847084748461N12002091WA016740171187
B1847094748463N12002101WA016720170755
B1847104748467N12002109WA016710170564
B1847114748472N12002116WA016710170436
B1847124748476N12002122WA016720170975
B1847134748480N12002126WA016740171250
B1847144748485N12002129WA016760171417
B1847154748490N12002132WA016790171618
B1847164748495N12002135WA016820171827
B1847174748500N12002138WA016850172043
B1847184748506N12002140WA016880172309
B1847194748511N12002142WA016920172740
B1847204748516N12002141WA016960173099
B1847214748522N12002139WA016990173438
B1847224748527N12002136WA017030173585
B1847234748533N12002132WA017070173934
B1847244748538N12002129WA017110174423
B1847254748542N12002126WA017150175086
B1847264748548N12002124WA017190175323
B1847274748553N12002121WA017220175564
B1847284748558N12002117WA017250175733
B1847294748562N12002111WA017250175839
B1847304748565N12002106WA017250175870
B1847314748569N12002099WA017250175880
B1847324748573N12002091WA017260176078
B1847334748577N12002084WA017270176274
B1847344748581N12002078WA017280176460
B1847354748584N12002071WA017300176548
B1847364748586N12002063WA017320176485
B1847374748588N12002054WA017340176528
B1847384748589N12002046WA017350176739
B1847394748589N12002038WA017370176724
B1847404748588N12002029WA017390177108
B1847414748586N12002022WA017420177464
B1847424748585N12002015WA017450177792
B1847434748585N12002009WA017490178138
B1847444748584N12002004WA017520178525
B1847454748582N12001999WA017550178744
B1847464748578N12001994WA017580178942
B1847474748573N12001991WA017590178968
B1847484748569N12001990WA017600179137
B1847494748566N12001991WA017600179332
B1847504748564N12001990WA017620179778
B1847514748562N12001991WA017630179586
B1847524748560N12001993WA017650179784
B1847534748558N12001997WA017670179767
B1847544748556N12002002WA017680179892
B1847554748554N12002005WA017710179874
B1847564748554N12002008WA017730179927
B1847574748554N12002013WA017770180352
B1847584748555N12002018WA017800180645
B1847594748556N12002023WA017830181093
B1848004748557N12002027WA017870181483
B1848014748558N12002031WA017910176242
B1848024748559N12002035WA017940178222
B1848034748560N12002039WA017970179727
B1848044748560N12002043WA018000180956
B1848054748560N12002048WA018020181590
B1848064748560N12002053WA018050182088
B1848074748561N12002058WA018090182565
B1848084748563N12002063WA018120183088
B1848094748566N12002068WA018150183482
B1848104748570N12002072WA018170183853
B1848114748575N12002076WA018190183915
B1848124748580N12002081WA018220184310
B1848134748585N12002085WA018250184705
B1848144748590N12002089WA018280185129
B1848154748595N12002093WA018310185506
B1848164748599N12002096WA018340185994
B1848174748604N12002099WA018370186260
B1848184748610N12002097WA018390195739
B1848194748616N12002095WA018390191838
B1848204748621N12002092WA018390190397
B1848214748626N12002088WA018400189488
B1848224748631N12002086WA018410189046
B1848234748635N12002084WA018430188994
B1848244748641N12002082WA018440188642
B1848254748647N12002079WA018460188567
B1848264748655N12002075WA018470188326
B1848274748662N12002071WA018490188322
B1848284748668N12002066WA018510188646
B1848294748673N12002062WA018540188973
B1848304748678N12002058WA018570189272
B1848314748683N12002053WA018590189388
B1848324748689N12002048WA018610189469
B1848334748696N12002044WA018620189303
B1848344748702N12002039WA018610189350
B1848354748709N12002034WA018610189385
B1848364748717N12002030WA018610189360
B1848374748725N12002026WA018620189506
B1848384748732N12002024WA018630189724
B1848394748738N12002023WA018640189947
B1848404748744N12002022WA018650190077
B1848414748750N12002021WA018670190291
B1848424748757N12002019WA018690190237
B1848434748763N12002018WA018710190210
B1848444748768N12002015WA018730190337
B1848454748773N12002012WA018750190457
B1848464748779N12002008WA018770190469
B1848474748785N12002004WA018790190879
B1848484748791N12002001WA018820183832
B1848494748796N12001998WA018860186983
B1848504748801N12001996WA018900188957
B1848514748806N12001995WA018930190070
B1848524748812N12001994WA018970190885
B1848534748819N12001993WA019010191449
B1848544748826N12001993WA019040191618
B1848554748832N12001993WA019070192424
B1848564748838N12001993WA019110193092
B1848574748845N12001992WA019140193534
B1848584748851N12001990WA019180194060
B1848594748857N12001983WA019210194455
B1849004748863N12001979WA019240194723
B1849014748861N12001966WA019260194938
B1849024748861N12001961WA019280195630
B1849034748860N12001956WA019310196019
B1849044748858N12001955WA019340196407
B1849054748856N12001955WA019360196712
B1849064748854N12001954WA019390196807
B1849074748851N12001953WA019420197057
B1849084748848N12001951WA019450197587
B1849094748846N12001949WA019480197876
B1849104748844N12001947WA019510198356
B1849114748842N12001945WA019550198868
B1849124748840N12001948WA019580199186
B1849134748838N12001950WA019620199583
B1849144748837N12001953WA019650199709
B1849154748835N12001957WA019680199908
B1849164748834N12001963WA019720200262
B1849174748835N12001968WA019760200784
B1849184748838N12001973WA019790201185
B1849194748843N12001977WA019810201386
B1849204748851N12001979WA019800201217
B1849214748860N12001979WA019800201303
B1849224748868N12001977WA019810201400
B1849234748875N12001974WA019830201916
B1849244748881N12001971WA019860202455
B1849254748885N12001966WA019890202996
B1849264748888N12001959WA019920203292
B1849274748894N12001952WA019950203175
B1849284748898N12001944WA019980203392
B1849294748902N12001935WA020020203405
B1849304748904N12001928WA020050209521
B1849314748906N12001920WA020090207628
B1849324748907N12001913WA020120206684
B1849334748908N12001905WA020150206278
B1849344748908N12001897WA020170206288
B1849354748909N12001891WA020200206318
B1849364748909N12001886WA020220206100
B1849374748908N12001880WA020240206457
B1849384748907N12001876WA020260206661
B1849394748905N12001873WA020280206744
B1849404748903N12001871WA020300206815
B1849414748902N12001873WA020310206916
B1849424748899N12001872WA020310206956
B1849434748899N12001878WA020320206963
B1849444748899N12001882WA020320207043
B1849454748899N12001886WA020340207256
B1849464748901N12001890WA020350207635
B1849474748903N12001893WA020380207919
B1849484748906N12001897WA020400208158
B1849494748911N12001901WA020430208319
B1849504748916N12001904WA020450208568
B1849514748922N12001906WA020470208667
B1849524748929N12001908WA020500208853
B1849534748936N12001908WA020520208997
B1849544748943N12001907WA020550209280
B1849554748950N12001903WA020570209552
B1849564748956N12001898WA020600209742
B1849574748962N12001892WA020620210019
B1849584748967N12001886WA020650210369
B1849594748972N12001881WA020680210543
B1850004748976N12001873WA020700210879
B1850014748980N12001867WA020710210942
B1850024748982N12001859WA020720212975
B1850034748984N12001850WA020730212207
B1850044748983N12001843WA020730211938
B1850054748982N12001838WA020740211740
B1850064748980N12001832WA020750211618
B1850074748977N12001829WA020750211690
B1850084748974N12001827WA020760211677
B1850094748972N12001826WA020770211837
B1850104748970N12001825WA020790211911
B1850114748968N12001823WA020800211915
B1850124748965N12001822WA020810211951
B1850134748962N12001821WA020820211983
B1850144748960N12001820WA020830212036
B1850154748957N12001820WA020850212099
B1850164748956N12001822WA020870212345
B1850174748954N12001824WA020890212456
B1850184748954N12001828WA020900212625
B1850194748953N12001832WA020910212683
B1850204748953N12001835WA020910212713
B1850214748950N12001838WA020900212751
B1850224748947N12001839WA020890212592
B1850234748945N12001840WA020870212367
B1850244748943N12001841WA020850212182
B1850254748941N12001843WA020830212041
B1850264748937N12001844WA020800211783
B1850274748933N12001843WA020760211278
B1850284748929N12001842WA020720210849
B1850294748924N12001842WA020690210668
B1850304748920N12001843WA020650210363
B1850314748914N12001842WA020620210098
B1850324748909N12001840WA020590209869
B1850334748904N12001838WA020560209627
B1850344748899N12001835WA020540214826
B1850354748895N12001833WA020540212644
B1850364748891N12001829WA020540211617
B1850374748886N12001826WA020530211180
B1850384748881N12001823WA020530210483
B1850394748876N12001821WA020520209732
B1850404748870N12001819WA020510209465
B1850414748866N12001817WA020520209474
B1850424748863N12001815WA020530209551
B1850434748861N12001812WA020530209661
B1850444748859N12001809WA020540209507
B1850454748856N12001807WA020550209544
B1850464748853N12001806WA020560209685
B1850474748851N12001806WA020560209610
B1850484748848N12001805WA020560209579
B1850494748846N12001806WA020560209542
B1850504748843N12001806WA020550209475
B1850514748841N12001807WA020540209432
B1850524748840N12001810WA020530209249
B1850534748840N12001817WA020510209084
B1850544748842N12001823WA020490190588
B1850554748846N12001830WA020460197933
B1850564748850N12001834WA020440201594
B1850574748857N12001836WA020420203512
B1850584748863N12001836WA020400204010
B1850594748868N12001834WA020380204744
B1851004748873N12001832WA020360205560
B1851014748878N12001828WA020350205873
B1851024748884N12001825WA020350205924
B1851034748889N12001822WA020340206132
B1851044748895N12001821WA020330206223
B1851054748901N12001819WA020330206040
B1851064748908N12001815WA020330205906
B1851074748915N12001810WA020330206007
B1851084748921N12001806WA020340206405
B1851094748926N12001803WA020350206725
B1851104748930N12001800WA020360206887
B1851114748936N12001797WA020360206943
B1851124748942N12001791WA020360206537
B1851134748947N12001783WA020340206376
B1851144748951N12001773WA020320206150
B1851154748951N12001762WA020300212508
B1851164748948N12001754WA020280210597
B1851174748945N12001748WA020260208985
B1851184748942N12001747WA020250207909
B1851194748938N12001746WA020250207668
B1851204748936N12001746WA020250207139
B1851214748934N12001747WA020260207066
B1851224748932N12001748WA020270206927
B1851234748930N12001751WA020280207041
B1851244748929N12001755WA020270206842
B1851254748929N12001761WA020260211256
B1851264748931N12001768WA020250209263
B1851274748934N12001774WA020240208398
B1851284748938N12001780WA020230207666
B1851294748942N12001785WA020220207388
B1851304748947N12001790WA020220206953
B1851314748952N12001794WA020210206786
B1851324748958N12001798WA020210206636
B1851334748963N12001802WA020210206593
B1851344748968N12001805WA020220206588
B1851354748973N12001809WA020220206540
B1851364748978N12001812WA020230206504
B1851374748982N12001815WA020230206656
B1851384748987N12001819WA020240206621
B1851394748991N12001822WA020240206646
B1851404748996N12001826WA020240206563
B1851414749001N12001829WA020230206498
B1851424749007N12001833WA020230206330
B1851434749012N12001835WA020220206244
B1851444749017N12001836WA020220206312
B1851454749021N12001836WA020220206188
B1851464749026N12001836WA020220206045
B1851474749032N12001835WA020210205919
B1851484749037N12001831WA020200205959
B1851494749043N12001827WA020190205845
B1851504749048N12001820WA020170205697
B1851514749052N12001811WA020150205351
B1851524749054N12001799WA020130205193
B1851534749055N12001788WA020110205008
B1851544749054N12001779WA020090205009
B1851554749051N12001773WA020080205140
B1851564749048N12001769WA020090205152
B1851574749045N12001767WA020080205049
B1851584749042N12001767WA020080204829
B1851594749038N12001767WA020070204775
B1852004749034N12001766WA020060204687
B1852014749030N12001764WA020040204448
B1852024749026N12001764WA020030204261
B1852034749022N12001764WA020010204125
B1852044749017N12001765WA020000204049
B1852054749012N12001767WA019980203916
B1852064749008N12001767WA019970203943
B1852074749005N12001767WA019950203953
B1852084749001N12001767WA019940203677
B1852094748997N12001767WA019920203496
B1852104748993N12001767WA019890202879
B1852114748988N12001769WA019860202380
B1852124748984N12001771WA019830202065
B1852134748980N12001775WA019800201548
B1852144748976N12001780WA019770201323
B1852154748971N12001783WA019750201397
B1852164748968N12001786WA019720201063
B1852174748964N12001788WA019700200731
B1852184748959N12001790WA019680200573
B1852194748955N12001792WA019660200487
B1852204748951N12001794WA019630200206
B1852214748946N12001796WA019610200142
B1852224748942N12001797WA019600200016
B1852234748937N12001798WA019590199968
B1852244748933N12001800WA019590199961
B1852254748929N12001801WA019590199980
B1852264748925N12001802WA019580199881
B1852274748922N12001803WA019580199753
B1852284748918N12001804WA019570199553
B1852294748914N12001804WA019560199469
B1852304748910N12001804WA019540199106
B1852314748905N12001804WA019530198956
B1852324748901N12001805WA019510198712
B1852334748896N12001806WA019480198401
B1852344748891N12001807WA019460198118
B1852354748886N12001809WA019440197806
B1852364748881N12001811WA019420197804
B1852374748877N12001813WA019410197899
B1852384748874N12001816WA019410197722
B1852394748870N12001817WA019410197647
B1852404748866N12001820WA019400197372
B1852414748862N12001823WA019380197032
B1852424748857N12001825WA019370196955
B1852434748852N12001828WA019350196730
B1852444748847N12001830WA019330196694
B1852454748843N12001833WA019320196712
B1852464748840N12001835WA019310196717
B1852474748835N12001837WA019310196678
B1852484748831N12001840WA019310196670
B1852494748827N12001843WA019310196660
B1852504748822N12001846WA019300196492
B1852514748818N12001850WA019300196280
B1852524748814N12001853WA019290196299
B1852534748811N12001857WA019280196124
B1852544748807N12001859WA019270196134
B1852554748803N12001861WA019250195922
B1852564748798N12001862WA019230195752
B1852574748794N12001863WA019210195405
B1852584748788N12001864WA019180195268
B1852594748783N12001866WA019160195070
B1853004748778N12001868WA019140194990
B1853014748774N12001869WA019120194833
B1853024748770N12001871WA019110194700
B1853034748766N12001871WA019100194719
B1853044748761N12001872WA019090194773
B1853054748757N12001873WA019080194581
B1853064748752N12001873WA019070194447
B1853074748747N12001873WA019050194276
B1853084748743N12001874WA019030194114
B1853094748739N12001875WA019010193920
B1853104748734N12001876WA018990193692
B1853114748729N12001876WA018980193597
B1853124748724N12001876WA018960193594
B1853134748721N12001876WA018960193417
B1853144748716N12001876WA018960193353
B1853154748711N12001875WA018970193498
B1853164748707N12001875WA018970193475
B1853174748703N12001874WA018980193419
B1853184748698N12001874WA018990193352
B1853194748694N12001873WA019000193406
B1853204748690N12001873WA019000193502
B1853214748685N12001873WA019010193631
B1853224748680N12001874WA019020193673
B1853234748675N12001876WA019030193663
B1853244748671N12001878WA019030193611
B1853254748666N12001880WA019040193725
B1853264748662N12001883WA019050193900
B1853274748657N12001883WA019060194138
B1853284748652N12001885WA019070194180
B1853294748648N12001886WA019090194322
B1853304748643N12001887WA019100194335
B1853314748638N12001888WA019100194237
B1853324748633N12001887WA019090194206
B1853334748628N12001885WA019080194137
B1853344748623N12001883WA019070193916
B1853354748618N12001880WA019070193929
B1853364748613N12001877WA019060193914
B1853374748608N12001873WA019070194117
B1853384748603N12001869WA019070194283
B1853394748599N12001864WA019080194476
B1853404748595N12001859WA019090194552
B1853414748591N12001854WA019100194610
B1853424748586N12001848WA019110194753
B1853434748581N12001843WA019130194778
B1853444748577N12001841WA019150194915
B1853454748572N12001838WA019170195495
B1853464748568N12001836WA019190195449
B1853474748564N12001834WA019220195807
B1853484748559N12001832WA019240196085
B1853494748556N12001830WA019270196317
B1853504748552N12001828WA019290196568
B1853514748548N12001827WA019310196681
B1853524748544N12001825WA019330196754
B1853534748540N12001823WA019330196729
B1853544748536N12001821WA019330196945
B1853554748533N12001819WA019330196923
B1853564748529N12001817WA019330196994
B1853574748526N12001815WA019320196877
B1853584748523N12001814WA019310196630
B1853594748520N12001811WA019290196309
B1854004748516N12001810WA019270196291
B1854014748514N12001809WA019260196100
B1854024748511N12001807WA019240196063
B1854034748508N12001804WA019220195919
B1854044748504N12001801WA019210195972
B1854054748501N12001797WA019190195829
B1854064748498N12001794WA019170195610
B1854074748495N12001790WA019160195524
B1854084748492N12001786WA019140195599
B1854094748490N12001783WA019130195224
B1854104748487N12001780WA019110195009
B1854114748483N12001777WA019090194653
B1854124748479N12001774WA019060194373
B1854134748476N12001769WA019040194113
B1854144748473N12001764WA019020194012
B1854154748469N12001758WA019000193985
B1854164748466N12001753WA018980193886
B1854174748463N12001747WA018970193690
B1854184748461N12001740WA018970193609
B1854214748452N12001720WA018940193395
B1854224748450N12001713WA018930168497
B1854234748449N12001706WA018920176302
B1854244748447N12001698WA018900180821
B1854254748445N12001690WA018890183704
B1854264748443N12001683WA018870185500
B1854274748440N12001674WA018860186848
B1854284748438N12001666WA018840187805
B1854294748435N12001658WA018830188698
B1854304748433N12001651WA018810189263
B1854314748431N12001643WA018800189518
B1854324748428N12001636WA018790189877
B1854334748426N12001628WA018770190119
B1854344748424N12001621WA018760190301
B1854354748422N12001614WA018750190648
B1854364748419N12001607WA018740190596
B1854374748417N12001599WA018730190669
B1854384748415N12001592WA018720190764
B1854394748413N12001584WA018710190757
B1854404748411N12001576WA018710190749
B1854414748409N12001569WA018700190770
B1854424748408N12001560WA018690190606
B1854434748406N12001552WA018680190614
B1854444748404N12001544WA018670190562
B1854454748403N12001536WA018660190532
B1854464748401N12001528WA018650190583
B1854474748400N12001520WA018630190514
B1854484748398N12001512WA018620190427
B1854494748396N12001504WA018610190392
B1854504748394N12001493WA018600190353
B1854514748393N12001486WA018580190126
B1854524748391N12001478WA018570190078
B1854534748390N12001470WA018560189878
B1854544748390N12001462WA018550189714
B1854554748388N12001452WA018540189339
B1854564748386N12001444WA018530189194
B1854574748385N12001436WA018520188941
B1854584748383N12001427WA018510188978
B1854594748382N12001419WA018500188808
B1855004748380N12001411WA018490188724
B1855014748378N12001402WA018480188749
B1855024748376N12001394WA018470188546
B1855034748374N12001387WA018460188450
B1855044748372N12001379WA018450188367
B1855054748370N12001371WA018440188288
B1855064748369N12001363WA018440188146
B1855074748368N12001355WA018430188004
B1855084748366N12001347WA018420187912
B1855094748364N12001339WA018410187770
B1855104748363N12001330WA018400187752
B1855114748362N12001321WA018390187625
B1855124748360N12001312WA018390187586
B1855134748359N12001303WA018380187437
B1855144748358N12001296WA018370187311
B1855154748356N12001287WA018360187039
B1855164748354N12001278WA018350186989
B1855174748353N12001270WA018340186847
B1855184748351N12001262WA018330186992
B1855194748350N12001253WA018320186758
B1855204748348N12001245WA018310186590
B1855214748347N12001236WA018310186565
B1855224748346N12001228WA018300186421
B1855234748345N12001219WA018290186313
B1855244748343N12001211WA018270186280
B1855254748342N12001202WA018260186100
B1855264748340N12001193WA018250186148
B1855274748338N12001185WA018240186173
B1855284748337N12001176WA018230185919
B1855294748335N12001168WA018230185841
B1855304748333N12001158WA018220185759
B1855314748332N12001150WA018210185706
B1855324748329N12001142WA018210185783
B1855334748328N12001133WA018200185705
B1855344748325N12001125WA018190185684
B1855354748323N12001117WA018190185678
B1855364748321N12001109WA018180185787
B1855374748319N12001102WA018170185694
B1855384748317N12001093WA018170185674
B1855394748316N12001084WA018160185402
B1855404748314N12001076WA018150185464
B1855414748312N12001068WA018140185269
B1855424748311N12001061WA018130185021
B1855434748309N12001052WA018130184942
B1855444748308N12001044WA018120184811
B1855454748306N12001035WA018110184896
B1855464748305N12001026WA018100184667
B1855474748304N12001017WA018080184512
B1855484748302N12001008WA018070184585
B1855494748301N12001000WA018060184487
B1855504748300N12000992WA018060184281
B1855514748299N12000984WA018050184178
B1855524748299N12000976WA018040184008
B1855534748297N12000968WA018030183895
B1855544748296N12000960WA018020183765
B1855554748295N12000951WA018010183709
B1855564748294N12000943WA018000183612
B1855574748292N12000934WA017990183580
B1855584748291N12000926WA017980183542
B1855594748289N12000918WA017980183548
B1856004748288N12000911WA017980183439
B1856014748287N12000904WA017970183303
B1856024748285N12000897WA017970183311
B1856034748283N12000888WA017960183150
B1856044748282N12000879WA017950183208
B1856054748281N12000871WA017940183014
B1856064748279N12000861WA017930182886
B1856074748277N12000852WA017910182882
B1856084748275N12000843WA017900182745
B1856094748272N12000835WA017880182892
B1856104748269N12000825WA017870182690
B1856114748267N12000815WA017850182666
B1856124748265N12000806WA017840182570
B1856134748264N12000796WA017820182309
B1856144748262N12000787WA017810182172
B1856154748261N12000777WA017800182058
B1856164748259N12000767WA017780181999
B1856174748258N12000758WA017770181771
B1856184748256N12000747WA017750181693
B1856194748256N12000737WA017750181419
B1856204748256N12000730WA017750181506
B1856214748256N12000724WA017760181583
B1856224748257N12000718WA017760181669
B1856234748258N12000712WA017750181433
B1856244748258N12000704WA017740181324
B1856254748257N12000695WA017720180799
B1856264748257N12000686WA017700180482
B1856274748258N12000677WA017670180208
B1856284748257N12000669WA017640179883
B1856294748258N12000660WA017620179758
B1856304748258N12000652WA017590179346
B1856314748258N12000644WA017570179163
B1856324748258N12000636WA017540178772
B1856334748258N12000627WA017510178487
B1856344748257N12000618WA017470178098
B1856354748257N12000609WA017440177872
B1856364748257N12000600WA017410177441
B1856374748257N12000591WA017380177320
B1856384748257N12000582WA017350177119
B1856394748256N12000574WA017320177032
B1856404748255N12000565WA017300176750
B1856414748255N12000555WA017280176508
B1856424748254N12000548WA017250176493
B1856434748254N12000540WA017230176251
B1856444748253N12000532WA017210176071
B1856454748253N12000524WA017180175745
B1856464748252N12000516WA017160175511
B1856474748250N12000506WA017130175298
B1856484748249N12000497WA017110175092
B1856494748249N12000487WA017100174926
B1856504748249N12000478WA017100174804
B1856514748248N12000469WA017100174787
B1856524748248N12000460WA017090174769
B1856534748248N12000452WA017080174511
B1856544748247N12000442WA017070174238
B1856554748246N12000433WA017050174056
B1856564748245N12000424WA017040173986
B1856574748245N12000415WA017020173717
B1856584748244N12000407WA017010173652
B1856594748244N12000398WA016990173534
B1857004748243N12000389WA016980173384
B1857014748243N12000379WA016960173135
B1857024748243N12000369WA016940172927
B1857034748243N12000360WA016920172902
B1857044748242N12000350WA016910172765
B1857054748242N12000340WA016890172628
B1857064748241N12000331WA016890172693
B1857074748241N12000321WA016870172458
B1857084748242N12000312WA016860172404
B1857094748242N12000302WA016850172142
B1857104748242N12000292WA016830172018
B1857114748242N12000283WA016810171801
B1857124748241N12000271WA016790171629
B1857134748241N12000262WA016770171308
B1857144748240N12000253WA016750171190
B1857154748240N12000243WA016740171084
B1857164748240N12000234WA016720170882
B1857174748240N12000225WA016710170668
B1857184748240N12000218WA016710170731
B1857194748240N12000211WA016710170755
B1857204748240N12000204WA016710170605
B1857214748239N12000197WA016700170421
B1857224748238N12000189WA016680170322
B1857234748237N12000181WA016670170128
B1857244748236N12000175WA016650169921
B1857254748235N12000168WA016640169816
B1857264748234N12000162WA016620169713
B1857274748233N12000156WA016600169601
B1857284748231N12000149WA016590169488
B1857294748230N12000143WA016570169378
B1857304748229N12000137WA016560169228
B1857314748227N12000132WA016540169041
B1857324748225N12000126WA016520168947
B1857334748223N12000123WA016510168833
B1857344748220N12000120WA016500168671
B1857354748218N12000116WA016480168520
B1857364748215N12000111WA016470168483
B1857374748214N12000106WA016460168322
B1857384748212N12000101WA016450168184
B1857394748211N12000095WA016430167955
B1857404748209N12000089WA016420167895
B1857414748208N12000083WA016400167722
B1857424748206N12000076WA016380167686
B1857434748205N12000069WA016360167325
B1857444748203N12000062WA016340167153
B1857454748201N12000055WA016330166914
B1857464748198N12000048WA016310166897
B1857474748196N12000041WA016290166679
B1857484748194N12000035WA016270166435
B1857494748192N12000029WA016260166327
B1857504748190N12000023WA016240166212
B1857514748187N12000017WA016220166163
B1857524748184N12000012WA016200165980
B1857534748182N12000007WA016190165708
B1857544748178N12000002WA016180165469
B1857554748175N12000000WA016170165232
B1857564748171N11959998WA016160165173
B1857574748168N11959997WA016150164403
B1857584748164N11959998WA016140164447
B1857594748161N11959999WA016130164115
B1858004748157N11959999WA016110164097
B1858014748154N12000000WA016100163765
B1858024748151N12000001WA016090164115
B1858034748147N12000002WA016080164080
B1858044748144N12000002WA016070163912
B1858054748140N12000002WA016060163745
B1858064748136N12000002WA016050163678
B1858074748133N12000002WA016030163500
B1858084748129N12000001WA016020163471
B1858094748126N11959999WA016010163217
B1858104748122N11959997WA016000162664
B1858114748119N11959993WA015990162577
B1858124748117N11959985WA015980162553
B1858134748116N11959979WA015970162200
B1858144748114N11959970WA015950162234
B1858154748113N11959963WA015940162006
B1858164748111N11959956WA015930162006
B1858174748108N11959950WA015930161990
B1858184748106N11959944WA015920161763
B1858194748104N11959939WA015910161620
B1858204748100N11959934WA015890161677
B1858214748098N11959930WA015880161407
B1858224748094N11959927WA015880161380
B1858234748092N11959922WA015880161209
B1858244748089N11959919WA015870161110
B1858254748086N11959914WA015870161069
B1858264748083N11959911WA015860160851
B1858274748080N11959907WA015850160860
B1858284748077N11959903WA015830160770
B1858294748074N11959898WA015820160572
B1858304748071N11959892WA015810160598
B1858314748069N11959886WA015790160549
B1858324748067N11959880WA015780160314
B1858334748065N11959875WA015760160201
B1858344748063N11959868WA015750160009
B1858354748060N11959862WA015740159898
B1858364748059N11959856WA015730159806
B1858374748057N11959851WA015720159711
B1858384748055N11959844WA015700159545
B1858394748053N11959837WA015690159487
B1858404748052N11959830WA015680159271
B1858414748052N11959822WA015660159115
B1858424748051N11959815WA015650158982
B1858434748051N11959807WA015630158839
B1858444748050N11959800WA015620158789
B1858454748050N11959795WA015620158680
B1858464748051N11959790WA015610158512
B1858474748051N11959786WA015600158381
B1858484748053N11959785WA015580157936
B1858494748054N11959788WA015540157189
B1858504748056N11959793WA015490156199
B1858514748059N11959798WA015410155261
B1858524748062N11959801WA015340154624
B1858534748064N11959803WA015250153887
B1858544748067N11959806WA015160153012
B1858554748069N11959809WA015070152002
B1858564748069N11959808WA014980151104
B1858574748069N11959806WA014880150360
B1858584748073N11959805WA014790149547
B1858594748078N11959809WA014700165498
B1859004748082N11959818WA014620157463
B1859014748082N11959827WA014560153872
B1859024748078N11959831WA014540170994
B1859034748073N11959828WA014530162690
B1859044748070N11959818WA014520156881
B1859054748071N11959806WA014500152903
B1859064748070N11959798WA014500151168
B1859074748070N11959791WA014510150384
B1859084748069N11959786WA014510149583
B1859094748067N11959779WA014510148867
B1859104748065N11959772WA014500148327
B1859114748063N11959764WA014480147709
B1859124748060N11959757WA014470147481
B1859134748058N11959749WA014460147287
B1859144748056N11959743WA014440147091
B1859154748054N11959737WA014430146870
B1859164748052N11959729WA014420146577
B1859174748050N11959722WA014410146315
B1859184748048N11959715WA014390146002
B1859194748045N11959707WA014380145982
B1859204748043N11959699WA014370145858
B1859214748041N11959693WA014360145741
B1859224748039N11959687WA014350145620
B1859234748036N11959680WA014340145465
B1859244748034N11959673WA014330145344
B1859254748032N11959666WA014320145234
B1859264748029N11959660WA014310145090
B1859274748027N11959653WA014300144919
B1859284748024N11959647WA014290144883
B1859294748022N11959640WA014280144775
B1859304748020N11959634WA014270144601
B1859314748017N11959628WA014250144542
B1859324748014N11959621WA014240144385
B1859334748012N11959614WA014230144227
B1859344748010N11959607WA014210144211
B1859354748008N11959600WA014200144167
B1859364748006N11959594WA014200144069
B1859374748004N11959588WA014180143806
B1859384748001N11959582WA014170143738
B1859394747998N11959577WA014160143420
B1859404747995N11959570WA014150143348
B1859414747992N11959565WA014140143280
B1859424747991N11959560WA014130143151
B1859434747988N11959554WA014110142774
B1859444747985N11959548WA014100142584
B1859454747982N11959542WA014090142380
B1859464747980N11959535WA014080142246
B1859474747977N11959530WA014060142270
B1859484747975N11959524WA014050142100
B1859494747972N11959518WA014030142052
B1859504747969N11959512WA014020141985
B1859514747967N11959507WA014010141966
B1859524747964N11959502WA014000141794
B1859534747962N11959497WA013980141618
B1859544747959N11959493WA013970141324
B1859554747956N11959489WA013950141102
B1859564747953N11959485WA013940140927
B1859574747949N11959482WA013920140891
B1859584747946N11959477WA013900140713
B1859594747942N11959473WA013880140693
B1900004747939N11959469WA013860140479
B1900014747936N11959465WA013840140239
B1900024747933N11959463WA013820140030
B1900034747930N11959460WA013800139814
B1900044747926N11959456WA013780139689
B1900054747923N11959453WA013760139496
B1900064747920N11959449WA013740139167
B1900074747916N11959446WA013720138896
B1900084747913N11959442WA013700138757
B1900094747910N11959438WA013680138509
B1900104747908N11959433WA013660138308
B1900114747907N11959425WA013650138179
B1900124747910N11959415WA013630137717
B1900134747912N11959404WA013600137164
B1900144747914N11959393WA013570137086
B1900154747915N11959382WA013530136924
B1900164747900N11959394WA013480136705
B1900174747892N11959394WA013440135941
B1900184747887N11959387WA013400136032
B1900194747887N11959376WA013350135632
B1900204747889N11959365WA013290134441
B1900214747893N11959352WA013240155652
B1900224747901N11959342WA013190157087
B1900244747910N11959326WA013030164519
B1900254747895N11959355WA012950118098
B1900264747888N11959363WA012870121878
B1900274747882N11959368WA012770123828
B1900284747889N11959362WA012670124791
B1900294747898N11959356WA012590125146
B1900304747903N11959338WA012500125696
B1900314747914N11959331WA012380125811
B1900324747923N11959319WA012270125807
B1900334747928N11959313WA012170126151
B1900344747915N11959305WA012130126288
B1900354747910N11959298WA012150126596
B1900364747912N11959298WA012190126739
B1900374747914N11959298WA012220126569
B1900384747914N11959297WA012230125718
B1900394747909N11959293WA012220125293
B1900404747906N11959290WA012190124410
B1900414747901N11959284WA012160123878
B1900424747899N11959279WA012140123623
B1900434747897N11959273WA012120123465
B1900444747896N11959267WA012110123243
B1900454747894N11959260WA012090122969
B1900464747892N11959253WA012070122774
B1900474747891N11959245WA012050122477
B1900484747892N11959237WA012030122111
B1900494747895N11959229WA012010121929
B1900504747900N11959223WA011990121665
B1900514747906N11959218WA011960121241
B1900524747908N11959208WA011940120938
B1900534747910N11959200WA011910120636
B1900544747900N11959194WA011860120388
B1900554747894N11959190WA011820119633
B1900564747890N11959186WA011800119753
B1900574747888N11959182WA011810120090
B1900584747887N11959177WA011820119958
B1900594747886N11959173WA011820119718
B1901004747882N11959171WA011810119521
B1901014747876N11959168WA011790119294
B1901024747872N11959166WA011770118811
B1901034747868N11959164WA011750118640
B1901044747865N11959162WA011740118549
B1901054747862N11959161WA011720118478
B1901064747859N11959160WA011710118226
B1901074747856N11959160WA011690117920
B1901084747853N11959158WA011670117866
B1901094747850N11959157WA011650117686
B1901104747848N11959156WA011630117351
B1901114747850N11959155WA011590117003
B1901134747858N11959152WA011490115900
B1901144747863N11959151WA011410137720
B1901154747867N11959150WA011330132511
B1901164747869N11959148WA011240130252
B1901174747872N11959144WA011160122214
B1901184747874N11959139WA011070117044
B1901194747876N11959134WA010980115969
B1901204747879N11959130WA010890114834
B1901214747881N11959125WA010790111960
B1901224747883N11959120WA010700111283
B1901234747885N11959115WA010610110001
B1901244747886N11959109WA010520108036
B1901254747885N11959102WA010430106859
B1901264747885N11959097WA010340105341
B1901274747884N11959096WA010250104490
B1901284747883N11959096WA010170103389
B1901294747880N11959090WA010100102587
B1901304747882N11959083WA010030101776
B1901314747884N11959074WA009950100874
B1901324747892N11959069WA009900100251
B1901334747896N11959062WA009910100483
B1901344747898N11959053WA009940100329
B1901354747896N11959046WA009950100193
B1901364747892N11959038WA009950099838
B1901374747886N11959034WA009930099535
B1901384747880N11959033WA009920099265
B1901394747876N11959035WA009910099221
B1901404747873N11959037WA009900099136
B1901414747870N11959041WA009890099052
B1901424747866N11959045WA009880098892
B1901434747863N11959048WA009860098629
B1901444747859N11959052WA009850098537
B1901454747855N11959057WA009830098484
B1901464747853N11959062WA009820098402
B1901474747850N11959067WA009800098352
B1901484747847N11959071WA009790098197
B1901494747844N11959076WA009770097886
B1901504747841N11959081WA009760097754
B1901514747838N11959085WA009750097607
B1901524747834N11959088WA009740097529
B1901534747829N11959091WA009720097582
B1901544747825N11959092WA009710097339
B1901554747821N11959094WA009700097002
B1901564747816N11959095WA009680096711
B1901574747811N11959096WA009670096500
B1901584747806N11959096WA009660096423
B1901594747800N11959096WA009640096297
B1902004747796N11959096WA009630096126
B1902014747791N11959096WA009610096166
B1902024747786N11959095WA009600096047
B1902034747781N11959095WA009590095732
B1902044747776N11959095WA009580095630
B1902054747771N11959095WA009570095514
B1902064747766N11959095WA009560095537
B1902074747761N11959095WA009540095521
B1902084747757N11959094WA009530095249
B1902094747752N11959094WA009520094946
B1902104747748N11959091WA009510094815
B1902114747745N11959083WA009490094646
B1902124747746N11959073WA009460094124
B1902134747751N11959066WA009430093436
B1902144747757N11959069WA009390092962
B1902154747757N11959078WA009330092152
B1902164747748N11959079WA009260091095
B1902174747740N11959069WA009180089906
B1902184747736N11959061WA009130090185
B1902194747736N11959056WA009130091009
B1902204747735N11959053WA009150091566
B1902214747734N11959052WA009160091754
B1902224747732N11959047WA009150091371
B1902234747732N11959038WA009120090833
B1902244747732N11959027WA009090090072
B1902254747734N11959018WA009060089932
B1902264747736N11959012WA009040090035
B1902274747740N11959011WA009010089990
B1902284747746N11959010WA008990089523
B1902294747751N11959009WA008960089167
B1902304747753N11958997WA008930088817
B1902334747739N11959003WA008750088000
B1902364747754N11958985WA008550108174
B1902374747758N11958981WA008570109476
B1902384747759N11958979WA008590102152
B1902394747760N11958975WA008600096900
B1902404747760N11958966WA008590094399
B1902414747761N11958954WA008560091796
B1902424747764N11958942WA008530089571
B1902434747767N11958933WA008510088665
B1902444747772N11958928WA008500087416
B1902454747777N11958926WA008490086104
B1902464747782N11958928WA008460085110
B1902474747785N11958932WA008440084794
B1902484747785N11958938WA008420084465
B1902494747782N11958942WA008400083804
B1902504747775N11958939WA008370083075
B1902514747771N11958929WA008330082554
B1902524747772N11958916WA008290082166
B1902534747778N11958909WA008260081750
B1902544747785N11958908WA008220081379
B1902554747790N11958914WA008190081141
B1902564747791N11958920WA008180080944
B1902574747790N11958925WA008180080809
B1902584747787N11958929WA008180080827
B1902594747784N11958932WA008190080770
B1903004747781N11958934WA008180080771
B1903014747778N11958935WA008180080638
B1903024747774N11958936WA008170080429
B1903034747769N11958937WA008160080355
B1903044747765N11958937WA008140080107
B1903054747760N11958937WA008130080151
B1903064747756N11958936WA008120079942
B1903074747752N11958933WA008100079906
B1903084747748N11958931WA008090079802
B1903094747743N11958928WA008070079655
B1903104747738N11958925WA008060079625
B1903114747733N11958921WA008040079439
B1903124747729N11958920WA008020079320
B1903134747724N11958918WA008010079114
B1903144747719N11958917WA007990079035
B1903154747714N11958916WA007970079010
B1903164747708N11958915WA007960078965
B1903174747703N11958914WA007950078866
B1903184747699N11958914WA007950078705
B1903194747694N11958915WA007940078662
B1903204747690N11958915WA007940078312
B1903214747685N11958915WA007930078162
B1903224747681N11958914WA007920077908
B1903234747676N11958914WA007910077930
B1903244747672N11958913WA007890077822
B1903254747668N11958912WA007880077700
B1903264747664N11958910WA007870077618
B1903274747660N11958909WA007860077403
B1903284747655N11958908WA007850077241
B1903294747650N11958907WA007830077080
B1903304747646N11958905WA007820077038
B1903314747642N11958905WA007810076915
B1903324747637N11958905WA007800076781
B1903334747634N11958905WA007780076599
B1903344747632N11958908WA007770076508
B1903354747629N11958911WA007760076367
B1903364747627N11958916WA007750076263
B1903374747627N11958920WA007730076134
B1903384747628N11958924WA007720076035
B1903394747629N11958928WA007700076001
B1903404747629N11958932WA007690076096
B1903414747631N11958935WA007680076078
B1903424747631N11958938WA007660075984
B1903434747633N11958941WA007650075898
B1903444747636N11958944WA007630075510
B1903454747638N11958947WA007620075344
B1903464747639N11958950WA007610075294
B1903474747641N11958952WA007590075244
B1903484747643N11958955WA007580075103
B1903494747645N11958958WA007560074910
B1903504747646N11958961WA007550074687
B1903514747648N11958965WA007540074581
B1903524747650N11958968WA007530074479
B1903534747652N11958972WA007520074275
B1903544747654N11958975WA007510074018
B1903554747656N11958980WA007500073810
B1903564747657N11958983WA007490073712
B1903574747658N11958987WA007480073636
B1903584747658N11958991WA007470073492
B1903594747660N11958994WA007460073218
B1904004747661N11958998WA007450073138
B1904014747663N11959003WA007430072955
B1904024747666N11959008WA007420072778
B1904034747669N11959013WA007400072586
B1904044747672N11959018WA007390072561
B1904054747674N11959021WA007390072446
B1904064747676N11959025WA007390072361
B1904074747678N11959026WA007390072398
B1904084747682N11959027WA007380072358
B1904094747687N11959030WA007370072101
B1904104747690N11959032WA007360071872
B1904114747694N11959033WA007350071739
B1904124747697N11959036WA007340071580
B1904134747701N11959037WA007330071427
B1904144747705N11959039WA007320071413
B1904154747708N11959040WA007310071343
B1904164747712N11959041WA007300071369
B1904174747716N11959043WA007290071276
B1904184747720N11959045WA007280071210
B1904194747723N11959046WA007270071248
B1904204747727N11959048WA007260071149
B1904214747731N11959050WA007250071044
B1904224747735N11959052WA007240070951
B1904234747739N11959053WA007230070946
B1904244747743N11959055WA007220070831
B1904254747747N11959056WA007220070827
B1904264747750N11959058WA007210070892
B1904274747754N11959059WA007200070748
B1904284747757N11959060WA007190070688
B1904294747761N11959061WA007190070589
B1904304747766N11959062WA007180070334
B1904314747771N11959061WA007160070234
B1904324747776N11959057WA007150069908
B1904334747780N11959051WA007130069742
B1904344747785N11959043WA007110069323
B1904354747790N11959038WA007090069127
B1904364747795N11959039WA007060069088
B1904374747799N11959047WA007020068332
B1904384747801N11959057WA006980067591
B1904394747805N11959066WA006950067519
B1904404747807N11959076WA006920067484
B1904414747812N11959083WA006870067455
B1904424747821N11959035WA006820067338
B1904434747831N11959032WA006780067518
B1904444747837N11959026WA006740067395
B1904454747844N11959025WA006690067196
B1904464747846N11959043WA006650066803
B1904474747850N11959050WA006630066761
B1904484747856N11959058WA006600066769
B1904494747862N11959062WA006540066532
B1904504747852N11959022WA006480066453
B1904514747856N11959013WA006450066268
B1904524747866N11959010WA006440065728
B1904534747872N11959007WA006420065171
B1904544747879N11959006WA006370064143
B1904554747881N11959014WA006310063280
B1904564747859N11959016WA006270062088
B1904574747859N11959010WA006250063438
B1904584747859N11959004WA006240063183
B1904594747860N11958996WA006250062776
B1905004747861N11958989WA006250062565
B1905014747862N11958982WA006240062504
B1905024747863N11958974WA006240062004
B1905034747863N11958967WA006220061894
B1905044747865N11958960WA006210061552
B1905054747868N11958954WA006200061431
B1905064747872N11958948WA006180061110
B1905074747877N11958944WA006170060842
B1905084747883N11958941WA006150060548
B1905094747889N11958940WA006130060200
B1905104747894N11958939WA006120060030
B1905114747899N11958938WA006100059901
B1905124747904N11958937WA006090059744
B1905134747909N11958936WA006070059450
B1905144747915N11958933WA006060059108
B1905154747920N11958932WA006040058951
B1905164747925N11958930WA006030045292
B1905174747931N11958926WA006010049312
B1905184747935N11958920WA006000052254
B1905194747938N11958913WA005980053675
B1905204747940N11958905WA005960054264
B1905214747936N11958896WA005940054300
B1905224747932N11958892WA005920054912
B1905234747927N11958890WA005910055487
B1905244747924N11958892WA005900055756
B1905254747923N11958897WA005890055908
B1905264747922N11958903WA005880055898
B1905274747923N11958910WA005870055891
B1905284747928N11958915WA005860055706
B1905294747934N11958915WA005840055556
B1905304747940N11958914WA005820055455
B1905314747946N11958909WA005800055219
B1905324747950N11958902WA005780055129
B1905334747950N11958893WA005760054945
B1905344747948N11958886WA005740041287
B1905354747945N11958881WA005720044926
B1905364747940N11958879WA005700047799
B1905374747937N11958881WA005680049290
B1905384747935N11958885WA005660050689
B1905394747936N11958892WA005640051503
B1905404747939N11958899WA005620051901
B1905414747944N11958902WA005600051971
B1905424747951N11958901WA005580052038
B1905434747957N11958896WA005560052127
B1905444747963N11958891WA005540052313
B1905454747966N11958885WA005520052391
B1905464747958N11958875WA005500052290
B1905474747956N11958867WA005480052264
B1905484747951N11958872WA005460052214
B1905494747948N11958876WA005440052253
B1905504747948N11958881WA005430040356
B1905514747950N11958888WA005410044882
B1905524747955N11958893WA005400047008
B1905534747960N11958895WA005380047974
B1905544747966N11958895WA005370048532
B1905554747971N11958892WA005360048990
B1905564747976N11958887WA005340049471
B1905574747978N11958878WA005330049552
B1905584747977N11958870WA005310049597
B1905594747976N11958865WA005290049579
B1906004747973N11958870WA005260049311
B1906014747970N11958873WA005210040593
B1906024747969N11958881WA005150041656
B1906034747985N11958881WA005110039973
B1906044747993N11958880WA005080043910
B1906054747994N11958871WA005060044845
B1906064747998N11958866WA005030045546
B1906074747988N11958867WA004980045132
B1906084747983N11958870WA004940045165
B1906094747982N11958877WA004910045746
B1906104747981N11958884WA004880045485
B1906114747983N11958889WA004830044708
B1906124747988N11958886WA004770044664
B1906134747983N11958864WA004710044756
B1906144747980N11958856WA004670044850
B1906154747977N11958849WA004640044541
B1906164747983N11958852WA004620044307
B1906174747982N11958863WA004600043843
B1906184747991N11958877WA004590043680
B1906194747997N11958879WA004600043630
B1906204748002N11958879WA004600043528
B1906214748006N11958878WA004590043393
B1906224748011N11958875WA004580043135
B1906234748016N11958871WA004570043015
B1906244748020N11958867WA004550042886
B1906254748024N11958862WA004530042799
B1906264748028N11958857WA004520042586
B1906274748032N11958852WA004500042472
B1906284748036N11958846WA004480042215
B1906294748039N11958841WA004470042151
B1906304748043N11958835WA004450041938
B1906314748047N11958832WA004430041872
B1906324748052N11958829WA004410041752
B1906334748059N11958830WA004390041664
B1906344748065N11958833WA004370041324
B1906354748070N11958837WA004350041132
B1906364748074N11958841WA004340040953
B1906374748078N11958845WA004320030019
B1906384748081N11958851WA004310032312
B1906394748084N11958856WA004300033726
B1906404748087N11958862WA004290034602
B1906414748089N11958868WA004270035682
B1906424748092N11958874WA004260036472
B1906434748096N11958879WA004250037359
B1906444748100N11958884WA004230037427
B1906454748103N11958890WA004220037891
B1906464748107N11958895WA004210038108
B1906474748108N11958901WA004200038389
B1906484748109N11958907WA004180038355
B1906494748108N11958911WA004160038299
B1906504748106N11958917WA004150038281
B1906514748102N11958919WA004130037996
B1906524748099N11958918WA004110037969
B1906534748097N11958917WA004090037800
B1906544748094N11958914WA004080037861
B1906554748092N11958910WA004060037895
B1906564748090N11958905WA004050037997
B1906574748088N11958900WA004040037766
B1906584748086N11958897WA004020037628
B1906594748083N11958893WA004000037547
B1907004748081N11958889WA003990037361
B1907014748080N11958885WA003970037401
B1907024748077N11958880WA003960037479
B1907034748076N11958877WA003950037301
B1907044748073N11958873WA003940037194
B1907054748071N11958869WA003920037143
B1907064748068N11958865WA003910037005
B1907074748065N11958862WA003900036848
B1907084748062N11958860WA003880036795
B1907094748059N11958858WA003870036736
B1907104748055N11958857WA003860036558
B1907114748051N11958857WA003840036498
B1907124748047N11958861WA003830036293
B1907134748045N11958865WA003810036037
B1907144748044N11958870WA003790035936
B1907154748044N11958877WA003780035845
B1907164748044N11958884WA003760035792
B1907174748046N11958889WA003750035448
B1907184748047N11958897WA003740035240
B1907194748049N11958902WA003730035067
B1907204748051N11958908WA003710034869
B1907214748053N11958915WA003700025851
B1907224748055N11958920WA003690027361
B1907234748058N11958926WA003680028612
B1907244748060N11958931WA003670029845
B1907254748062N11958937WA003670030574
B1907264748066N11958943WA003650030907
B1907274748068N11958949WA003640031335
B1907284748071N11958955WA003630031715
B1907294748073N11958961WA003620031923
B1907304748075N11958967WA003610032142
B1907314748078N11958972WA003600032315
B1907324748080N11958978WA003590032303
B1907334748081N11958984WA003570032164
B1907344748083N11958990WA003560032061
B1907354748085N11958995WA003540032084
B1907364748087N11959001WA003530031858
B1907374748088N11959007WA003510031798
B1907384748088N11959013WA003500031942
B1907394748087N11959019WA003490031604
B1907404748084N11959024WA003470031534
B1907414748080N11959026WA003460031268
B1907424748076N11959027WA003440031083
B1907434748072N11959025WA003430030864
B1907444748069N11959022WA003410030823
B1907454748067N11959018WA003400030830
B1907464748065N11959011WA003390030679
B1907474748064N11959005WA003380030469
B1907484748063N11959000WA003370030376
B1907494748062N11958994WA003360030383
B1907504748062N11958988WA003340026028
B1907514748061N11958983WA003330026864
B1907524748060N11958978WA003320027449
B1907534748058N11958973WA003310027948
B1907544748056N11958968WA003290028128
B1907554748054N11958964WA003280028472
B1907564748053N11958958WA003270028537
B1907574748052N11958953WA003250028627
B1907584748051N11958948WA003240028832
B1907594748050N11958942WA003230028745
B1908004748049N11958936WA003220028647
B1908014748048N11958930WA003200028408
B1908024748046N11958925WA003190028683
B1908034748043N11958924WA003180028533
B1908044748039N11958923WA003160028477
B1908054748036N11958924WA003140028127
B1908064748032N11958929WA003120027696
B1908074748031N11958937WA003100027769
B1908084748032N11958945WA003090027606
B1908094748033N11958953WA003070027434
B1908104748034N11958960WA003060027484
B1908114748036N11958966WA003050027409
B1908124748037N11958973WA003050027367
B1908134748039N11958979WA003040027287
B1908144748041N11958986WA003020027026
B1908154748042N11958993WA003010026796
B1908164748044N11959000WA003000026755
B1908174748045N11959006WA002980026723
B1908184748045N11959012WA002970026474
B1908194748045N11959018WA002950026388
B1908204748044N11959025WA002940026194
B1908214748042N11959029WA002930025938
B1908224748038N11959030WA002910025506
B1908234748032N11959026WA002880025152
B1908244748027N11959022WA002850024704
B1908254748021N11959019WA002830024791
B1908264748017N11959017WA002810024734
B1908274748016N11959035WA002780024636
B1908284748013N11959043WA002760024418
B1908294748007N11959048WA002740024248
B1908304748002N11959049WA002730024112
B1908314747998N11959049WA002740023902
B1908324747994N11959048WA002740024071
B1908334747991N11959048WA002740024024
B1908344747987N11959050WA002730024014
B1908354747982N11959054WA002720023754
B1908364747976N11959058WA002690023263
B1908374747970N11959061WA002660022913
B1908384747964N11959066WA002640022747
B1908394747959N11959072WA002630022714
B1908404747954N11959077WA002610022624
B1908414747949N11959082WA002600022316
B1908424747943N11959087WA002580022038
B1908434747938N11959093WA002560021810
B1908444747932N11959097WA002540021856
B1908454747927N11959101WA002540021887
B1908464747923N11959106WA002550021851
B1908474747918N11959108WA002540021886
B1908484747914N11959111WA002540021581
B1908494747910N11959113WA002540021481
B1908504747907N11959115WA002540021350
B1908514747906N11959115WA002530021375
B1908524747906N11959116WA002530021051
B1908534747906N11959116WA002530020943
B1908544747906N11959116WA002540020817
B1908554747906N11959117WA002540020713
B1908564747906N11959118WA002540020906
B1908574747905N11959118WA002540020946
B1908584747905N11959118WA002540021358
B1908594747905N11959118WA002540021257
B1909004747905N11959118WA002530021245
B1909014747905N11959118WA002530021274
B1909024747905N11959118WA002540021296
B1909034747906N11959118WA002540021218
B1909044747906N11959118WA002540021329
LXCTFAICIVLCOMPLIANT true
G5E072B007E3E0FFAF971612D704B932DAE2631C2DB267F18EE5F125C7A9A1843
G4FDEE4CF7597655D6DFA16917836C3EBD427E263DCBAAC311C2D6E29B88C6BCC
G4796BF143B6999AB6A54736A93016DD946EEE6640F37813571684EE0A5C1CA0F
G6BECAA5E179F7DB7D28036048B0AB4B96120140FD228D482A62C56287EAA22EB
