AFLY06032
HFDTE270610
HFFXA100
HFPLTPILOT:     not set      
HFGTYGLIDERTYPE:     not set      
HFGIDGLIDERID:     not set      
HFDTM100GPSDATUM:WGS84
HFGPSGPS:FURUNO GH-81
HFRFWFIRMWAREVERSION:3.28
HFRHWHARDWAREVERSION:1.00
HFFTYFRTYPE:FLYTEC,6030
C3920532N12241003WTAKEOFF         
C3920438N12241115WPOTLAU POTATO LA
C3922248N12241403WSNOWVL VERY LOW 
C3920977N12239723WPOTLZ POTATO LZ 
C3920438N12241115WPOTLAU POTATO LA
C3925172N12240419WJOHNLO LOW ON ST
C3920438N12241115WPOTLAU POTATO LA
C3924348N12233102WINDIAN INDIAN VA
C3921382N12230989WRESERV EAST PARK
C3921382N12230989WRESERV EAST PARK
C3921228N12231091WLANDING         
I013638TAS
B1838203920454N12241104WA0104901042000
B1838253920454N12241103WA0104801042000
B1838303920456N12241101WA0104801042000
B1838353920456N12241101WA0104701042000
B1838403920456N12241101WA0104701042000
B1838453920456N12241101WA0104701042000
B1838503920456N12241101WA0104701043000
B1838553920456N12241100WA0104701043000
B1839003920456N12241100WA0104701043000
B1839053920456N12241100WA0104701043000
B1839103920456N12241100WA0104701044000
B1839153920456N12241100WA0104701044000
B1839203920456N12241099WA0104701044000
B1839253920456N12241099WA0104701044000
B1839303920456N12241099WA0104701044000
B1839353920457N12241099WA0104701044000
B1839403920456N12241100WA0104701044000
B1839453920456N12241100WA0104701044000
B1839503920456N12241100WA0104701044000
B1839553920456N12241100WA0104701045000
B1840003920456N12241100WA0104701046000
B1840053920455N12241101WA0104701046000
B1840103920455N12241102WA0104701047000
B1840153920455N12241101WA0104701047000
B1840253920457N12241092WA0104901047026
B1840303920466N12241079WA0104501046035
B1840353920475N12241060WA0104901046027
B1840403920490N12241043WA0104201045036
B1840453920507N12241029WA0103801044033
B1840503920524N12241012WA0103801042035
B1840553920536N12240999WA0104301042029
B1841003920552N12240997WA0104301041035
B1841063920555N12241027WA0104901041035
B1841113920535N12241027WA0105601041031
B1841163920538N12241015WA0105601042033
B1841213920552N12241039WA0105601044041
B1841263920531N12241063WA0106301046032
B1841313920510N12241062WA0106301049035
B1841363920523N12241059WA0106001051035
B1841413920524N12241094WA0106301052040
B1841463920505N12241104WA0106501054028
B1841513920489N12241096WA0106501056029
B1841563920474N12241087WA0106101058030
B1842013920482N12241070WA0106301059024
B1842063920501N12241066WA0106601061033
B1842113920520N12241083WA0105801062041
B1842163920516N12241065WA0105901063026
B1842213920508N12241049WA0106001063026
B1842263920512N12241033WA0105901064030
B1842313920525N12241019WA0105601065027
B1842363920536N12241001WA0104601064038
B1842413920549N12240980WA0103901063034
B1842463920562N12240958WA0103201060035
B1842513920574N12240936WA0102501056038
B1842563920587N12240913WA0101701051041
B1843013920601N12240889WA0100701046041
B1843063920617N12240866WA0099801040039
B1843113920632N12240845WA0098601033045
B1843163920646N12240817WA0099001026036
B1843213920654N12240797WA0100301022030
B1843263920668N12240794WA0100401018042
B1843313920660N12240825WA0101201016031
B1843363920643N12240816WA0101501015035
B1843413920652N12240808WA0102001015037
B1843463920650N12240840WA0102401016038
B1843523920629N12240839WA0102901018033
B1843573920631N12240824WA0103701020037
B1844023920640N12240845WA0104001024038
B1844073920616N12240857WA0104501028034
B1844123920619N12240836WA0105201032034
B1844173920637N12240833WA0105801037039
B1844223920624N12240865WA0106401042038
B1844273920609N12240848WA0107601047031
B1844323920614N12240829WA0108001052038
B1844373920619N12240856WA0108701058042
B1844423920596N12240852WA0110001065037
B1844473920596N12240835WA0110201071040
B1844523920614N12240847WA0111101079035
B1844573920610N12240877WA0112201087033
B1845023920588N12240884WA0113301095033
B1845073920580N12240864WA0113901103036
B1845123920595N12240851WA0113801110037
B1845173920604N12240876WA0114701118033
B1845223920587N12240885WA0115701125034
B1845273920581N12240866WA0116101133037
B1845323920603N12240868WA0116201140045
B1845373920593N12240890WA0117101147025
B1845423920577N12240900WA0117901154031
B1845473920557N12240915WA0118101161033
B1845523920543N12240902WA0118401168035
B1845573920561N12240898WA0118201174035
B1846023920578N12240920WA0118701179034
B1846073920567N12240949WA0119201185033
B1846123920545N12240948WA0119401190033
B1846173920549N12240926WA0119801195038
B1846223920563N12240944WA0120301200035
B1846273920548N12240967WA0120601205034
B1846323920529N12240954WA0120801209036
B1846383920542N12240936WA0120801212039
B1846433920562N12240951WA0121601216032
B1846483920562N12240975WA0122201220034
B1846533920543N12240992WA0122801223038
B1846583920528N12240976WA0123301227030
B1847033920534N12240954WA0123001231038
B1847083920558N12240949WA0123201235034
B1847133920574N12240972WA0123801239033
B1847183920560N12241001WA0124301244033
B1847233920538N12241008WA0125001248036
B1847283920524N12240994WA0125201253037
B1847333920535N12240970WA0125101257038
B1847383920562N12240960WA0125301260038
B1847433920575N12240986WA0125101263038
B1847483920562N12241014WA0125301266037
B1847533920539N12241027WA0125701268033
B1847583920519N12241022WA0125901271031
B1848033920506N12240999WA0125501273034
B1848083920508N12240966WA0125001274033
B1848133920525N12240946WA0123801273040
B1848183920547N12240964WA0123601272032
B1848233920560N12240989WA0123801270034
B1848283920559N12241018WA0124101269033
B1848333920548N12241045WA0124701269030
B1848383920529N12241062WA0125401270035
B1848433920516N12241045WA0126201272032
B1848483920526N12241018WA0126701274031
B1848533920549N12241009WA0127101278030
B1848583920569N12241028WA0127401281037
B1849033920574N12241057WA0128101285031
B1849083920569N12241088WA0129001290032
B1849133920553N12241104WA0130101296035
B1849183920551N12241079WA0131001303039
B1849233920572N12241085WA0131901310036
B1849283920568N12241113WA0132601317036
B1849343920549N12241119WA0133401325034
B1849393920550N12241098WA0133801332040
B1849443920573N12241095WA0134601339033
B1849493920574N12241122WA0135301345032
B1849543920558N12241126WA0135301351034
B1849593920536N12241133WA0134801357036
B1850043920513N12241144WA0135101361031
B1850093920494N12241160WA0135801366031
B1850143920475N12241171WA0136001371038
B1850193920480N12241151WA0136301375031
B1850243920504N12241149WA0137001380036
B1850293920523N12241173WA0137601386032
B1850343920515N12241199WA0138101391039
B1850393920502N12241188WA0138801396036
B1850443920515N12241167WA0138601401037
B1850493920540N12241170WA0139201405036
B1850543920544N12241196WA0139901410031
B1850593920527N12241204WA0140601414035
B1851043920512N12241192WA0140901418035
B1851093920494N12241182WA0140901422031
B1851143920475N12241180WA0141401426031
B1851193920459N12241164WA0142401431031
B1851243920449N12241143WA0142901437035
B1851293920446N12241119WA0142901443034
B1851343920430N12241104WA0143701448034
B1851393920415N12241088WA0143601453034
B1851443920434N12241069WA0142901457045
B1851493920456N12241091WA0144101460027
B1851543920473N12241106WA0144101463034
B1851593920493N12241118WA0144101466034
B1852043920512N12241130WA0143901469031
B1852093920525N12241156WA0143901470030
B1852143920520N12241186WA0143901472035
B1852193920501N12241194WA0144101473035
B1852243920486N12241177WA0144201475031
B1852293920496N12241144WA0143701476033
B1852343920521N12241128WA0143301476033
B1852393920531N12241148WA0142501475038
B1852443920507N12241160WA0142201472039
B1852503920480N12241165WA0141901470040
B1852553920451N12241175WA0141101467041
B1853003920419N12241178WA0141601463039
B1853053920399N12241178WA0141901462027
B1853103920383N12241158WA0141601461043
B1853153920399N12241130WA0141701459028
B1853203920417N12241138WA0141701459028
B1853253920410N12241160WA0141501457035
B1853303920381N12241175WA0141301456041
B1853353920360N12241187WA0141901455026
B1853403920342N12241201WA0141101454040
B1853453920317N12241217WA0141301453037
B1853503920299N12241235WA0141901453027
B1853553920283N12241254WA0141501452044
B1854003920267N12241275WA0141501452035
B1854053920246N12241301WA0141701452038
B1854103920224N12241329WA0141101451042
B1854153920202N12241358WA0140501450037
B1854203920180N12241382WA0139601447036
B1854253920159N12241366WA0138901443038
B1854303920164N12241334WA0138001439040
B1854353920181N12241306WA0136901434040
B1854403920206N12241276WA0135801428046
B1854453920233N12241247WA0134701421054
B1854503920261N12241215WA0134801413035
B1854553920284N12241191WA0134401407033
B1855003920313N12241195WA0133801401038
B1855053920314N12241228WA0132601395035
B1855103920303N12241265WA0132301388036
B1855153920290N12241296WA0132401383034
B1855213920268N12241314WA0133001378034
B1855263920247N12241317WA0133401376031
B1855313920236N12241298WA0133001374034
B1855363920255N12241278WA0133201372034
B1855413920279N12241271WA0133101371035
B1855463920307N12241269WA0132601370038
B1855513920334N12241261WA0131801368040
B1855563920358N12241251WA0132101366035
B1856013920378N12241242WA0132801365036
B1856063920399N12241233WA0134101365031
B1856113920414N12241253WA0135101367040
B1856163920395N12241275WA0136201372023
B1856213920381N12241262WA0137001377035
B1856263920398N12241255WA0138701383033
B1856313920397N12241281WA0139701391033
B1856363920379N12241282WA0139901399046
B1856413920396N12241262WA0141701406025
B1856463920417N12241271WA0143001414039
B1856513920413N12241295WA0144001424037
B1856563920397N12241282WA0145001435034
B1857013920415N12241271WA0146301445036
B1857063920411N12241297WA0147101456035
B1857113920393N12241294WA0147601468031
B1857163920401N12241266WA0148301478037
B1857213920417N12241277WA0148601487035
B1857263920426N12241304WA0149901496029
B1857313920426N12241330WA0150501505033
B1857363920408N12241332WA0151301515035
B1857413920418N12241307WA0152101524033
B1857463920441N12241312WA0152901533034
B1857513920434N12241333WA0153601542030
B1857563920420N12241321WA0154101550038
B1858013920435N12241298WA0155101558040
B1858063920450N12241315WA0155301566043
B1858113920438N12241335WA0156201573032
B1858163920424N12241322WA0156301579036
B1858213920434N12241298WA0156601584039
B1858263920449N12241317WA0156901590031
B1858313920440N12241341WA0157301595039
B1858363920423N12241346WA0157801599030
B1858413920419N12241317WA0158101605038
B1858463920437N12241298WA0158401610034
B1858513920450N12241316WA0158501615033
B1858563920443N12241344WA0158801619037
B1859013920424N12241341WA0158901623032
B1859063920414N12241313WA0158601626035
B1859123920420N12241280WA0158301628036
B1859173920441N12241269WA0158101630035
B1859223920460N12241278WA0157801630039
B1859273920460N12241307WA0157801631034
B1859323920451N12241341WA0157801631036
B1859373920439N12241370WA0157701630034
B1859423920426N12241394WA0157901630030
B1859473920411N12241416WA0158401630029
B1859523920393N12241433WA0158601631037
B1859573920381N12241415WA0159101631036
B1900023920402N12241412WA0159501633038
B1900073920405N12241444WA0159501637036
B1900123920387N12241453WA0159901640034
B1900173920378N12241429WA0160501643039
B1900223920395N12241412WA0161001646037
B1900273920406N12241437WA0161101650030
B1900323920396N12241464WA0161401653035
B1900373920376N12241468WA0161701657038
B1900423920369N12241442WA0162401661036
B1900473920387N12241425WA0162501666028
B1900523920410N12241417WA0163101670032
B1900573920408N12241391WA0163301673034
B1901023920401N12241364WA0163201676039
B1901073920423N12241359WA0163001678038
B1901123920427N12241387WA0162901679039
B1901173920423N12241416WA0163301681027
B1901223920422N12241449WA0163601683038
B1901273920419N12241477WA0163701685030
B1901323920412N12241504WA0163801687034
B1901373920397N12241516WA0163501688039
B1901423920389N12241489WA0163801688031
B1901473920401N12241459WA0163801689037
B1901523920417N12241432WA0163901690032
B1901573920432N12241404WA0164101691033
B1902023920445N12241374WA0164001692035
B1902073920458N12241346WA0163701692034
B1902123920480N12241345WA0163201691037
B1902173920484N12241370WA0163101689032
B1902223920471N12241385WA0163301689028
B1902273920452N12241392WA0163601688035
B1902323920438N12241378WA0163101687035
B1902373920448N12241351WA0162601686036
B1902433920470N12241351WA0161701684035
B1902483920476N12241382WA0161601681040
B1902533920461N12241395WA0161601679035
B1902583920443N12241408WA0161701677032
B1903033920423N12241412WA0161901676035
B1903083920404N12241396WA0162001675037
B1903133920412N12241365WA0161701675035
B1903183920435N12241370WA0160601673037
B1903233920437N12241398WA0160401670037
B1903283920415N12241412WA0160701666033
B1903333920395N12241411WA0160701664034
B1903383920375N12241391WA0160501663040
B1903433920377N12241355WA0160301661032
B1903483920397N12241330WA0159401659031
B1903533920421N12241339WA0158001655038
B1903583920420N12241370WA0156901650036
B1904033920404N12241399WA0157101644028
B1904083920387N12241413WA0156801640035
B1904133920367N12241401WA0156401636035
B1904183920368N12241369WA0155701631039
B1904233920393N12241364WA0154901626037
B1904283920423N12241367WA0154201619040
B1904333920453N12241369WA0153001613042
B1904383920484N12241373WA0151901605041
B1904433920513N12241368WA0151001597042
B1904483920545N12241365WA0150201588045
B1904533920577N12241362WA0149201580048
B1904583920609N12241360WA0148201571044
B1905033920641N12241356WA0147501561046
B1905083920668N12241349WA0146501552048
B1905133920699N12241350WA0146201543036
B1905183920731N12241353WA0145301534048
B1905233920763N12241356WA0145601527038
B1905283920789N12241367WA0146101522031
B1905333920804N12241393WA0146101519034
B1905383920791N12241418WA0146501516028
B1905443920776N12241407WA0146401514035
B1905493920782N12241381WA0146601513033
B1905543920803N12241376WA0146601512031
B1905593920817N12241402WA0146201512031
B1906043920810N12241436WA0145601510036
B1906093920788N12241440WA0145601508032
B1906143920773N12241414WA0145101505040
B1906193920757N12241381WA0145601504029
B1906243920741N12241355WA0144101502042
B1906293920717N12241334WA0143301498036
B1906343920696N12241310WA0142601493036
B1906393920676N12241285WA0141901488039
B1906443920654N12241258WA0140401481043
B1906493920630N12241233WA0139401474041
B1906543920607N12241213WA0138801466040
B1906593920588N12241194WA0137401458044
B1907043920567N12241175WA0136201449040
B1907093920545N12241158WA0135301439039
B1907143920524N12241143WA0134201429042
B1907193920505N12241132WA0133601420036
B1907243920484N12241123WA0133701411040
B1907293920463N12241119WA0133801404029
B1907343920438N12241117WA0132901398043
B1907393920413N12241112WA0132401390035
B1907443920386N12241106WA0133501385033
B1907493920372N12241092WA0134801383041
B1907543920387N12241083WA0135801384037
B1907593920391N12241110WA0137001388034
B1908043920371N12241113WA0138601393034
B1908093920384N12241098WA0139801401044
B1908143920389N12241127WA0141001409043
B1908193920373N12241121WA0142801419034
B1908243920388N12241108WA0144401430042
B1908293920393N12241137WA0145201442040
B1908343920376N12241138WA0146801453040
B1908393920392N12241127WA0148401465037
B1908453920397N12241156WA0149301478036
B1908503920379N12241168WA0150601489034
B1908553920378N12241147WA0152201500039
B1909003920401N12241148WA0154301513038
B1909053920404N12241178WA0154901527038
B1909103920385N12241189WA0156001541031
B1909153920383N12241172WA0157201555042
B1909203920404N12241189WA0158501569037
B1909253920392N12241213WA0159001583037
B1909303920380N12241207WA0160201593038
B1909353920400N12241192WA0161701607039
B1909403920413N12241220WA0162401624041
B1909453920393N12241217WA0163901637030
B1909503920401N12241197WA0164601648037
B1909553920426N12241210WA0166001660038
B1910003920420N12241236WA0166901672035
B1910053920404N12241228WA0167901683032
B1910103920414N12241205WA0168701694040
B1910153920439N12241217WA0169801705036
B1910203920443N12241249WA0171201717031
B1910253920429N12241259WA0171601728034
B1910303920423N12241241WA0172101738034
B1910353920438N12241220WA0172801748032
B1910403920466N12241222WA0173901758035
B1910453920482N12241247WA0174601768036
B1910503920472N12241267WA0175201775036
B1910553920461N12241253WA0175701783031
B1911003920463N12241225WA0176101790035
B1911053920484N12241203WA0177101798036
B1911103920505N12241222WA0177301805037
B1911153920496N12241244WA0178101811030
B1911203920479N12241243WA0178501818036
B1911253920471N12241220WA0179201825032
B1911303920483N12241191WA0180001831035
B1911353920509N12241184WA0180501839036
B1911403920523N12241208WA0181001846039
B1911453920512N12241227WA0181601853032
B1911503920492N12241227WA0182101861031
B1911553920472N12241220WA0182301868034
B1912003920467N12241192WA0181601873033
B1912053920487N12241164WA0182101876035
B1912103920514N12241160WA0182301879034
B1912163920532N12241180WA0182401881034
B1912213920529N12241203WA0182701884034
B1912263920517N12241214WA0182701886033
B1912313920503N12241209WA0182001887037
B1912363920497N12241179WA0182301886037
B1912413920517N12241144WA0181301885039
B1912463920524N12241170WA0180501882041
B1912513920517N12241184WA0180401881037
B1912563920506N12241209WA0180101878038
B1913013920500N12241237WA0180101876044
B1913063920496N12241262WA0180701875038
B1913113920498N12241290WA0181301875034
B1913163920494N12241313WA0181701877038
B1913213920490N12241339WA0181901879033
B1913263920474N12241352WA0181701880040
B1913313920458N12241337WA0181801881036
B1913363920459N12241301WA0182201883033
B1913413920482N12241276WA0182001885041
B1913463920502N12241293WA0182001886037
B1913513920490N12241305WA0182301887036
B1913563920474N12241310WA0181901888038
B1914013920462N12241330WA0182201887032
B1914063920453N12241351WA0182301888041
B1914113920443N12241368WA0182501888036
B1914163920424N12241359WA0182301889034
B1914213920424N12241320WA0182701890040
B1914263920452N12241301WA0183501892034
B1914313920473N12241318WA0184101896038
B1914363920471N12241340WA0184201899038
B1914413920454N12241336WA0184101902034
B1914463920445N12241304WA0184301904045
B1914513920466N12241279WA0185001906031
B1914563920490N12241298WA0185401909040
B1915023920490N12241319WA0185501911035
B1915073920474N12241330WA0185501914035
B1915123920456N12241315WA0185801916036
B1915173920464N12241286WA0185801918037
B1915223920493N12241287WA0185701920031
B1915273920507N12241312WA0185601922039
B1915323920497N12241327WA0185801923028
B1915373920481N12241322WA0185601925037
B1915423920480N12241300WA0185301926030
B1915473920499N12241276WA0185101926039
B1915523920520N12241291WA0184501925034
B1915573920525N12241317WA0183401921040
B1916023920529N12241343WA0183001918030
B1916073920527N12241366WA0182301913032
B1916123920512N12241364WA0181601908040
B1916173920499N12241340WA0181101903033
B1916223920492N12241311WA0179601896044
B1916273920492N12241280WA0179401889034
B1916323920495N12241252WA0179001883033
B1916373920498N12241225WA0178901877032
B1916423920509N12241199WA0178301872029
B1916473920535N12241190WA0177001866039
B1916523920546N12241222WA0175901859041
B1916573920531N12241243WA0175601852029
B1917023920510N12241259WA0174401844042
B1917073920488N12241276WA0173601837039
B1917123920466N12241297WA0172801829045
B1917173920446N12241316WA0172701821039
B1917223920424N12241331WA0172601814040
B1917273920406N12241344WA0172901808041
B1917323920387N12241358WA0173101804033
B1917373920377N12241381WA0173101802032
B1917423920388N12241416WA0172701800040
B1917473920414N12241421WA0172001797034
B1917533920419N12241396WA0171001794039
B1917583920400N12241395WA0170701791032
B1918033920383N12241421WA0170301788032
B1918083920371N12241451WA0169401783036
B1918133920361N12241487WA0168701778037
B1918183920357N12241527WA0168101772035
B1918233920340N12241547WA0168001766033
B1918283920322N12241536WA0167201760040
B1918333920307N12241515WA0165501754040
B1918383920290N12241477WA0165901747036
B1918433920280N12241451WA0165701740034
B1918483920263N12241435WA0165301735036
B1918533920239N12241431WA0165301730031
B1918583920214N12241423WA0165201726030
B1919033920190N12241430WA0164401722037
B1919083920181N12241465WA0163501717035
B1919133920203N12241489WA0162501711041
B1919183920228N12241503WA0162201705036
B1919233920248N12241497WA0161801699040
B1919283920254N12241471WA0161801694039
B1919333920260N12241449WA0162001691031
B1919383920268N12241430WA0161901687030
B1919433920275N12241407WA0162201685033
B1919483920279N12241386WA0162401683034
B1919533920287N12241367WA0162401682030
B1919583920305N12241354WA0161801681041
B1920033920325N12241385WA0161801680032
B1920083920342N12241416WA0162401679036
B1920133920358N12241440WA0163501680032
B1920193920377N12241462WA0164101683025
B1920243920397N12241485WA0164701686027
B1920293920417N12241505WA0164701690031
B1920343920430N12241539WA0164301693033
B1920393920415N12241557WA0163501693036
B1920443920408N12241539WA0163001693034
B1920493920406N12241514WA0163701692030
B1920543920405N12241490WA0164201693034
B1920593920424N12241472WA0163801694038
B1921043920445N12241494WA0163601695027
B1921093920456N12241524WA0163401694032
B1921143920462N12241552WA0163501693029
B1921193920467N12241585WA0163001692031
B1921243920470N12241617WA0162801690034
B1921293920453N12241629WA0163101688037
B1921343920448N12241611WA0163501688038
B1921393920472N12241599WA0163301688037
B1921443920488N12241626WA0162401687033
B1921493920470N12241638WA0162101684036
B1921543920460N12241632WA0162301684033
B1921593920464N12241611WA0162001683034
B1922043920489N12241605WA0161601681037
B1922093920500N12241635WA0161101680033
B1922143920488N12241660WA0161301678029
B1922193920474N12241680WA0161301676030
B1922243920457N12241691WA0161201675037
B1922293920449N12241673WA0161201673033
B1922343920457N12241649WA0160801671041
B1922393920483N12241652WA0160501669043
B1922443920489N12241688WA0160601668030
B1922493920474N12241701WA0160301666034
B1922543920464N12241688WA0160401665029
B1922593920462N12241667WA0160401664034
B1923043920465N12241645WA0159901662035
B1923093920467N12241618WA0159301659046
B1923143920472N12241593WA0159001656042
B1923193920477N12241569WA0158301653039
B1923243920481N12241545WA0157601649037
B1923293920477N12241524WA0156601644039
B1923343920474N12241506WA0155201639041
B1923403920470N12241489WA0153801633032
B1923453920466N12241468WA0152101622039
B1923503920464N12241445WA0151101610042
B1923553920464N12241418WA0151201600035
B1924003920461N12241395WA0151401592040
B1924053920458N12241377WA0151801587037
B1924103920446N12241361WA0152301581040
B1924153920469N12241351WA0152901578032
B1924203920493N12241375WA0152701577042
B1924253920499N12241413WA0153301577030
B1924303920484N12241434WA0153301578038
B1924353920476N12241419WA0154001579032
B1924403920488N12241399WA0153901581038
B1924453920513N12241394WA0153601582034
B1924503920535N12241416WA0152801583042
B1924553920536N12241459WA0152301582035
B1925003920528N12241496WA0152201581039
B1925053920509N12241517WA0152401579035
B1925103920491N12241540WA0153101579029
B1925153920475N12241559WA0153201579032
B1925203920455N12241568WA0153401579030
B1925253920439N12241561WA0153301580036
B1925303920433N12241539WA0153401579040
B1925353920429N12241520WA0154101580033
B1925403920416N12241504WA0154301581041
B1925453920407N12241484WA0155101583031
B1925503920402N12241461WA0155801587032
B1925553920395N12241439WA0156801591038
B1926003920399N12241421WA0157201597038
B1926053920419N12241440WA0157501601045
B1926103920418N12241473WA0158501607030
B1926153920398N12241484WA0159001613038
B1926203920398N12241466WA0159401619040
B1926253920418N12241487WA0160201625033
B1926303920418N12241523WA0161101632034
B1926353920400N12241530WA0161601639030
B1926403920389N12241514WA0161901645032
B1926453920401N12241500WA0161901649033
B1926513920427N12241513WA0162001654029
B1926563920448N12241540WA0162501658030
B1927013920458N12241571WA0162801663031
B1927063920450N12241604WA0163401667031
B1927113920434N12241626WA0163801671028
B1927163920416N12241632WA0164001675034
B1927213920410N12241623WA0164001677030
B1927263920416N12241609WA0164501679028
B1927313920439N12241610WA0164801684038
B1927363920449N12241650WA0164901687036
B1927413920424N12241667WA0164901691038
B1927463920410N12241656WA0164801693033
B1927513920392N12241643WA0165401696031
B1927563920382N12241631WA0166001698028
B1928013920377N12241617WA0166401701029
B1928063920390N12241603WA0165901704041
B1928113920413N12241631WA0165501706030
B1928163920406N12241666WA0164901707038
B1928213920386N12241667WA0165201708028
B1928263920383N12241652WA0165701708031
B1928313920383N12241636WA0165801710030
B1928363920385N12241617WA0166501712034
B1928413920403N12241609WA0167001715045
B1928463920406N12241643WA0168101719035
B1928513920391N12241648WA0168801723045
B1928563920410N12241644WA0169601728029
B1929013920425N12241673WA0170001734034
B1929063920417N12241702WA0170801740037
B1929113920404N12241695WA0171601744034
B1929163920417N12241685WA0171801750041
B1929213920428N12241715WA0172301756035
B1929263920410N12241730WA0173001762032
B1929313920410N12241715WA0173001766038
B1929363920431N12241735WA0173401772031
B1929413920426N12241773WA0173501778038
B1929463920407N12241785WA0173801782028
B1929513920394N12241772WA0173701786035
B1929563920414N12241770WA0173701789039
B1930023920421N12241809WA0173801792037
B1930073920402N12241820WA0173901794035
B1930123920395N12241806WA0174001795033
B1930173920401N12241786WA0174001796043
B1930223920413N12241764WA0174101798039
B1930273920427N12241739WA0174201798039
B1930323920440N12241714WA0174401799031
B1930373920453N12241690WA0172801799049
B1930423920464N12241648WA0171801796047
B1930473920472N12241598WA0170501789053
B1930523920474N12241557WA0169201783050
B1930573920487N12241518WA0168301775049
B1931023920496N12241478WA0166501766051
B1931073920503N12241440WA0166401756037
B1931123920503N12241415WA0166301748036
B1931173920513N12241386WA0166901743031
E193120PEV
B1931203920517N12241368WA0167501741036
B1931213920518N12241363WA0167901740034
B1931263920531N12241348WA0169201741040
B1931313920539N12241379WA0170201743042
B1931363920525N12241372WA0171301747034
B1931413920533N12241352WA0172801754031
B1931463920556N12241355WA0173701763033
B1931513920570N12241381WA0174601771030
B1931563920557N12241405WA0175101779041
B1932013920553N12241387WA0175601786040
B1932063920571N12241375WA0176301794035
B1932113920582N12241401WA0176801801042
B1932163920563N12241402WA0177201808038
B1932213920561N12241379WA0177901815029
B1932263920562N12241355WA0178701822034
B1932313920579N12241349WA0178801828049
B1932363920577N12241379WA0179601834031
B1932413920557N12241386WA0179601840037
B1932463920549N12241361WA0180501846030
B1932513920571N12241355WA0180501852043
B1932563920600N12241357WA0181401857029
B1933013920626N12241362WA0181101862042
B1933063920656N12241365WA0180901866034
B1933113920691N12241367WA0179501866049
B1933173920732N12241368WA0178401864048
B1933223920771N12241361WA0177301860047
B1933273920811N12241360WA0176501855046
B1933323920848N12241359WA0175601849048
B1933373920887N12241354WA0174901842046
B1933423920925N12241350WA0174201835048
B1933473920962N12241346WA0173401829047
B1933523920999N12241339WA0172801822047
B1933573921037N12241333WA0172201814049
B1934023921082N12241326WA0171501806049
B1934073921120N12241326WA0170901799050
B1934123921155N12241328WA0170501792046
B1934173921192N12241329WA0170001785046
B1934223921229N12241326WA0169401779047
B1934273921264N12241330WA0168701772048
B1934323921296N12241348WA0168001765046
B1934373921328N12241370WA0167601759047
B1934423921362N12241393WA0166901752050
B1934473921395N12241414WA0167301747033
B1934523921426N12241421WA0166201743045
B1934573921466N12241420WA0165701737048
B1935023921506N12241418WA0165001731039
B1935073921541N12241414WA0163801727047
B1935123921579N12241412WA0162901719047
B1935173921617N12241410WA0162101712047
B1935223921654N12241412WA0161101703049
B1935273921693N12241413WA0160201694046
B1935323921732N12241415WA0159201685048
B1935373921772N12241416WA0158301675049
B1935423921811N12241421WA0157601666047
B1935473921852N12241422WA0157101657045
B1935523921894N12241423WA0156101649050
B1935573921937N12241432WA0156601641028
B1936023921968N12241452WA0157501637026
B1936073921990N12241482WA0159001636027
B1936123922010N12241508WA0160001638033
B1936173922035N12241502WA0160901642034
B1936223922030N12241486WA0161701645037
B1936273922016N12241508WA0163101651036
B1936323922034N12241537WA0164101659037
B1936373922044N12241522WA0165101666034
B1936423922028N12241530WA0165901673036
B1936483922034N12241568WA0166901682032
B1936533922057N12241582WA0167401691031
B1936583922074N12241569WA0168001699030
E193658PEV
B1936583922074N12241569WA0168001699030
B1936593922076N12241565WA0168201701031
B1937043922082N12241544WA0169201708034
B1937093922066N12241553WA0169601715037
B1937143922074N12241589WA0170601724030
B1937193922096N12241607WA0170401733039
B1937243922117N12241589WA0171401741029
B1937293922116N12241570WA0171801746033
B1937343922109N12241552WA0173001752030
B1937393922095N12241559WA0173801759039
B1937443922112N12241590WA0174201768037
B1937493922134N12241582WA0174701775032
B1937543922136N12241558WA0175401782033
B1937593922131N12241537WA0177001790031
B1938043922118N12241526WA0178501799034
B1938093922118N12241554WA0179301810040
B1938143922142N12241553WA0180701820033
B1938193922141N12241530WA0181801830038
B1938243922129N12241547WA0182701841035
B1938293922150N12241562WA0183701851037
B1938343922158N12241542WA0184701862037
B1938393922143N12241552WA0185501873033
B1938443922156N12241578WA0186001883033
B1938493922181N12241570WA0187401893034
B1938543922180N12241547WA0188501905036
B1938593922166N12241561WA0188901917037
B1939043922183N12241585WA0189501927035
B1939093922204N12241569WA0190801935032
B1939143922203N12241543WA0192201945028
B1939193922195N12241521WA0192801956039
B1939243922185N12241541WA0193001965032
B1939293922205N12241560WA0193601973032
B1939343922227N12241560WA0194201981035
B1939393922219N12241533WA0194901987038
B1939443922211N12241511WA0195101994036
B1939493922197N12241485WA0195702001031
B1939543922187N12241460WA0195702007040
B1939593922178N12241431WA0196102012040
B1940043922167N12241403WA0195802017046
B1940093922152N12241375WA0195702021036
B1940143922137N12241342WA0194902022054
B1940193922117N12241314WA0194302022052
B1940253922094N12241287WA0193302021047
B1940303922069N12241258WA0191902016052
B1940353922046N12241226WA0191202011050
B1940403922021N12241193WA0190202004048
B1940453921997N12241161WA0189101997050
B1940503921973N12241126WA0187301988052
B1940553921949N12241088WA0185801978047
B1941003921924N12241051WA0184301966050
B1941053921895N12241016WA0182601954050
B1941103921867N12240983WA0180601940053
B1941153921832N12240942WA0179301922049
B1941203921805N12240911WA0177901907050
B1941253921777N12240873WA0176701893052
B1941303921748N12240837WA0175501879052
B1941353921717N12240806WA0174501865050
B1941403921689N12240774WA0173501852049
B1941453921657N12240747WA0172301840050
B1941503921630N12240715WA0172201828043
B1941553921611N12240685WA0172001819041
B1942003921592N12240652WA0171701811041
B1942053921571N12240619WA0171101803041
B1942103921550N12240584WA0170501796045
B1942153921529N12240548WA0169701788046
B1942203921508N12240512WA0169001781043
B1942253921486N12240475WA0168701773042
B1942303921466N12240441WA0168501767047
B1942353921446N12240408WA0168201762043
B1942403921424N12240377WA0167701756044
B1942453921402N12240349WA0167401751045
B1942503921380N12240321WA0167001746045
B1942553921357N12240295WA0166701742043
B1943003921332N12240269WA0166301737043
B1943053921308N12240243WA0165501732045
B1943103921285N12240217WA0165301727044
B1943153921263N12240194WA0164701722043
B1943203921239N12240173WA0164201717043
B1943253921216N12240149WA0163501712044
B1943303921191N12240126WA0162801706044
B1943353921166N12240106WA0162301700044
B1943403921142N12240087WA0161701694044
B1943453921118N12240066WA0161201689044
B1943503921095N12240046WA0160801683043
B1943553921070N12240024WA0160101677044
B1944003921046N12240001WA0159301671046
E194404PEV
B1944043921032N12239987WA0159101668042
B1944053921028N12239982WA0159101666040
B1944103921009N12239977WA0157801661044
B1944153920994N12240008WA0157201654047
B1944203920978N12240040WA0156501647046
B1944253920961N12240070WA0155901640047
B1944303920946N12240099WA0155101633047
B1944353920930N12240131WA0154301626045
B1944403920914N12240179WA0153401617047
B1944453920898N12240217WA0153401610042
B1944503920882N12240248WA0153001604040
B1944553920868N12240279WA0153201599037
B1945003920855N12240307WA0153201595037
B1945053920844N12240336WA0153801592035
B1945103920832N12240357WA0153401590040
B1945153920815N12240381WA0152901588036
B1945203920796N12240413WA0152301585050
B1945253920782N12240444WA0151901581044
B1945303920766N12240479WA0151601578044
B1945353920747N12240507WA0150701573050
B1945403920724N12240538WA0150001568043
B1945453920707N12240570WA0148501562053
B1945503920695N12240606WA0147501554046
B1945553920684N12240643WA0146201546045
B1946003920670N12240680WA0145101536047
B1946053920652N12240717WA0144201526049
B1946103920634N12240753WA0143401517044
B1946153920616N12240794WA0142101507046
B1946203920598N12240838WA0140901497050
B1946253920581N12240888WA0140701486039
E194627PEV
B1946273920576N12240904WA0140701483033
B1946283920574N12240911WA0140501481031
B1946333920563N12240950WA0140001473035
B1946383920554N12240989WA0139301465041
B1946443920536N12241023WA0139701459027
B1946493920522N12241052WA0140001454027
B1946543920505N12241081WA0140101450033
B1946593920491N12241115WA0140801448034
B1947043920473N12241143WA0141801448030
B1947093920458N12241170WA0141401450037
B1947143920479N12241186WA0142201450033
B1947193920499N12241185WA0143501453032
B1947243920505N12241173WA0144501456038
B1947293920483N12241172WA0145201462038
B1947343920478N12241210WA0146201470033
B1947393920493N12241203WA0147001477040
B1947443920476N12241193WA0147501484038
B1947493920459N12241216WA0148501491029
B1947543920465N12241238WA0148801498039
B1947593920481N12241223WA0149501505040
B1948043920470N12241204WA0149901512034
B1948093920454N12241220WA0150201518035
B1948143920464N12241241WA0150501524035
B1948193920480N12241233WA0151101530034
B1948243920476N12241214WA0151401534034
B1948293920456N12241210WA0151801539037
B1948343920446N12241230WA0152301544033
B1948393920458N12241247WA0152701549034
B1948443920473N12241228WA0153201554034
B1948493920468N12241206WA0153301559033
B1948543920448N12241209WA0153301563037
B1948593920447N12241237WA0153501567028
B1949043920466N12241251WA0153701570033
B1949093920486N12241243WA0153501573029
B1949143920494N12241223WA0153101574030
B1949193920500N12241201WA0152901575038
B1949243920509N12241175WA0152601574038
B1949293920521N12241147WA0152201573042
B1949343920532N12241118WA0152001572038
B1949393920539N12241088WA0150201569048
B1949443920548N12241049WA0149301563042
B1949493920556N12241011WA0147701557050
B1949553920567N12240971WA0146401548047
B1950003920580N12240931WA0145301539050
B1950053920596N12240899WA0144201530048
B1950103920610N12240863WA0143301520045
B1950153920623N12240831WA0141701511049
B1950203920637N12240796WA0140101499048
B1950253920655N12240752WA0138501484050
B1950303920670N12240712WA0138401472043
B1950353920679N12240686WA0138001462040
B1950403920695N12240661WA0138301453028
B1950453920709N12240639WA0138201446036
B1950503920721N12240606WA0137801440043
B1950553920730N12240571WA0137801435044
B1951003920739N12240538WA0137501430037
B1951053920748N12240512WA0136701425035
B1951103920758N12240480WA0135901419039
B1951153920768N12240456WA0135301413041
B1951203920789N12240460WA0134001407040
B1951253920812N12240468WA0132801399039
B1951303920820N12240495WA0131601391041
B1951353920800N12240524WA0131001383040
B1951403920777N12240554WA0130201375036
B1951453920754N12240584WA0128901366042
B1951503920726N12240616WA0128201357046
B1951553920700N12240646WA0127801348051
B1952003920672N12240678WA0127001340049
B1952053920645N12240711WA0126301332045
B1952103920621N12240748WA0125501324045
B1952153920600N12240790WA0125101316046
B1952203920583N12240832WA0124701309044
B1952253920569N12240876WA0124001302051
B1952303920552N12240917WA0123601295039
B1952353920537N12240953WA0122101287047
B1952413920524N12240987WA0122301280033
B1952463920512N12241016WA0122401274033
B1952513920496N12241037WA0122301269031
B1952563920481N12241059WA0122701265028
B1953013920465N12241082WA0123001263028
B1953063920442N12241092WA0122701261038
B1953113920434N12241074WA0122601260033
B1953163920451N12241065WA0122801258030
B1953213920473N12241070WA0122901258037
B1953263920501N12241068WA0122901257032
B1953313920509N12241045WA0123101257035
B1953363920504N12241022WA0123301257031
B1953413920492N12240994WA0122201256038
B1953463920478N12240960WA0120801252052
B1953513920461N12240924WA0120101248044
B1953563920443N12240888WA0119701242048
B1954013920426N12240865WA0120601239031
B1954063920412N12240842WA0121001237034
B1954113920403N12240820WA0121701237035
B1954163920395N12240797WA0123101239024
B1954213920386N12240776WA0123901242034
B1954263920379N12240750WA0124801247028
B1954313920388N12240733WA0125501252033
B1954363920408N12240753WA0126601259033
B1954413920395N12240785WA0127301266039
B1954463920370N12240779WA0128301273032
B1954513920365N12240752WA0129601282034
B1954563920382N12240734WA0130801291035
B1955013920401N12240749WA0131501300037
B1955063920388N12240775WA0132301309041
B1955113920370N12240763WA0133801318026
B1955163920380N12240743WA0134401328041
B1955213920388N12240767WA0134901337038
B1955263920374N12240793WA0136301347027
B1955313920362N12240821WA0137201357036
B1955363920345N12240815WA0138401367041
B1955413920365N12240811WA0139901377030
B1955463920382N12240828WA0140601389028
B1955513920388N12240860WA0141401399035
B1955563920367N12240879WA0142301409037
B1956013920353N12240864WA0142901418032
B1956063920357N12240840WA0143901428030
B1956113920363N12240817WA0144601438036
B1956173920383N12240828WA0144601446035
B1956223920385N12240862WA0145101455033
B1956273920385N12240895WA0145801463031
B1956323920386N12240927WA0146101470033
B1956373920392N12240963WA0147101477028
B1956423920399N12240988WA0147701485034
B1956473920408N12241016WA0148501492030
B1956523920421N12241045WA0149101499033
B1956573920436N12241075WA0149901506032
B1957023920448N12241114WA0150701515032
B1957073920435N12241134WA0151001521042
B1957123920422N12241122WA0152401526027
B1957173920415N12241102WA0153701535032
B1957223920425N12241079WA0154601545038
B1957273920449N12241091WA0155901555032
B1957323920459N12241119WA0156601565035
B1957373920444N12241130WA0157201574036
B1957423920433N12241115WA0158501581029
B1957473920426N12241096WA0159301593032
B1957523920430N12241070WA0159801603032
B1957573920454N12241066WA0159401611046
B1958023920464N12241099WA0160801620021
B1958073920470N12241129WA0161201628030
B1958123920481N12241159WA0161901635032
B1958173920496N12241189WA0162501643032
B1958223920505N12241226WA0163101650037
B1958273920490N12241235WA0163601657039
B1958323920488N12241216WA0164801661030
B1958373920486N12241196WA0165601668030
B1958423920477N12241180WA0165501674033
B1958473920462N12241172WA0166201682032
B1958523920451N12241156WA0167301690033
B1958573920456N12241133WA0168301698041
B1959023920476N12241151WA0169001706029
B1959073920468N12241175WA0170001714035
B1959123920451N12241180WA0170901723037
B1959173920453N12241157WA0172001732037
B1959223920475N12241162WA0173101742034
B1959273920485N12241191WA0174101752034
B1959323920470N12241198WA0175001761034
B1959373920465N12241174WA0176001772038
B1959423920488N12241158WA0176701782037
B1959473920510N12241183WA0177201792036
B1959523920499N12241208WA0177401801041
B1959573920493N12241186WA0178501809035
B2000023920522N12241180WA0178801817042
B2000083920557N12241181WA0177901823040
B2000133920596N12241180WA0176501826050
B2000183920637N12241178WA0175301826049
B2000233920677N12241179WA0174201823047
B2000283920700N12241180WA0173001819051
B2000333920754N12241183WA0172001814049
B2000383920800N12241185WA0171101805048
B2000433920836N12241183WA0170101798049
B2000483920871N12241181WA0169101790048
B2000533920908N12241183WA0168201782047
B2000583920944N12241191WA0167401773053
B2001033920978N12241202WA0166501765048
B2001083921014N12241212WA0165801756047
B2001133921047N12241221WA0164901748049
B2001183921081N12241231WA0164201739044
B2001233921118N12241240WA0163101730050
B2001283921157N12241246WA0162301721048
B2001333921196N12241248WA0161701712048
B2001383921235N12241251WA0161101703049
B2001433921272N12241257WA0160401695050
B2001483921309N12241258WA0159501687045
B2001533921346N12241258WA0158001678047
B2001583921384N12241257WA0156601668054
B2002033921422N12241261WA0155501657043
B2002083921460N12241265WA0154501646047
B2002133921496N12241267WA0153301636050
B2002183921535N12241268WA0152401624047
B2002233921573N12241274WA0151401614047
B2002283921611N12241279WA0150401603050
B2002333921647N12241278WA0149001592049
B2002383921686N12241279WA0147701581048
B2002433921724N12241284WA0146801569045
B2002483921762N12241292WA0145601557052
B2002543921801N12241300WA0145001545042
B2002593921839N12241307WA0144001534045
B2003043921877N12241319WA0143801524040
B2003093921911N12241331WA0143601515034
B2003143921943N12241342WA0143101507038
B2003193921977N12241349WA0142901500033
B2003243922014N12241359WA0142301493034
B2003293922049N12241369WA0142301487035
B2003343922078N12241377WA0142001481037
B2003393922107N12241383WA0143401478024
B2003443922134N12241398WA0144101478031
B2003493922147N12241386WA0142901477041
B2003543922130N12241376WA0142301475032
B2003593922114N12241367WA0141501472041
B2004043922096N12241351WA0140901468036
B2004093922081N12241332WA0140701463036
B2004143922078N12241310WA0139801459037
B2004193922089N12241285WA0139301454036
B2004243922116N12241276WA0138801449037
B2004293922147N12241274WA0138601444037
B2004343922178N12241273WA0137801440040
B2004393922213N12241273WA0137401435035
B2004443922242N12241275WA0137701430031
B2004493922264N12241299WA0138101427030
B2004543922285N12241327WA0137901425035
B2004593922303N12241357WA0138801423027
B2005043922321N12241391WA0139401424038
B2005093922334N12241423WA0139801426031
B2005143922345N12241457WA0139901428032
B2005193922359N12241487WA0140401430028
B2005243922371N12241518WA0141001433030
B2005293922384N12241551WA0141501436031
B2005343922396N12241586WA0142301440028
B2005393922405N12241621WA0142101444034
B2005443922418N12241616WA0141401446039
B2005493922404N12241597WA0141501447033
B2005543922397N12241577WA0141801448030
B2005593922392N12241561WA0142301449035
B2006053922391N12241546WA0142901451028
B2006103922385N12241533WA0143101453032
B2006153922368N12241530WA0143001456035
B2006203922366N12241515WA0143501458036
B2006253922383N12241530WA0143801461033
B2006303922392N12241565WA0144001464030
B2006353922411N12241587WA0144401466036
B2006403922422N12241574WA0144501468035
B2006453922404N12241567WA0144901471035
B2006503922391N12241608WA0145001475032
B2006553922410N12241633WA0145201479035
B2007003922421N12241618WA0145601481030
B2007053922420N12241599WA0145901483032
B2007103922414N12241582WA0145901486031
B2007153922394N12241580WA0146101489034
B2007203922383N12241615WA0146201492034
B2007253922398N12241645WA0146301494040
B2007303922414N12241638WA0146901496029
B2007353922421N12241620WA0146901498032
B2007403922422N12241602WA0146801499031
B2007453922410N12241590WA0147301501031
B2007503922399N12241582WA0147601502030
B2007553922386N12241571WA0147401505039
B2008003922370N12241553WA0147601507028
B2008053922355N12241535WA0146401508046
B2008103922337N12241518WA0145801507036
B2008153922319N12241498WA0144901504037
B2008203922297N12241477WA0144201500044
B2008253922277N12241460WA0144201496038
B2008303922257N12241447WA0144401493032
B2008353922237N12241436WA0144601491036
B2008403922215N12241429WA0145101489033
B2008453922196N12241424WA0146001490028
B2008503922179N12241413WA0146801491032
B2008553922162N12241405WA0147801494031
B2009003922149N12241395WA0149101498027
B2009053922137N12241392WA0149601503034
B2009103922120N12241393WA0150601510033
B2009163922104N12241386WA0151401517032
B2009213922090N12241373WA0152201525037
B2009263922101N12241349WA0153101533041
B2009313922116N12241368WA0154201540029
B2009363922106N12241388WA0154801549037
B2009413922093N12241374WA0155501557027
B2009463922084N12241355WA0156401566031
B2009513922086N12241329WA0157101575038
B2009563922109N12241338WA0157901583036
B2010013922103N12241357WA0158001591040
B2010063922084N12241340WA0158901600035
B2010113922104N12241331WA0159501608040
B2010163922124N12241353WA0160601615032
B2010213922140N12241378WA0161901624030
B2010263922153N12241405WA0162901634029
B2010313922162N12241432WA0163101644037
B2010363922148N12241439WA0163201652037
B2010413922147N12241413WA0163401659037
B2010463922164N12241392WA0164101666027
B2010513922189N12241376WA0164801673033
B2010563922211N12241392WA0165501680033
B2011013922220N12241422WA0166001687028
B2011063922227N12241454WA0166301694029
B2011113922240N12241486WA0166201700034
B2011163922263N12241517WA0166501704032
B2011213922286N12241545WA0166601708036
B2011263922314N12241570WA0167101712031
B2011313922341N12241585WA0166901715039
B2011363922366N12241569WA0167901718030
B2011413922370N12241545WA0168501722032
B2011463922365N12241525WA0169201726033
B2011513922356N12241512WA0170001729029
B2011563922347N12241501WA0170401732031
B2012013922333N12241502WA0170801736031
B2012063922320N12241513WA0170701741035
B2012113922306N12241517WA0171201745033
B2012163922300N12241499WA0171901750031
B2012213922298N12241476WA0172301756034
B2012263922319N12241456WA0171901761034
B2012313922342N12241477WA0172201764030
B2012373922352N12241506WA0172501767033
B2012423922356N12241539WA0173401771029
B2012473922364N12241571WA0174101776032
B2012523922389N12241594WA0174901781034
B2012573922408N12241579WA0175701787035
B2013023922398N12241577WA0176501791036
B2013073922399N12241607WA0177101798030
B2013123922405N12241643WA0177401806027
B2013173922413N12241684WA0177301811037
B2013223922438N12241712WA0177301816026
B2013273922463N12241711WA0177001819035
B2013323922478N12241683WA0177501824037
B2013373922463N12241674WA0178201827034
B2013423922451N12241661WA0178801831041
B2013473922467N12241646WA0179701836042
B2013523922487N12241673WA0180401843037
B2013573922477N12241694WA0181001849032
B2014023922468N12241685WA0181601853034
B2014073922491N12241676WA0181801859042
B2014123922504N12241708WA0182201864035
B2014173922489N12241730WA0182101869035
B2014223922470N12241725WA0182401873038
B2014273922474N12241707WA0183401875027
B2014323922498N12241704WA0183801881039
B2014373922514N12241739WA0184401887033
B2014423922496N12241753WA0184301892034
B2014473922485N12241739WA0184701896036
B2014523922487N12241718WA0184901900037
B2014573922492N12241698WA0185301903037
B2015023922503N12241682WA0185401908035
B2015073922516N12241658WA0185701911033
B2015123922531N12241633WA0186301915033
B2015173922545N12241604WA0186601919032
B2015223922551N12241573WA0186601922035
B2015273922545N12241556WA0186501924030
B2015323922534N12241553WA0186501925034
B2015373922523N12241560WA0186901926031
B2015423922519N12241580WA0187501929030
B2015473922524N12241607WA0187701933030
B2015523922542N12241635WA0187601936034
B2015573922572N12241639WA0187301938034
B2016023922608N12241629WA0187101939038
B2016073922614N12241602WA0186901939034
B2016123922606N12241586WA0187201939035
B2016173922597N12241575WA0187801940031
B2016233922587N12241575WA0188401941035
B2016283922578N12241583WA0188901943040
B2016333922600N12241600WA0188601946036
B2016383922627N12241575WA0188301948036
B2016433922632N12241542WA0188201949032
B2016483922621N12241536WA0188101950036
B2016533922611N12241546WA0189001950028
B2016583922606N12241561WA0189701951029
B2017033922604N12241581WA0190101954033
B2017083922595N12241593WA0190701956034
B2017133922582N12241603WA0191301960035
B2017183922598N12241632WA0191401966044
B2017233922624N12241616WA0191301970036
B2017283922636N12241582WA0191301974039
B2017333922623N12241569WA0191601977038
B2017383922613N12241588WA0192101980029
B2017433922613N12241616WA0192601984033
B2017483922639N12241634WA0192001986033
B2017533922666N12241643WA0191801988029
B2017583922695N12241635WA0191901988031
B2018033922722N12241623WA0191801989035
B2018083922756N12241604WA0191601989041
B2018133922791N12241585WA0189901987046
B2018183922830N12241566WA0188101983046
B2018233922870N12241552WA0186201975049
B2018283922908N12241535WA0185301966043
B2018333922940N12241520WA0185301958026
B2018383922970N12241507WA0184401950051
B2018433922999N12241496WA0184201943037
B2018483923029N12241480WA0183501936044
B2018533923057N12241467WA0182801929045
B2018583923091N12241456WA0182101922045
B2019043923127N12241442WA0181201914046
B2019093923159N12241422WA0180201906049
B2019143923193N12241403WA0179601898046
B2019193923228N12241387WA0178901891049
B2019243923264N12241374WA0178401883043
B2019293923300N12241359WA0177201875049
B2019343923341N12241340WA0176001865048
B2019393923378N12241324WA0174801855049
B2019443923415N12241309WA0173901845050
B2019493923450N12241297WA0173201835050
B2019543923485N12241285WA0172501826047
B2019593923519N12241269WA0172001817048
B2020043923548N12241253WA0171101809047
B2020093923578N12241242WA0170301800049
B2020143923607N12241230WA0169601792046
B2020193923635N12241214WA0168801783047
B2020243923663N12241200WA0167701775052
B2020293923694N12241191WA0166501765050
B2020343923728N12241178WA0165401755048
B2020393923760N12241167WA0164101745046
B2020443923795N12241156WA0162501734049
B2020493923827N12241144WA0160701722053
B2020543923858N12241130WA0160001709042
B2020593923883N12241124WA0159201698041
B2021043923909N12241109WA0157601686048
B2021093923942N12241095WA0156801674045
B2021143923974N12241083WA0156001662050
B2021193924005N12241067WA0154901651046
B2021253924037N12241051WA0153701640050
B2021303924068N12241034WA0152601628050
B2021353924095N12241016WA0151301616045
B2021403924124N12240999WA0149901604047
B2021453924152N12240987WA0148601590049
B2021503924181N12240974WA0147201576048
B2021553924210N12240961WA0146101562048
B2022003924241N12240947WA0145001549046
B2022053924275N12240929WA0143601533049
B2022103924306N12240914WA0142401520046
B2022153924339N12240900WA0141501507047
B2022203924371N12240886WA0140601495049
B2022253924403N12240875WA0140001484047
B2022303924435N12240865WA0139901474040
B2022353924463N12240859WA0139901466032
B2022403924489N12240852WA0139501460036
B2022453924515N12240846WA0139501454034
B2022503924536N12240832WA0139101449035
B2022553924558N12240814WA0138601443040
B2023003924584N12240797WA0138401439037
B2023053924608N12240784WA0138501436033
B2023103924629N12240769WA0138301433041
B2023153924649N12240750WA0137801429039
B2023203924669N12240727WA0137301426035
E202324PEV
B2023243924684N12240706WA0136901422042
B2023253924687N12240699WA0137001421043
B2023303924695N12240673WA0137901418026
B2023353924701N12240650WA0138101417030
B2023403924692N12240637WA0137001416036
B2023453924685N12240670WA0137101414028
B2023503924691N12240706WA0137801413032
B2023553924680N12240732WA0138101414039
B2024003924682N12240718WA0139001415034
B2024053924705N12240719WA0139601419029
B2024103924717N12240700WA0140101422034
B2024153924704N12240689WA0140301424028
B2024213924690N12240712WA0140401427044
B2024263924703N12240744WA0141101431028
B2024313924708N12240779WA0141701436040
B2024363924694N12240775WA0142601440027
B2024413924708N12240758WA0142601444034
B2024463924731N12240750WA0143001449030
B2024513924749N12240736WA0143201453031
B2024563924762N12240718WA0143201457033
B2025013924744N12240714WA0142801460041
B2025063924742N12240751WA0143001463028
B2025113924739N12240786WA0142501465034
B2025163924717N12240782WA0142901466037
B2025213924709N12240765WA0143701467031
B2025263924705N12240748WA0143901468036
B2025313924723N12240741WA0143801470039
B2025363924719N12240773WA0144201472038
B2025413924707N12240771WA0144601474026
B2025463924719N12240758WA0144401476036
B2025513924731N12240791WA0144301480040
B2025563924718N12240795WA0144301481036
B2026013924730N12240776WA0144501484034
B2026063924740N12240755WA0144901486034
B2026113924751N12240735WA0143901488043
B2026163924755N12240707WA0143601488034
B2026213924762N12240678WA0144201488028
B2026263924770N12240653WA0144301488033
B2026313924779N12240623WA0143501488039
B2026363924790N12240585WA0143401487034
B2026413924800N12240554WA0143301486036
B2026463924808N12240526WA0143301484033
B2026513924813N12240493WA0143201483032
B2026563924817N12240458WA0142701481039
B2027013924820N12240424WA0143001479028
B2027063924824N12240394WA0143101478033
B2027113924828N12240363WA0142901477033
B2027163924833N12240326WA0142401475039
B2027213924839N12240288WA0142801473038
B2027263924846N12240258WA0143301472035
B2027313924831N12240252WA0143501472024
B2027363924820N12240263WA0143001472033
B2027423924829N12240285WA0142901472031
B2027473924831N12240310WA0142801471031
B2027523924829N12240332WA0142601471036
B2027573924824N12240357WA0142501470033
B2028023924821N12240381WA0142301469036
B2028073924818N12240410WA0141801467029
B2028123924814N12240444WA0141901466030
B2028173924815N12240473WA0141501465031
B2028223924814N12240500WA0141201463034
B2028273924805N12240524WA0141101461035
B2028323924795N12240548WA0141101459029
B2028373924781N12240569WA0140801457040
B2028423924768N12240586WA0141001456029
B2028473924754N12240608WA0140601455036
B2028523924736N12240630WA0140001453035
B2028573924714N12240652WA0139001450039
B2029023924686N12240671WA0137901445049
B2029073924656N12240683WA0138301440032
B2029123924632N12240691WA0138701437028
B2029173924617N12240713WA0138801434041
B2029223924635N12240721WA0139001433030
B2029273924638N12240698WA0139301432037
B2029323924621N12240703WA0139201433037
B2029373924634N12240728WA0139601433030
B2029423924654N12240727WA0139801435032
B2029473924654N12240701WA0140101435033
B2029523924637N12240715WA0139801436037
B2029573924653N12240738WA0140101437035
B2030023924670N12240725WA0140601437033
B2030073924664N12240703WA0140601439035
B2030123924649N12240721WA0140101439033
B2030173924666N12240746WA0140701439031
B2030223924687N12240748WA0141001440037
B2030273924689N12240727WA0141701442031
B2030333924677N12240746WA0141701444038
B2030383924695N12240758WA0142401446025
B2030433924713N12240745WA0143201449036
B2030483924702N12240735WA0143601452039
B2030533924710N12240763WA0144201456038
B2030583924721N12240748WA0144901460038
B2031033924705N12240750WA0145201464039
B2031083924712N12240781WA0146001470032
B2031133924728N12240772WA0146801477033
B2031183924716N12240756WA0147801485032
B2031233924707N12240782WA0148301492037
B2031283924726N12240790WA0148801500039
B2031333924727N12240768WA0150001506025
B2031383924710N12240768WA0150001512040
B2031433924711N12240801WA0150301519039
B2031483924732N12240799WA0151101524035
B2031533924744N12240781WA0151401530035
B2031583924734N12240761WA0152801536033
B2032033924721N12240780WA0153201542038
B2032083924739N12240796WA0153901548037
B2032133924738N12240777WA0154901555037
B2032183924729N12240802WA0155301562039
B2032233924747N12240817WA0156101569035
B2032283924766N12240808WA0156901577035
B2032333924755N12240792WA0157701585037
B2032383924744N12240820WA0158101593037
B2032433924764N12240838WA0159001600035
B2032483924778N12240824WA0159801609036
B2032533924765N12240810WA0160701618031
B2032583924747N12240833WA0161001626036
B2033033924762N12240858WA0161301632035
B2033083924775N12240843WA0162301638032
B2033133924771N12240825WA0162701644041
B2033183924754N12240845WA0163001651043
B2033233924770N12240871WA0163301657031
B2033283924796N12240885WA0164101663032
B2033333924817N12240878WA0165301669033
B2033383924827N12240857WA0166501677029
B2033433924810N12240843WA0166901685042
B2033483924801N12240873WA0167501692036
B2033533924822N12240889WA0168501700034
B2033583924839N12240874WA0169501708028
B2034033924833N12240854WA0169401716040
B2034083924812N12240868WA0170201724037
B2034133924828N12240890WA0171301732038
B2034183924830N12240870WA0171901740037
B2034233924807N12240866WA0172601749037
B2034283924799N12240902WA0173201757031
B2034333924819N12240927WA0173901764030
B2034393924844N12240935WA0175001772030
B2034443924865N12240930WA0175501780034
B2034493924871N12240907WA0175901787031
B2034543924862N12240884WA0176201793037
B2034593924840N12240880WA0177001799034
B2035043924830N12240911WA0177401805039
B2035093924852N12240936WA0178201812032
B2035143924877N12240936WA0178501819035
B2035193924893N12240916WA0179601825037
B2035243924905N12240893WA0180801834038
B2035293924893N12240883WA0181701843040
B2035343924874N12240908WA0182501851026
B2035393924861N12240936WA0183001859038
B2035443924872N12240960WA0183901867030
B2035493924891N12240953WA0184901875033
B2035543924902N12240939WA0186101883031
B2035593924888N12240927WA0187301892034
B2036043924874N12240958WA0187701901034
B2036093924891N12240988WA0188501910031
B2036143924916N12240995WA0189501919034
B2036193924940N12240996WA0191101929034
B2036243924958N12240985WA0192501940044
B2036293924948N12240966WA0193701951025
B2036343924927N12240959WA0194401962037
B2036393924915N12240986WA0195201973036
B2036443924922N12241015WA0196601984030
B2036493924944N12241019WA0197501995033
B2036543924965N12241007WA0199102007029
B2036593924977N12240985WA0200502019036
B2037043924964N12240966WA0202602032033
B2037093924943N12240974WA0203202046034
B2037143924945N12241003WA0205002058031
B2037193924965N12241006WA0206502073035
B2037243924988N12240999WA0208602088029
B2037293925007N12240999WA0209602104039
B2037343925005N12240982WA0210902117034
B2037393924985N12241000WA0212102133040
B2037443924999N12241019WA0213302148039
B2037493924993N12241004WA0214102162043
B2037543924971N12241022WA0215302176036
B2037593924975N12241051WA0216702189039
B2038043924991N12241036WA0217802202038
B2038093924972N12241021WA0218702213036
B2038143924958N12241044WA0219202225033
B2038193924969N12241068WA0220002235037
B2038243924984N12241063WA0221102246036
B2038293924981N12241034WA0221902256033
B2038343924974N12241003WA0222602266042
B2038403924953N12241005WA0223502276035
B2038453924954N12241030WA0224302286026
B2038503924965N12241047WA0224102295039
B2038553924982N12241041WA0224702303031
B2039003924990N12241022WA0224902311031
B2039053924983N12241001WA0225202318042
B2039103924958N12241002WA0226302324030
B2039153924939N12241000WA0226502331038
B2039203924912N12240997WA0226202336041
B2039253924877N12240997WA0226602341036
B2039303924846N12240997WA0225302343056
B2039353924809N12240995WA0224802342040
B2039403924774N12241001WA0224102341049
B2039453924745N12241008WA0223502338046
B2039503924708N12241013WA0222902335047
B2039553924671N12241019WA0222102331050
B2040003924638N12241030WA0221502326051
B2040053924603N12241040WA0221202321046
B2040103924571N12241048WA0220702316051
B2040153924538N12241058WA0220302311049
B2040203924502N12241069WA0220102307047
B2040253924468N12241077WA0219602302049
B2040303924431N12241082WA0219302297049
B2040353924396N12241088WA0219402293036
B2040403924364N12241091WA0219102289044
B2040453924331N12241095WA0218902286044
B2040503924300N12241099WA0219102284033
B2040553924270N12241101WA0218802283045
B2041003924238N12241108WA0218502281043
B2041053924205N12241115WA0218402279039
B2041103924173N12241123WA0218202277041
B2041153924143N12241136WA0218002275041
B2041203924111N12241149WA0218002273041
B2041253924078N12241158WA0217802271042
B2041313924045N12241167WA0217502268043
B2041363924013N12241177WA0217102266041
B2041413923982N12241186WA0216502263042
B2041463923951N12241195WA0215902260042
B2041513923919N12241201WA0215202256043
B2041563923888N12241208WA0214502251043
B2042013923853N12241215WA0213702246048
B2042063923818N12241221WA0213002241049
B2042113923783N12241226WA0212102234049
B2042163923738N12241229WA0211602226044
B2042213923703N12241230WA0210602219050
B2042263923665N12241229WA0209502211049
B2042313923626N12241233WA0208802203047
B2042363923588N12241237WA0208102195051
B2042413923552N12241240WA0207502187046
B2042463923518N12241243WA0206202178052
B2042513923485N12241246WA0205202169051
B2042563923450N12241248WA0204402160049
B2043013923416N12241251WA0203602151049
B2043063923382N12241251WA0202802142050
B2043113923350N12241250WA0202202133048
B2043163923319N12241254WA0201202124052
B2043213923287N12241257WA0200602115048
B2043263923253N12241263WA0200002106051
B2043313923222N12241270WA0199302098053
B2043363923189N12241281WA0198502090049
B2043413923155N12241292WA0197802081050
B2043463923123N12241302WA0197202073051
B2043513923090N12241313WA0196602066048
B2043563923060N12241324WA0195702058049
B2044013923027N12241332WA0195202050050
B2044063922997N12241339WA0194502043050
B2044113922965N12241348WA0193702035047
B2044163922933N12241358WA0192702027052
B2044213922905N12241375WA0191602019046
B2044263922876N12241392WA0190702010047
B2044313922852N12241409WA0189302000050
B2044363922826N12241423WA0187901990048
B2044413922794N12241438WA0186901979045
B2044463922759N12241455WA0186101968051
B2044513922724N12241471WA0185401958049
B2044573922688N12241491WA0184701949048
B2045023922651N12241508WA0184001939050
B2045073922618N12241525WA0183001930047
B2045123922590N12241545WA0181601920051
B2045173922561N12241566WA0180101910048
B2045223922531N12241589WA0179101899049
B2045273922498N12241612WA0178601888050
B2045323922464N12241638WA0178101878051
B2045373922430N12241668WA0178601870047
B2045423922403N12241695WA0179101864038
B2045473922371N12241726WA0179901860036
B2045523922349N12241758WA0180301859040
B2045573922333N12241796WA0181701860033
B2046023922319N12241823WA0183301864035
B2046073922301N12241842WA0185801871029
B2046123922285N12241870WA0187601881047
B2046173922305N12241883WA0189701893041
B2046223922291N12241877WA0191901908043
B2046273922299N12241904WA0193801926044
B2046323922292N12241890WA0196001943041
B2046373922285N12241922WA0198201961039
B2046423922300N12241922WA0200101980042
B2046473922282N12241928WA0202201998039
B2046523922292N12241957WA0204002017036
B2046573922294N12241939WA0206002036039
B2047023922274N12241933WA0208402057029
B2047073922258N12241955WA0209802077040
B2047123922272N12241982WA0211402097030
B2047173922289N12241979WA0212802116040
B2047223922279N12241960WA0214902136031
B2047273922261N12241980WA0216102154040
B2047323922279N12241997WA0217102171040
B2047373922285N12241976WA0218802188030
B2047423922275N12241952WA0220602205031
B2047473922260N12241932WA0222302222032
B2047523922234N12241932WA0223602240034
B2047573922226N12241959WA0224702256037
B2048023922243N12241966WA0226502272033
B2048073922232N12241944WA0227902288037
B2048123922222N12241967WA0228902304035
B2048173922243N12241963WA0231102320030
B2048223922253N12241943WA0232202337032
B2048273922242N12241915WA0232702353037
B2048323922218N12241920WA0234002367037
B2048373922218N12241946WA0234702381036
B2048423922239N12241937WA0235802393032
B2048473922249N12241909WA0236502405032
B2048523922254N12241880WA0236402415036
B2048573922235N12241858WA0236302423038
B2049033922207N12241842WA0236302430042
B2049083922178N12241829WA0236302435046
B2049133922149N12241811WA0237002440037
B2049183922123N12241793WA0237102445037
B2049233922093N12241773WA0236802449041
B2049283922065N12241757WA0236202451044
B2049333922026N12241735WA0235602452045
B2049383921993N12241714WA0234802451049
B2049433921962N12241699WA0234202449048
B2049483921931N12241681WA0233602446049
B2049533921902N12241663WA0232702442044
B2049583921872N12241644WA0231702437047
B2050033921843N12241625WA0230702431048
B2050083921815N12241607WA0229902425047
B2050133921788N12241591WA0229302418046
B2050183921759N12241579WA0228702410049
B2050233921732N12241570WA0228002403049
B2050283921704N12241561WA0227702396046
B2050333921678N12241553WA0227402389046
B2050383921652N12241547WA0227102383047
B2050433921626N12241538WA0226902378045
B2050483921599N12241529WA0226502373046
B2050533921571N12241521WA0226202368046
B2050583921545N12241512WA0226102363040
B2051033921520N12241504WA0225802359042
B2051083921495N12241495WA0225602355042
B2051133921470N12241487WA0225402351043
B2051183921447N12241482WA0225202348043
B2051233921424N12241476WA0225002344042
B2051283921402N12241469WA0225202341039
B2051333921383N12241460WA0225102339038
B2051383921357N12241450WA0225202337041
B2051433921333N12241440WA0224802336044
B2051483921308N12241426WA0224602334041
B2051533921280N12241417WA0224402332046
B2051583921252N12241410WA0224102329050
B2052033921225N12241405WA0223602327047
B2052083921195N12241397WA0223902325044
B2052133921170N12241388WA0223402323045
B2052183921140N12241384WA0223202321047
B2052243921113N12241375WA0222902319047
B2052293921085N12241361WA0222302316047
B2052343921057N12241345WA0221902313046
B2052393921030N12241330WA0221102309048
B2052443921001N12241319WA0220402305047
B2052493920974N12241305WA0219602300048
B2052543920947N12241288WA0218702294047
B2052593920918N12241276WA0217802288048
B2053043920889N12241267WA0217102281049
B2053093920854N12241258WA0216502272046
B2053143920826N12241250WA0215702265048
B2053193920798N12241241WA0214702258048
B2053243920770N12241231WA0214002250048
B2053293920744N12241219WA0213202242048
B2053343920719N12241205WA0212102234047
B2053393920696N12241190WA0211002225044
B2053443920670N12241181WA0209402216050
E205348PEV
B2053483920648N12241174WA0208302207052
B2053493920642N12241172WA0208002205054
B2053543920631N12241148WA0207402195049
B2053593920669N12241145WA0206202185043
B2054043920709N12241157WA0204802176046
B2054093920753N12241167WA0203302165054
B2054143920796N12241175WA0202502154049
B2054193920837N12241183WA0201702143047
B2054243920878N12241191WA0200802133051
B2054293920918N12241197WA0199802124050
B2054343920959N12241205WA0199102114045
B2054393921001N12241209WA0198402104054
B2054443921037N12241217WA0197902095050
B2054493921075N12241227WA0197402087047
B2054543921114N12241238WA0196802079051
B2054593921152N12241252WA0196602072050
B2055043921191N12241262WA0196202066050
B2055093921230N12241271WA0195802060051
B2055143921269N12241281WA0195402054051
B2055193921308N12241290WA0195202049046
B2055243921346N12241299WA0194802043048
B2055293921385N12241310WA0194402038049
B2055343921424N12241323WA0194202033048
B2055393921462N12241337WA0193602029050
B2055443921501N12241353WA0193202024047
B2055493921537N12241369WA0192602019047
B2055543921573N12241386WA0192002013051
B2055593921611N12241401WA0191202008048
B2056043921646N12241424WA0191102002046
B2056103921679N12241436WA0190501997049
B2056153921713N12241448WA0190101992042
B2056203921746N12241463WA0189001986050
B2056253921779N12241480WA0188001980047
B2056303921808N12241500WA0186901973047
B2056353921835N12241520WA0185501965047
B2056403921864N12241539WA0185001956047
B2056453921897N12241552WA0184001947048
B2056503921933N12241575WA0183501939050
B2056553921973N12241598WA0182701929042
B2057003922004N12241620WA0182401921046
B2057053922029N12241643WA0183101915037
B2057103922051N12241658WA0183701911031
B2057153922077N12241663WA0184401909031
B2057203922104N12241676WA0185401909029
B2057253922124N12241694WA0186601911024
B2057303922138N12241717WA0188401915029
B2057353922124N12241742WA0189101921038
B2057403922119N12241726WA0189001927049
B2057453922142N12241733WA0190701935027
B2057503922162N12241737WA0192001945030
B2057553922183N12241750WA0193101956034
B2058003922170N12241771WA0194001968044
B2058053922167N12241753WA0195301977031
B2058103922189N12241751WA0196101989038
B2058153922195N12241782WA0196802000042
B2058203922177N12241778WA0198002010042
B2058253922193N12241762WA0199002020038
B2058303922211N12241785WA0200002031042
B2058353922195N12241801WA0201202041041
B2058403922198N12241780WA0202202051040
B2058453922224N12241785WA0203602061036
B2058503922219N12241810WA0204002071035
B2058553922202N12241802WA0205102080042
B2059003922220N12241782WA0206102090042
B2059053922237N12241805WA0206802099040
B2059103922221N12241814WA0207602109030
B2059153922213N12241797WA0208502116034
B2059203922202N12241778WA0210502127034
B2059253922224N12241769WA0211702139046
B2059303922217N12241792WA0213102152042
B2059353922219N12241769WA0214702165034
B2059403922244N12241772WA0216102180040
B2059453922241N12241796WA0217202194042
B2059503922232N12241779WA0218702207036
B2059553922252N12241755WA0220402221041
B2100013922272N12241771WA0221502235038
B2100063922261N12241784WA0222502249036
B2100113922263N12241759WA0223602262043
B2100163922283N12241771WA0224802275042
B2100213922269N12241778WA0226102287038
B2100263922278N12241749WA0227102300037
B2100313922305N12241748WA0228502313035
B2100363922315N12241771WA0229302325043
B2100413922300N12241761WA0230202336037
B2100463922313N12241722WA0230602350037
B2100513922343N12241722WA0231802360035
B2100563922348N12241741WA0232802368036
B2101013922337N12241728WA0233502378038
B2101063922353N12241700WA0234302389033
B2101113922381N12241702WA0234802400036
B2101163922390N12241722WA0234902408040
B2101213922381N12241728WA0235802412033
B2101263922370N12241720WA0236102417031
B2101313922358N12241697WA0235302424040
B2101363922338N12241676WA0234802429035
B2101413922323N12241684WA0233602432037
B2101463922322N12241711WA0233202432035
B2101513922328N12241735WA0232902431037
B2101563922320N12241757WA0232602430033
B2102013922303N12241767WA0232002428034
B2102063922283N12241756WA0231502425036
B2102113922262N12241742WA0231302422036
B2102163922241N12241738WA0231602420033
B2102213922225N12241729WA0231502418030
B2102263922213N12241702WA0231502416032
B2102313922222N12241669WA0231302415039
B2102363922247N12241671WA0231302413035
B2102413922254N12241695WA0231102412031
B2102463922247N12241720WA0231002411032
B2102513922230N12241738WA0231902411029
B2102563922217N12241747WA0231902411039
B2103013922203N12241722WA0232102411038
B2103063922218N12241695WA0232002412037
B2103113922236N12241659WA0232402412032
B2103173922249N12241627WA0231802414042
B2103223922265N12241585WA0231102413038
B2103273922276N12241540WA0229802411041
B2103323922290N12241491WA0228002407051
B2103373922309N12241440WA0226602401044
B2103423922330N12241390WA0224902392052
B2103473922349N12241339WA0223302382050
B2103523922368N12241287WA0221802371048
B2103573922389N12241226WA0220202356052
B2104023922406N12241175WA0218602342050
B2104073922424N12241123WA0217002328048
B2104123922442N12241073WA0215202313052
B2104173922456N12241022WA0213702298049
B2104223922472N12240972WA0212002282050
B2104273922488N12240923WA0210302266047
B2104323922504N12240872WA0208702250049
B2104373922518N12240820WA0207102233050
B2104423922532N12240767WA0205702216048
B2104473922546N12240713WA0204302200052
B2104523922559N12240661WA0202602184051
B2104573922575N12240608WA0201202167049
B2105023922592N12240558WA0199902151047
B2105073922608N12240506WA0198802135051
B2105123922625N12240455WA0197602120051
B2105173922643N12240405WA0197002106048
B2105223922659N12240356WA0196302093047
B2105273922675N12240306WA0195402081051
B2105323922691N12240255WA0195002069047
B2105373922708N12240205WA0194702059048
B2105423922722N12240160WA0194202050040
B2105473922735N12240119WA0193502042040
B2105523922751N12240077WA0193202034038
B2105573922768N12240035WA0192602027039
B2106023922787N12239990WA0192102020047
B2106073922806N12239943WA0192102014041
B2106123922823N12239894WA0191902009045
B2106173922838N12239845WA0191502005046
B2106223922854N12239793WA0191302000043
B2106273922869N12239743WA0190601996045
B2106323922885N12239693WA0189801992047
B2106373922899N12239642WA0189501986044
B2106423922911N12239596WA0189401982041
B2106473922925N12239550WA0189101977039
B2106523922942N12239506WA0188701973041
B2106573922960N12239465WA0188301968045
B2107033922975N12239425WA0187601964042
B2107083922989N12239382WA0187101959041
B2107133923001N12239341WA0186501954040
B2107183923013N12239299WA0185901949051
B2107233923028N12239260WA0185801944046
B2107283923040N12239222WA0185601939046
B2107333923049N12239190WA0185901935037
B2107383923062N12239160WA0185901931034
B2107433923076N12239132WA0185301928043
B2107483923089N12239099WA0185801926034
B2107533923099N12239069WA0186401924035
B2107583923108N12239045WA0187301924030
B2108033923126N12239041WA0188201926028
B2108083923137N12239061WA0188801929033
B2108133923128N12239089WA0189601932038
B2108183923108N12239074WA0190401937031
B2108233923115N12239050WA0190801941039
B2108283923130N12239065WA0191401947040
B2108333923114N12239088WA0192101952037
B2108383923096N12239071WA0192801959035
B2108433923105N12239045WA0193501965037
B2108483923122N12239055WA0193901972038
B2108533923107N12239075WA0194501978037
B2108583923090N12239053WA0195201984040
B2109033923103N12239035WA0195301989037
B2109083923108N12239058WA0195501995036
B2109133923087N12239067WA0195901999031
B2109183923072N12239051WA0195502003040
B2109233923081N12239021WA0195302006039
B2109283923087N12238991WA0195302008037
B2109333923092N12238957WA0195502010041
B2109383923098N12238928WA0196002012039
B2109433923104N12238909WA0196702014033
B2109483923121N12238902WA0197402018044
B2109533923113N12238929WA0198602023038
B2109583923096N12238912WA0199302029035
B2110033923112N12238902WA0199902035036
B2110083923118N12238931WA0200902042034
B2110133923092N12238945WA0201602050032
B2110183923075N12238924WA0202202058034
B2110233923085N12238905WA0202202065037
B2110283923102N12238920WA0203102072037
B2110333923088N12238948WA0203502078039
B2110383923071N12238931WA0203802084039
B2110443923077N12238899WA0203902090041
B2110493923089N12238866WA0203602095038
B2110543923099N12238825WA0203402098057
B2110593923105N12238789WA0203802100035
B2111043923110N12238745WA0203702103043
B2111093923117N12238701WA0203702105039
B2111143923123N12238658WA0203202106044
B2111193923135N12238618WA0202402106041
B2111243923148N12238562WA0200702103048
B2111293923160N12238509WA0199602098048
B2111343923168N12238461WA0199102092039
B2111393923175N12238413WA0198402086040
B2111443923187N12238367WA0197302080054
B2111493923203N12238319WA0196602073043
B2111543923216N12238265WA0195502065055
B2111593923228N12238217WA0195402058044
B2112043923242N12238170WA0194702051046
B2112093923259N12238124WA0193602043044
B2112143923277N12238073WA0192102035051
B2112193923293N12238021WA0190402025049
B2112243923311N12237965WA0189102014044
B2112293923329N12237910WA0187602002051
B2112343923344N12237859WA0186501990046
B2112393923363N12237808WA0185401977048
B2112443923377N12237758WA0184201965051
B2112493923391N12237704WA0183101953050
B2112543923405N12237650WA0182101940046
B2112593923419N12237598WA0180901928046
B2113043923435N12237546WA0179601916049
B2113093923449N12237492WA0178701904047
B2113143923461N12237438WA0177601892048
B2113193923473N12237385WA0176301880052
B2113243923483N12237331WA0175501868048
B2113293923494N12237278WA0174901857047
B2113343923505N12237226WA0174401846050
B2113393923516N12237175WA0174401837044
B2113443923525N12237133WA0173601829042
B2113493923531N12237087WA0173201821034
B2113543923535N12237038WA0172801814044
B2113593923538N12236989WA0172601807040
B2114043923545N12236941WA0172201801041
B2114103923555N12236896WA0171501795044
B2114153923566N12236850WA0170901789040
B2114203923576N12236803WA0170001783042
B2114253923586N12236753WA0168701776044
B2114303923597N12236704WA0167401768047
B2114353923607N12236656WA0166401759045
B2114403923619N12236604WA0165901750045
B2114453923631N12236554WA0165101741049
B2114503923639N12236495WA0164601731046
B2114553923646N12236447WA0163901723047
B2115003923652N12236399WA0163201715045
B2115053923659N12236347WA0161801707052
B2115103923664N12236298WA0160701698049
B2115153923670N12236247WA0159401688048
B2115203923678N12236199WA0158301678048
B2115253923688N12236151WA0157501667048
B2115303923697N12236103WA0156601657049
B2115353923706N12236056WA0155301647046
B2115403923713N12236004WA0153701636053
B2115453923718N12235954WA0152401624049
B2115503923729N12235902WA0151101612046
B2115553923742N12235850WA0149701599052
B2116003923754N12235799WA0148601587047
B2116053923762N12235746WA0147501574046
B2116103923769N12235693WA0146401561049
B2116153923777N12235640WA0145301549048
B2116203923786N12235587WA0144501537046
B2116253923794N12235533WA0143701525047
B2116303923804N12235481WA0142901514047
B2116353923815N12235428WA0142201504047
B2116403923825N12235376WA0141301494048
B2116453923835N12235324WA0140601484046
B2116503923847N12235274WA0140001475048
B2116553923860N12235225WA0139501466050
B2117003923876N12235177WA0139001458045
B2117053923889N12235129WA0138901450050
B2117103923901N12235090WA0137901443046
B2117153923916N12235044WA0137801436045
B2117203923926N12235010WA0137401430044
B2117253923936N12234977WA0137301424034
B2117303923945N12234943WA0136401419040
B2117363923957N12234907WA0135701413041
B2117413923968N12234871WA0135001407045
B2117463923984N12234831WA0134501401041
B2117513924000N12234795WA0133601394046
B2117563924016N12234755WA0132701388046
B2118013924030N12234712WA0131801380044
B2118063924044N12234659WA0131101371044
B2118113924054N12234619WA0129801363046
B2118163924064N12234576WA0128301354043
B2118213924075N12234537WA0126701343047
B2118263924088N12234498WA0125401332049
B2118313924099N12234459WA0124501320050
B2118363924104N12234423WA0122901308046
B2118413924110N12234387WA0121301296045
B2118463924118N12234353WA0119301282045
B2118513924133N12234323WA0117801267047
B2118563924148N12234292WA0116401253047
B2119013924161N12234259WA0114601238048
B2119063924175N12234227WA0113001222046
B2119113924191N12234195WA0111201206048
B2119163924208N12234165WA0109701190050
B2119213924222N12234141WA0108501173046
B2119263924240N12234127WA0106901157049
B2119313924261N12234114WA0105901141044
B2119363924281N12234101WA0104201126047
B2119413924303N12234091WA0102101110046
B2119463924328N12234081WA0100501093048
B2119513924351N12234069WA0099101076048
B2119563924375N12234059WA0097801059044
B2120013924397N12234050WA0096101042049
B2120063924419N12234036WA0094801026046
B2120113924440N12234014WA0093901010044
B2120163924460N12233993WA0093300995045
B2120213924482N12233976WA0092500981050
B2120263924503N12233956WA0092600969041
B2120313924516N12233941WA0093000960027
B2120363924521N12233934WA0092800956036
B2120413924533N12233927WA0092600949042
B2120473924546N12233923WA0093200944024
B2120523924559N12233917WA0092900940044
B2120573924573N12233909WA0093200936034
B2121023924582N12233900WA0092700934037
B2121073924591N12233888WA0092300932036
B2121123924602N12233878WA0092200929033
B2121173924615N12233872WA0092100927035
B2121223924635N12233870WA0092000922035
B2121273924653N12233870WA0092200919031
B2121323924670N12233867WA0092600917036
B2121373924683N12233867WA0093700917030
B2121423924692N12233866WA0094200918032
B2121473924693N12233899WA0095300920041
B2121523924669N12233906WA0096500924034
B2121573924676N12233905WA0096700928038
B2122023924683N12233933WA0098200935036
B2122073924664N12233956WA0099200943036
B2122123924667N12233944WA0100500950036
B2122173924680N12233955WA0101900958028
B2122223924684N12233991WA0102800969038
B2122273924663N12234002WA0104100981041
B2122323924670N12233993WA0105700990032
B2122373924681N12234024WA0106701004035
B2122423924658N12234049WA0107701017036
B2122473924644N12234032WA0109201029029
B2122523924653N12234020WA0110601036024
B2122573924668N12234039WA0111801053035
B2123023924653N12234073WA0113001067037
B2123073924629N12234067WA0114901081033
B2123123924631N12234053WA0116201091033
B2123173924644N12234076WA0117401107039
B2123223924624N12234103WA0118701122031
B2123273924603N12234091WA0120401137032
B2123323924612N12234084WA0121701147035
B2123373924620N12234119WA0122801164037
B2123423924595N12234140WA0124001180034
B2123473924574N12234126WA0125401195027
B2123523924575N12234112WA0126701204032
B2123573924588N12234130WA0127601220036
B2124023924572N12234164WA0128801235033
B2124073924546N12234156WA0129801250034
B2124123924547N12234141WA0130901260031
B2124173924558N12234158WA0131501272037
B2124223924540N12234192WA0132401285035
B2124273924515N12234180WA0133301298036
B2124333924519N12234164WA0134101306025
B2124383924529N12234165WA0134001314041
B2124433924521N12234198WA0134501325037
B2124483924488N12234195WA0135401335032
B2124533924478N12234175WA0134801342032
B2124583924492N12234182WA0134601347027
B2125033924503N12234194WA0134001351042
B2125083924521N12234209WA0134301356033
B2125133924536N12234214WA0134301358036
B2125183924550N12234219WA0135301360029
B2125233924563N12234222WA0136401363025
B2125283924578N12234225WA0137101369028
B2125333924591N12234237WA0138401376038
B2125383924568N12234249WA0139501383031
B2125433924546N12234229WA0140801391041
B2125483924555N12234204WA0141601400034
B2125533924570N12234212WA0141301406030
B2125583924577N12234232WA0141701413025
B2126033924568N12234252WA0142201419032
B2126083924546N12234261WA0143801427042
B2126133924542N12234237WA0144601435038
B2126183924564N12234236WA0145401443026
B2126233924565N12234252WA0145601449035
B2126283924543N12234248WA0146701458026
B2126333924530N12234226WA0146901466032
B2126383924538N12234196WA0146201473031
B2126433924532N12234156WA0145501478037
B2126483924525N12234118WA0144601481047
B2126533924523N12234076WA0144401482040
B2126583924522N12234038WA0142801482047
B2127033924525N12233986WA0142001479044
B2127083924527N12233944WA0141001475047
B2127133924524N12233897WA0140201470044
B2127183924512N12233852WA0139101464047
B2127233924501N12233806WA0137901457048
B2127283924487N12233757WA0136501449046
B2127333924473N12233709WA0135001440049
B2127383924458N12233663WA0133701430047
B2127433924439N12233617WA0132601418046
B2127493924420N12233572WA0131501407048
B2127543924399N12233528WA0130401395048
B2127593924377N12233484WA0129801383048
B2128043924354N12233442WA0129101372047
B2128093924332N12233399WA0128201361048
E212812PEV
B2128123924320N12233372WA0127701355046
B2128133924316N12233363WA0127601353046
B2128183924286N12233316WA0126801340045
B2128233924252N12233285WA0125801330050
B2128283924216N12233257WA0125401320045
B2128333924182N12233227WA0124701310048
B2128383924151N12233197WA0124201301045
B2128433924120N12233167WA0123901293045
B2128483924091N12233137WA0123101285050
B2128533924060N12233106WA0122701278047
B2128583924027N12233081WA0121901270044
B2129033923998N12233053WA0120601263051
B2129083923971N12233030WA0119701254043
B2129133923942N12233006WA0118401246046
B2129183923913N12232982WA0116601236050
B2129233923883N12232958WA0115201225048
B2129283923851N12232936WA0113701213047
B2129333923817N12232917WA0112301201048
B2129383923787N12232896WA0110701188046
B2129433923756N12232872WA0109201174047
B2129483923724N12232851WA0107701160049
B2129533923695N12232828WA0106701146047
B2129583923668N12232805WA0106101132048
B2130033923640N12232780WA0105201119047
B2130083923610N12232757WA0104601107044
B2130133923579N12232734WA0103701096049
B2130183923548N12232712WA0102801085047
B2130233923515N12232689WA0102101075048
B2130283923483N12232667WA0101701065047
B2130333923450N12232644WA0101801056047
B2130383923419N12232631WA0102201049038
B2130433923391N12232618WA0102301043037
B2130483923365N12232602WA0101901039049
B2130533923335N12232579WA0101901035042
B2130583923304N12232553WA0102001031048
B2131033923271N12232536WA0103001029040
B2131093923240N12232525WA0103801029040
B2131143923211N12232511WA0105301031042
B2131193923183N12232495WA0106601036041
B2131243923151N12232479WA0108001043040
B2131293923125N12232463WA0110001051028
B2131343923105N12232452WA0111601061034
B2131393923085N12232442WA0112901072041
B2131443923058N12232426WA0114201084045
B2131493923025N12232409WA0115401095044
B2131543922994N12232391WA0116001107049
B2131593922957N12232365WA0117001121044
B2132043922925N12232341WA0117501131047
B2132093922889N12232322WA0117301140048
B2132143922853N12232300WA0117601148043
B2132193922819N12232273WA0117301154050
B2132243922785N12232250WA0117001159056
B2132293922753N12232224WA0117901164043
B2132343922724N12232198WA0118101168052
B2132393922692N12232168WA0118901173051
B2132443922663N12232144WA0119801179048
B2132493922630N12232123WA0120701185057
B2132543922600N12232106WA0121501192049
B2132593922572N12232080WA0122401200050
B2133043922546N12232060WA0122801208048
B2133093922515N12232038WA0122901215040
B2133143922492N12232021WA0123001221033
B2133193922478N12231993WA0123301226029
B2133243922471N12231963WA0123201230042
B2133293922466N12231929WA0123401235031
B2133343922445N12231900WA0123001238047
B2133393922415N12231881WA0123001241049
B2133443922380N12231861WA0123001243047
B2133493922347N12231840WA0122001243049
B2133543922308N12231820WA0121801242054
B2133593922271N12231796WA0121201240054
B2134043922233N12231771WA0121101238051
B2134093922196N12231746WA0120701235054
B2134143922160N12231721WA0119901232054
B2134193922123N12231696WA0119301228051
B2134243922086N12231669WA0118501223053
B2134293922049N12231640WA0117901218052
B2134343922012N12231609WA0116801213056
B2134393921972N12231580WA0116101208054
B2134443921935N12231550WA0115101202049
B2134493921899N12231521WA0113401195056
B2134543921858N12231493WA0112301186057
B2134593921819N12231465WA0111301176053
E213504PEV
B2135043921789N12231441WA0110301168054
B2135053921781N12231435WA0110201166033
B2135103921757N12231414WA0109101156039
B2135153921730N12231385WA0108601145037
B2135203921700N12231371WA0107801135034
B2135253921666N12231363WA0107001126033
B2135303921623N12231357WA0106301114035
B2135353921592N12231342WA0105301105032
B2135403921574N12231316WA0104101096034
B2135453921564N12231286WA0103001086034
B2135503921553N12231259WA0102001076032
B2135553921542N12231230WA0100801065037
B2136003921524N12231204WA0099601054040
E213601PEV
B2136013921520N12231200WA0099401052038
B2136023921516N12231195WA0099301050036
B2136073921495N12231172WA0098401039035
B2136123921464N12231182WA0097001029049
B2136173921470N12231176WA0095301019042
B2136223921456N12231155WA0094201008042
B2136273921445N12231130WA0093000996033
B2136323921434N12231108WA0091800984034
B2136373921433N12231088WA0090800972032
B2136423921439N12231072WA0090300964034
B2136473921452N12231070WA0089800956035
B2136523921462N12231090WA0089000944041
B2136573921467N12231116WA0088600932037
B2137023921478N12231139WA0088200922033
B2137073921493N12231143WA0087800915039
B2137123921502N12231131WA0087500910029
B2137173921509N12231108WA0087000901033
B2137223921504N12231082WA0086400893029
B2137273921495N12231059WA0085500886032
B2137323921479N12231043WA0083900878033
B2137373921460N12231024WA0082700868034
B2137423921438N12231004WA0081800858035
B2137473921418N12230981WA0081300848035
B2137523921401N12230955WA0081000839036
B2137573921385N12230933WA0080500831033
B2138023921364N12230919WA0079900824035
B2138073921340N12230909WA0079100816035
B2138123921317N12230896WA0078100808039
B2138173921293N12230878WA0077400800035
B2138223921270N12230859WA0076900792037
B2138273921245N12230848WA0076200784035
B2138323921219N12230842WA0075300776032
B2138383921195N12230834WA0074300767035
B2138433921189N12230813WA0072700759046
B2138483921207N12230827WA0071600748033
B2138533921195N12230859WA0070400738036
B2138583921174N12230883WA0069700728035
B2139033921153N12230907WA0069200718034
B2139083921128N12230927WA0069000709034
B2139133921098N12230945WA0068600700036
B2139183921073N12230958WA0067900693032
B2139233921053N12230984WA0067100686034
B2139283921032N12231007WA0066300679035
B2139333921007N12231029WA0065800672033
B2139383920983N12231050WA0065400666032
B2139433920968N12231076WA0064800659034
B2139483920977N12231112WA0064200653036
B2139533920997N12231140WA0063700647035
B2139583921022N12231149WA0063200641032
B2140033921042N12231136WA0062400635035
B2140083921040N12231111WA0061600628038
B2140133921023N12231087WA0061000621034
B2140183921002N12231072WA0060400614034
B2140233920978N12231079WA0060000607034
B2140283920962N12231105WA0059400600033
B2140333920962N12231141WA0059100593032
B2140383920975N12231175WA0058600588035
B2140433920995N12231200WA0058000583034
B2140483921022N12231215WA0057400577033
B2140533921048N12231219WA0056700572036
B2140583921071N12231209WA0056100567033
B2141033921092N12231194WA0055300562037
B2141083921118N12231189WA0054600557035
B2141133921143N12231188WA0054000553033
B2141183921168N12231181WA0053200547033
B2141233921192N12231171WA0052800542035
B2141283921216N12231168WA0052400535035
B2141333921239N12231165WA0051900528034
B2141383921259N12231160WA0050900520034
B2141443921281N12231156WA0049900511032
B2141493921305N12231158WA0048800502037
B2141543921328N12231152WA0047900492033
B2141593921348N12231144WA0047500482034
B2142043921363N12231174WA0047300473036
B2142093921349N12231206WA0046900465040
B2142143921326N12231206WA0046200458035
B2142193921302N12231184WA0045200448037
B2142243921282N12231170WA0044200440038
B2142293921257N12231161WA0043500432035
B2142343921237N12231148WA0042600424029
B2142393921223N12231128WA0041800415026
B2142443921219N12231113WV0041700000000
B2142493921213N12231083WA0041800410000
B2142543921213N12231077WA0041900406000
B2142593921215N12231079WA0041900402000
B2143043921216N12231082WA0041900397000
B2143093921218N12231084WA0041900394000
B2143153921220N12231086WA0041900392000
B2143203921220N12231088WA0041800392000
B2143253921220N12231090WA0041800392000
B2143303921219N12231090WA0041900392000
B2143353921219N12231091WA0042000390000
B2143403921220N12231090WA0042000389000
B2143453921220N12231091WA0042000387000
B2143503921220N12231091WA0042000385000
B2143553921220N12231092WA0042000383000
B2144003921221N12231093WA0042000382000
B2144053921222N12231094WA0042000381000
B2144103921222N12231094WA0042000380000
B2144153921223N12231094WA0042000379000
B2144203921224N12231092WA0042000378000
B2144253921226N12231091WA0042100377000
B2144303921228N12231091WA0042200376000
G2584F9478540AF492DE694EC89539A3C
GA401922ADB4EF9851824660811C2AFDD
G58DCAAB0A3E82648FB9E516201684BAC
G00000000000000000007000000000000
