AXCTd451c34731cb4298
HFFTYFRTYPE:Google Pixel 3 11 Client:xctrack FlightId:2899ae58-85d8-47ff-a15e-4b3d94d63d9d
HFRFWFIRMWAREVERSION:0.9.5.2-beta LIVE:86ca8fabece9161877e822cf98e37d3de41df2bb
HFPLTPILOTINCHARGE:Josh Cohn
HOSITSite:Mt Tamalpais
HSCCLCOMPETITION CLASS:FAI-3 (PG)
HFGTYGLIDERTYPE:ozone z-alps
HODTM100GPSDATUM:WGS-84
HFALPALTPRESSURE:ISA
HFALG:GEO
I023636LAD3737LOD
HFDTEDATE:270321,00
LXCTDEVICE eyJkZXZpY2UiOnsiY3B1QUJJIjoiYXJtNjQtdjhhIiwic2RrIjozMCwibWFudWZhY
LXCTDEVICE 3R1cmVyIjoiR29vZ2xlIiwiZGlzcGxheSI6eyJ3IjoxMDgwLCJoIjoyMDI4LCJtbS
LXCTDEVICE I6MTcuMzIyODM0fSwiZGV2aWNlU3RyaW5nIjoiR29vZ2xlIFBpeGVsIDMgMTEiLCJ
LXCTDEVICE maW5nZXJwcmludCI6Imdvb2dsZS9ibHVlbGluZS9ibHVlbGluZToxMS9SUTJBLjIx
LXCTDEVICE MDMwNS4wMDYvNzExOTc0MTp1c2VyL3JlbGVhc2Uta2V5cyIsImJ1aWxkSWQiOiJSU
LXCTDEVICE TJBLjIxMDMwNS4wMDYiLCJjcHVBQkkyIjoiIiwibW9kZWwiOiJQaXhlbCAzIiwiYm
LXCTDEVICE 9hcmQiOiJibHVlbGluZSIsInByb2R1Y3QiOiJibHVlbGluZSIsInRpbWV6b25lIjo
LXCTDEVICE iQW1lcmljYS9Mb3NfQW5nZWxlcyIsImFuZHJvaWRJZCI6ImQ0NTFjMzQ3MzFjYjQy
LXCTDEVICE OTgiLCJoYXJkd2FyZSI6ImJsdWVsaW5lIn0sInhjdHJhY2siOnsidmVyc2lvbkNvZ
LXCTDEVICE GUiOjkwNTIwLCJ2ZXJzaW9uTmFtZSI6IjAuOS41LjItYmV0YSJ9LCJjYXBhYmlsaX
LXCTDEVICE RpZXMiOnsibWVtTGFyZ2VDbGFzcyI6NTEyLCJtZW1DbGFzcyI6MTkyLCJuYW4iOnR
LXCTDEVICE ydWV9fQ==
B1950053754428N12237211WA005240062446
B1950063754428N12237211WA005240062456
B1950073754428N12237211WA005240062576
B1950083754428N12237211WA005230062497
B1950093754429N12237211WA005240062507
B1950103754429N12237211WA005230062507
B1950113754429N12237211WA005230062505
B1950123754428N12237211WA005230062594
B1950133754428N12237211WA005230062593
B1950143754428N12237211WA005240062693
B1950153754428N12237211WA005240062565
B1950163754428N12237212WA005230062503
B1950173754427N12237213WA005230062330
B1950183754427N12237213WA005230062212
B1950193754427N12237213WA005230062142
B1950203754427N12237211WA005230062099
B1950213754427N12237209WA005230062186
B1950223754426N12237208WA005230062190
B1950233754425N12237207WA005220062054
B1950243754424N12237207WA005210062218
B1950253754420N12237209WA005200062180
B1950263754417N12237208WA005180061934
B1950273754414N12237206WA005180061825
B1950283754410N12237205WA005180061871
B1950293754407N12237204WA005190061873
B1950303754405N12237203WA005200061806
B1950313754401N12237203WA005210061998
B1950323754398N12237203WA005210061839
B1950333754395N12237203WA005210061738
B1950343754391N12237202WA005200061759
B1950353754387N12237202WA005190061571
B1950363754383N12237201WA005180061368
B1950373754378N12237202WA005160061137
B1950383754373N12237204WA005140061193
B1950393754369N12237205WA005130061198
B1950403754366N12237207WA005140061210
B1950413754362N12237208WA005140061394
B1950423754359N12237210WA005140061296
B1950433754357N12237213WA005130061188
B1950443754355N12237218WA005130061063
B1950453754354N12237222WA005120061120
B1950463754352N12237225WA005120061156
B1950473754351N12237229WA005120061135
B1950483754350N12237232WA005110061109
B1950493754348N12237236WA005110061196
B1950503754347N12237239WA005110061114
B1950513754345N12237242WA005110061264
B1950523754344N12237244WA005110061157
B1950533754343N12237247WA005110061188
B1950543754342N12237250WA005110061067
B1950553754342N12237254WA005110061602
B1950563754341N12237256WA005120061328
B1950573754341N12237258WA005110061207
B1950583754340N12237262WA005100060970
B1950593754340N12237265WA005090060687
B1951003754340N12237270WA005070060257
B1951013754340N12237276WA005040060083
B1951023754341N12237282WA005020060061
B1951033754342N12237285WA005020060047
B1951043754343N12237289WA005030060576
B1951053754344N12237293WA005020060211
B1951063754344N12237297WA005010059923
B1951073754344N12237302WA005000059895
B1951083754345N12237307WA004990059633
B1951093754346N12237312WA004970059324
B1951103754346N12237317WA004960059326
B1951113754346N12237322WA004940059223
B1951123754346N12237327WA004930059168
B1951133754347N12237333WA004920059120
B1951143754347N12237337WA004910059171
B1951153754349N12237341WA004910059119
B1951163754349N12237345WA004920059097
B1951173754351N12237349WA004920059056
B1951183754352N12237353WA004920058889
B1951193754353N12237357WA004910058837
B1951203754355N12237361WA004910058723
B1951213754356N12237365WA004910058814
B1951223754357N12237369WA004900058898
B1951233754359N12237374WA004900058703
B1951243754360N12237378WA004890058743
B1951253754362N12237382WA004880058660
B1951263754365N12237386WA004880058521
B1951273754367N12237389WA004880058564
B1951283754370N12237392WA004890058469
B1951293754372N12237395WA004890058475
B1951303754374N12237397WA004890058319
B1951313754376N12237400WA004880058315
B1951323754377N12237402WA004880058299
B1951333754380N12237406WA004870058022
B1951343754382N12237409WA004860057919
B1951353754384N12237413WA004850058076
B1951363754386N12237417WA004840058038
B1951373754388N12237422WA004830057912
B1951383754389N12237425WA004820057959
B1951393754391N12237429WA004810057973
B1951403754393N12237433WA004800057877
B1951413754394N12237438WA004800057668
B1951423754396N12237443WA004790057627
B1951433754396N12237447WA004790057458
B1951443754396N12237452WA004790057375
B1951453754397N12237458WA004790057207
B1951463754397N12237463WA004780057077
B1951473754398N12237469WA004780057155
B1951483754399N12237473WA004780057018
B1951493754400N12237479WA004790057109
B1951503754400N12237484WA004800057314
B1951513754401N12237487WA004820057684
B1951523754403N12237489WA004820057785
B1951533754407N12237490WA004820057705
B1951543754411N12237491WA004820057771
B1951553754416N12237490WA004810057715
B1951563754420N12237489WA004810057824
B1951573754423N12237488WA004820057991
B1951583754427N12237486WA004830058179
B1951593754431N12237485WA004830058093
B1952003754435N12237483WA004830058086
B1952013754439N12237482WA004830058191
B1952023754444N12237481WA004830058176
B1952033754448N12237482WA004840058460
B1952043754452N12237482WA004850058428
B1952053754455N12237483WA004850058544
B1952063754458N12237485WA004860058594
B1952073754462N12237488WA004850058445
B1952083754463N12237494WA004850058346
B1952093754463N12237500WA004840058280
B1952103754461N12237504WA004830058087
B1952113754457N12237507WA004810057883
B1952123754452N12237506WA004800057739
B1952133754446N12237503WA004790057686
B1952143754442N12237497WA004770057578
B1952153754440N12237491WA004770057620
B1952163754438N12237483WA004770057582
B1952173754437N12237476WA004780057561
B1952183754437N12237470WA004800057609
B1952193754436N12237465WA004820057901
B1952203754435N12237460WA004830058109
B1952213754433N12237456WA004850058115
B1952223754429N12237452WA004850058180
B1952233754424N12237450WA004850058060
B1952243754420N12237449WA004850059076
B1952253754417N12237453WA004860058646
B1952263754416N12237459WA004860058344
B1952273754415N12237465WA004860058185
B1952283754417N12237469WA004870058033
B1952293754420N12237472WA004880058048
B1952303754423N12237475WA004890058263
B1952313754427N12237474WA004900058101
B1952323754430N12237471WA004900058296
B1952333754434N12237466WA004900058283
B1952343754438N12237462WA004910058336
B1952353754442N12237459WA004910058413
B1952363754446N12237457WA004920058663
B1952373754450N12237456WA004930058678
B1952383754455N12237455WA004940058809
B1952393754459N12237456WA004950058939
B1952403754463N12237458WA004950059045
B1952413754466N12237462WA004960059002
B1952423754467N12237465WA004960059824
B1952433754467N12237468WA004950059514
B1952443754466N12237471WA004940059229
B1952453754463N12237474WA004930059027
B1952463754458N12237474WA004910058728
B1952473754453N12237471WA004890058307
B1952483754448N12237466WA004870058239
B1952493754445N12237460WA004860058221
B1952503754442N12237453WA004840058129
B1952513754439N12237448WA004840058235
B1952523754436N12237442WA004840058222
B1952533754433N12237436WA004840058202
B1952543754430N12237430WA004850058313
B1952553754427N12237424WA004870059328
B1952563754424N12237418WA004890059137
B1952573754421N12237414WA004900059143
B1952583754417N12237412WA004920059182
B1952593754413N12237411WA004920059099
B1953003754409N12237413WA004910058887
B1953013754407N12237417WA004910058303
B1953023754405N12237421WA004900058586
B1953033754405N12237425WA004910058533
B1953043754405N12237427WA004920058539
B1953053754405N12237431WA004930058770
B1953063754406N12237433WA004940058743
B1953073754407N12237436WA004950058869
B1953083754409N12237439WA004960058929
B1953093754410N12237442WA004960058905
B1953103754412N12237444WA004960059037
B1953113754414N12237447WA004950058880
B1953123754417N12237449WA004940058752
B1953133754420N12237452WA004920058481
B1953143754425N12237455WA004900058116
B1953153754429N12237460WA004870058002
B1953163754432N12237463WA004860057954
B1953173754437N12237465WA004840057825
B1953183754442N12237468WA004830057705
B1953193754447N12237471WA004830057603
B1953203754452N12237474WA004830057620
B1953213754456N12237476WA004830057665
B1953223754460N12237478WA004830057731
B1953233754463N12237479WA004830057793
B1953243754467N12237480WA004830057785
B1953253754471N12237481WA004820057676
B1953263754476N12237482WA004810057539
B1953273754481N12237484WA004790057377
B1953283754487N12237487WA004780057112
B1953293754491N12237489WA004760057171
B1953303754496N12237490WA004750057128
B1953313754500N12237492WA004760057098
B1953323754505N12237495WA004760057153
B1953333754510N12237497WA004760057122
B1953343754514N12237499WA004760056951
B1953353754518N12237500WA004760056946
B1953363754521N12237502WA004750056988
B1953373754526N12237505WA004750056812
B1953383754530N12237507WA004740056707
B1953393754533N12237510WA004730056714
B1953403754536N12237513WA004730056730
B1953413754539N12237515WA004720056794
B1953423754542N12237518WA004710056683
B1953433754546N12237521WA004700056656
B1953443754549N12237525WA004680056595
B1953453754553N12237529WA004680056555
B1953463754557N12237533WA004680056414
B1953473754560N12237536WA004680056536
B1953483754563N12237539WA004690056548
B1953493754566N12237543WA004690056590
B1953503754570N12237546WA004690056455
B1953513754574N12237550WA004700056540
B1953523754577N12237551WA004710056319
B1953533754580N12237552WA004720056659
B1953543754583N12237553WA004740056865
B1953553754586N12237553WA004750057127
B1953563754590N12237554WA004770057187
B1953573754594N12237554WA004790057329
B1953583754596N12237555WA004800057572
B1953593754599N12237554WA004820057828
B1954003754601N12237555WA004830057891
B1954013754604N12237555WA004820057883
B1954023754605N12237558WA004810057795
B1954033754607N12237562WA004800057524
B1954043754606N12237566WA004780057226
B1954053754603N12237570WA004760057172
B1954063754599N12237572WA004740057046
B1954073754593N12237572WA004730056999
B1954083754589N12237571WA004720057010
B1954093754584N12237567WA004710056886
B1954103754580N12237564WA004720056755
B1954113754576N12237561WA004720056740
B1954123754572N12237557WA004720056654
B1954133754568N12237553WA004720056759
B1954143754564N12237549WA004730056738
B1954153754559N12237545WA004720056676
B1954163754555N12237543WA004720056602
B1954173754550N12237541WA004720056712
B1954183754544N12237541WA004720056663
B1954193754539N12237542WA004710056479
B1954203754536N12237546WA004700056357
B1954213754535N12237551WA004690056216
B1954223754538N12237556WA004680056121
B1954233754541N12237558WA004680056226
B1954243754544N12237559WA004680056298
B1954253754548N12237559WA004680056369
B1954263754552N12237559WA004680056348
B1954273754555N12237559WA004680056393
B1954283754559N12237558WA004680056369
B1954293754563N12237559WA004680056427
B1954303754566N12237559WA004680056458
B1954313754570N12237560WA004690056540
B1954323754573N12237560WA004690056682
B1954333754578N12237559WA004700056715
B1954343754582N12237558WA004710056775
B1954353754586N12237557WA004720056998
B1954363754590N12237556WA004720057056
B1954373754593N12237556WA004730057163
B1954383754596N12237557WA004730057070
B1954393754600N12237558WA004720056727
B1954403754602N12237562WA004700056656
B1954413754602N12237567WA004680056495
B1954423754601N12237572WA004660056249
B1954433754599N12237578WA004640056021
B1954443754597N12237582WA004620055827
B1954453754595N12237588WA004600055711
B1954463754592N12237593WA004600055665
B1954473754590N12237599WA004600055669
B1954483754588N12237605WA004610055574
B1954493754587N12237609WA004620055408
B1954503754585N12237614WA004640055991
B1954513754584N12237618WA004650055966
B1954523754583N12237623WA004660055837
B1954533754581N12237628WA004660055987
B1954543754579N12237632WA004660055819
B1954553754576N12237637WA004650055757
B1954563754573N12237642WA004630055631
B1954573754569N12237647WA004610055261
B1954583754565N12237653WA004590055191
B1954593754562N12237659WA004570054944
B1955003754559N12237666WA004550054821
B1955013754556N12237672WA004540055156
B1955023754554N12237679WA004530055121
B1955033754552N12237684WA004540055070
B1955043754550N12237688WA004540054884
B1955053754548N12237693WA004540054797
B1955063754546N12237698WA004520054653
B1955073754543N12237704WA004500054352
B1955083754540N12237710WA004480054103
B1955093754536N12237716WA004470053909
B1955103754532N12237722WA004450053819
B1955113754528N12237728WA004440053876
B1955123754526N12237734WA004430053720
B1955133754522N12237739WA004420053576
B1955143754519N12237744WA004410053283
B1955153754517N12237749WA004400053141
B1955163754515N12237753WA004390053064
B1955173754513N12237758WA004390052887
B1955183754512N12237764WA004390052802
B1955193754510N12237769WA004380052841
B1955203754509N12237774WA004380054026
B1955213754507N12237779WA004370053599
B1955223754507N12237785WA004360053104
B1955233754505N12237790WA004350052945
B1955243754503N12237794WA004350052794
B1955253754502N12237798WA004340052664
B1955263754500N12237802WA004330052673
B1955273754498N12237806WA004320052693
B1955283754496N12237809WA004310052574
B1955293754495N12237813WA004300052411
B1955303754493N12237817WA004280052393
B1955313754492N12237824WA004260052025
B1955323754490N12237830WA004250052155
B1955333754489N12237835WA004250052165
B1955343754489N12237839WA004260052233
B1955353754488N12237842WA004260052176
B1955363754488N12237846WA004260052157
B1955373754488N12237851WA004250052062
B1955383754488N12237856WA004240051974
B1955393754488N12237862WA004230051780
B1955403754489N12237867WA004220051762
B1955413754490N12237872WA004210051834
B1955423754490N12237877WA004200051674
B1955433754490N12237881WA004200051685
B1955443754491N12237886WA004200051684
B1955453754492N12237891WA004190051223
B1955463754492N12237895WA004170052054
B1955473754491N12237902WA004150051646
B1955483754490N12237909WA004130051136
B1955493754489N12237916WA004110050887
B1955503754489N12237923WA004100050621
B1955513754488N12237929WA004090050443
B1955523754487N12237936WA004080050351
B1955533754487N12237943WA004080050382
B1955543754488N12237950WA004080051933
B1955553754487N12237956WA004060051399
B1955563754488N12237964WA004050050913
B1955573754488N12237970WA004040050699
B1955583754489N12237977WA004030050315
B1955593754489N12237983WA004020050247
B1956003754490N12237990WA004010050103
B1956013754489N12237997WA003990050097
B1956023754491N12238004WA003980049727
B1956033754491N12238011WA003960049495
B1956043754493N12238018WA003950049317
B1956053754494N12238025WA003930049123
B1956063754494N12238031WA003920049168
B1956073754495N12238038WA003910049081
B1956083754496N12238044WA003900048968
B1956093754497N12238051WA003890048835
B1956103754498N12238058WA003880048885
B1956113754499N12238065WA003870048670
B1956123754501N12238072WA003860048620
B1956133754502N12238077WA003840048429
B1956143754503N12238084WA003830048352
B1956153754504N12238091WA003810048245
B1956163754505N12238098WA003800047924
B1956173754506N12238104WA003780047877
B1956183754507N12238111WA003770047564
B1956193754508N12238119WA003750047330
B1956203754509N12238125WA003750047276
B1956213754510N12238132WA003740047168
B1956223754511N12238139WA003730046959
B1956233754512N12238147WA003720046847
B1956243754513N12238154WA003700046765
B1956253754515N12238162WA003690046643
B1956263754516N12238169WA003680046558
B1956273754517N12238176WA003660046388
B1956283754519N12238183WA003650047728
B1956293754521N12238190WA003630047066
B1956303754523N12238197WA003620046767
B1956313754525N12238204WA003610046444
B1956323754528N12238211WA003600046116
B1956333754530N12238218WA003590045960
B1956343754533N12238224WA003580045747
B1956353754535N12238231WA003570045752
B1956363754537N12238237WA003560045788
B1956373754540N12238243WA003570045761
B1956383754542N12238246WA003570045886
B1956393754545N12238251WA003570046341
B1956403754548N12238256WA003560045934
B1956413754551N12238261WA003550045813
B1956423754554N12238266WA003540045500
B1956433754557N12238270WA003530045378
B1956443754560N12238275WA003510045148
B1956453754564N12238280WA003500045021
B1956463754568N12238284WA003490044807
B1956473754571N12238288WA003470044759
B1956483754575N12238293WA003460044517
B1956493754578N12238298WA003440044475
B1956503754581N12238303WA003430044383
B1956513754585N12238309WA003420044321
B1956523754587N12238314WA003410044196
B1956533754590N12238319WA003400044185
B1956543754593N12238324WA003400044077
B1956553754596N12238330WA003390043842
B1956563754599N12238335WA003380043813
B1956573754601N12238340WA003370043899
B1956583754604N12238346WA003360043734
B1956593754606N12238351WA003350043555
B1957003754608N12238356WA003330043358
B1957013754610N12238363WA003320043230
B1957023754611N12238368WA003310043168
B1957033754612N12238374WA003300042907
B1957043754612N12238380WA003290042832
B1957053754611N12238386WA003280042896
B1957063754611N12238392WA003280042757
B1957073754610N12238398WA003270042787
B1957083754610N12238404WA003270042641
B1957093754610N12238409WA003270042528
B1957103754609N12238415WA003260042367
B1957113754609N12238421WA003250042316
B1957123754608N12238427WA003250042198
B1957133754608N12238433WA003240042142
B1957143754607N12238439WA003230042043
B1957153754605N12238444WA003220042017
B1957163754603N12238450WA003210041944
B1957173754601N12238456WA003200041850
B1957183754599N12238460WA003190041778
B1957193754597N12238465WA003180041718
B1957203754595N12238470WA003170041724
B1957213754593N12238474WA003160041708
B1957223754590N12238479WA003150041547
B1957233754587N12238483WA003140041317
B1957243754584N12238488WA003120041044
B1957253754581N12238492WA003110040927
B1957263754577N12238496WA003100040953
B1957273754573N12238499WA003090040792
B1957283754569N12238502WA003080040654
B1957293754566N12238506WA003070040604
B1957303754562N12238509WA003060040496
B1957313754559N12238513WA003060040417
B1957323754555N12238516WA003050040414
B1957333754551N12238519WA003040040343
B1957343754547N12238521WA003030040389
B1957353754543N12238523WA003030040462
B1957363754540N12238525WA003030040010
B1957373754536N12238526WA003020040040
B1957383754532N12238527WA003010039959
B1957393754528N12238529WA003000039975
B1957403754525N12238531WA002990039741
B1957413754521N12238533WA002970039690
B1957423754518N12238536WA002960039680
B1957433754516N12238539WA002950039575
B1957443754514N12238544WA002940039189
B1957453754514N12238550WA002920039055
B1957463754515N12238555WA002910038834
B1957473754517N12238559WA002900038746
B1957483754520N12238563WA002890038611
B1957493754523N12238565WA002880038598
B1957503754527N12238566WA002870038348
B1957513754531N12238566WA002860038199
B1957523754536N12238566WA002860038107
B1957533754540N12238566WA002850038093
B1957543754544N12238565WA002830037992
B1957553754548N12238564WA002820037960
B1957563754553N12238561WA002810037816
B1957573754557N12238559WA002800037898
B1957583754561N12238557WA002790040988
B1957593754566N12238556WA002780039966
B1958003754571N12238555WA002770039380
B1958013754576N12238553WA002760038755
B1958023754581N12238552WA002740038420
B1958033754586N12238551WA002730037971
B1958043754592N12238548WA002710037637
B1958053754598N12238548WA002700037522
B1958063754603N12238546WA002690037444
B1958073754607N12238545WA002700037496
B1958083754612N12238544WA002690037213
B1958093754616N12238543WA002690037104
B1958103754618N12238543WA002690037094
B1958113754622N12238544WA002680036872
B1958123754627N12238546WA002670036730
B1958133754630N12238549WA002650036473
B1958143754632N12238554WA002640036359
B1958153754633N12238560WA002620036254
B1958163754634N12238565WA002610036106
B1958173754633N12238570WA002590035973
B1958183754633N12238574WA002580035907
B1958193754631N12238579WA002570035853
B1958203754628N12238583WA002560035793
B1958213754626N12238587WA002550035799
B1958223754623N12238591WA002540039375
B1958233754619N12238593WA002530038259
B1958243754614N12238594WA002520037671
B1958253754610N12238596WA002510036807
B1958263754605N12238597WA002500036542
B1958273754601N12238598WA002490035683
B1958283754597N12238599WA002480035378
B1958293754593N12238602WA002470035315
B1958303754589N12238605WA002460035200
B1958313754584N12238608WA002450035293
B1958323754581N12238611WA002430034954
B1958333754577N12238615WA002410034506
B1958343754572N12238619WA002390034268
B1958353754568N12238624WA002380034142
B1958363754564N12238629WA002360034040
B1958373754560N12238633WA002350034132
B1958383754556N12238637WA002330047253
B1958393754553N12238641WA002320042834
B1958403754549N12238644WA002300040169
B1958413754545N12238648WA002290038292
B1958423754542N12238653WA002280037140
B1958433754538N12238657WA002270036251
B1958443754534N12238661WA002260035263
B1958453754531N12238666WA002250034613
B1958463754527N12238670WA002240033855
B1958473754524N12238674WA002230033308
B1958483754520N12238679WA002210032953
B1958493754516N12238684WA002200032670
B1958503754513N12238689WA002180032512
B1958513754508N12238695WA002160032382
B1958523754504N12238700WA002140031936
B1958533754499N12238706WA002120031539
B1958543754495N12238713WA002100031206
B1958553754490N12238719WA002090031165
B1958563754486N12238725WA002090031145
B1958573754482N12238730WA002080031157
B1958583754478N12238735WA002080030869
B1958593754474N12238741WA002070030568
B1959003754470N12238747WA002060030278
B1959013754466N12238753WA002040030044
B1959023754462N12238759WA002030029915
B1959033754457N12238765WA002010029683
B1959043754453N12238771WA001990029542
B1959053754448N12238777WA001980029492
B1959063754444N12238783WA001960029586
B1959073754440N12238789WA001940029438
B1959083754435N12238796WA001920028938
B1959093754430N12238804WA001900028610
B1959103754424N12238811WA001880028480
B1959113754419N12238818WA001860028391
B1959123754414N12238825WA001840028281
B1959133754410N12238831WA001820028158
B1959143754405N12238839WA001810027961
B1959153754401N12238845WA001790027824
B1959163754396N12238852WA001770027674
B1959173754392N12238859WA001750027583
B1959183754388N12238867WA001720038786
B1959193754384N12238876WA001690034473
B1959203754380N12238885WA001650031855
B1959213754376N12238895WA001620029764
B1959223754372N12238904WA001590028444
B1959233754368N12238913WA001560027836
B1959243754364N12238922WA001550027159
B1959253754360N12238931WA001550026703
B1959263754355N12238940WA001550026355
B1959273754351N12238949WA001530026155
B1959283754347N12238958WA001510025813
B1959293754343N12238967WA001490025206
B1959303754338N12238976WA001470025055
B1959313754334N12238985WA001450024941
B1959323754329N12238993WA001430024588
B1959333754325N12239002WA001400024136
B1959343754321N12239011WA001380023805
B1959353754317N12239020WA001350023641
B1959363754314N12239028WA001340034851
B1959373754312N12239034WA001350031824
B1959383754310N12239040WA001370029813
B1959393754308N12239045WA001370028207
B1959403754305N12239051WA001370027162
B1959413754303N12239057WA001360026574
B1959423754301N12239063WA001350025525
B1959433754298N12239070WA001340025262
B1959443754296N12239076WA001330024845
B1959453754294N12239082WA001320024407
B1959463754290N12239088WA001310024094
B1959473754288N12239093WA001300023949
B1959483754285N12239099WA001290023785
B1959493754283N12239104WA001280023805
B1959503754280N12239109WA001270023679
B1959513754278N12239115WA001260023602
B1959523754276N12239119WA001250038939
B1959533754274N12239125WA001240034239
B1959543754272N12239132WA001230030481
B1959553754272N12239139WA001220028003
B1959563754270N12239146WA001210026193
B1959573754270N12239153WA001200024832
B1959583754269N12239159WA001200023773
B1959593754270N12239166WA001190023202
B2000003754269N12239173WA001180022960
B2000013754268N12239179WA001170022692
B2000023754268N12239186WA001160034892
B2000033754268N12239192WA001150032069
B2000043754268N12239199WA001140029184
B2000053754268N12239205WA001130027247
B2000063754267N12239211WA001120025968
B2000073754267N12239218WA001110025275
B2000083754266N12239225WA001100024415
B2000093754267N12239233WA001100023707
B2000103754267N12239240WA001090023001
B2000123754266N12239253WA001080022998
B2000133754266N12239260WA001080022167
B2000143754267N12239268WA001070021600
B2000153754267N12239275WA001050021547
B2000163754267N12239283WA001040021441
B2000173754267N12239289WA001030021356
B2000183754267N12239296WA001020021269
B2000193754267N12239304WA001010021270
B2000203754268N12239311WA001000021021
B2000213754269N12239318WA000980020949
B2000223754269N12239325WA000970020862
B2000233754270N12239331WA000960020605
B2000243754270N12239338WA000950020417
B2000253754270N12239345WA000940020485
B2000263754270N12239351WA000940020078
B2000273754271N12239359WA000930019847
B2000283754271N12239365WA000920019694
B2000293754273N12239372WA000910019337
B2000303754272N12239379WA000900019168
B2000313754272N12239386WA000890018974
B2000323754273N12239393WA000880018624
B2000333754273N12239400WA000870018535
B2000343754273N12239407WA000860018565
B2000353754272N12239414WA000850018553
B2000363754271N12239421WA000840018458
B2000373754270N12239428WA000830018365
B2000383754269N12239435WA000820018321
B2000393754267N12239442WA000810018271
B2000403754265N12239448WA000810018258
B2000413754263N12239454WA000800018252
B2000423754261N12239461WA000790018082
B2000433754260N12239467WA000790018007
B2000443754257N12239474WA000780018084
B2000453754256N12239480WA000770041829
B2000463754254N12239487WA000760036432
B2000473754252N12239494WA000750031700
B2000483754249N12239499WA000740027867
B2000493754247N12239505WA000730024829
B2000503754244N12239512WA000720023371
B2000513754241N12239517WA000710021776
B2000523754238N12239523WA000700018941
B2000533754235N12239528WA000690018528
B2000543754231N12239533WA000690018242
B2000553754227N12239536WA000680018100
B2000563754222N12239538WA000670017628
B2000573754217N12239541WA000660017456
B2000583754212N12239544WA000650018023
B2000593754206N12239544WA000640017797
B2001003754201N12239545WA000630017495
B2001013754197N12239546WA000620017141
B2001023754192N12239546WA000610016869
B2001033754188N12239546WA000600016667
B2001043754183N12239546WA000590016040
B2001053754178N12239545WA000590015884
B2001063754173N12239544WA000580015680
B2001073754168N12239542WA000570015484
B2001083754164N12239540WA000570015321
B2001093754159N12239538WA000560015175
B2001103754156N12239536WA000560015105
B2001113754152N12239532WA000550014839
B2001123754148N12239531WA000540014600
B2001133754143N12239528WA000540014649
B2001143754140N12239524WA000530014530
B2001153754136N12239522WA000520014203
B2001163754131N12239520WA000520014255
B2001173754127N12239518WA000510014132
B2001183754124N12239517WA000500014131
B2001193754120N12239515WA000490014203
B2001203754115N12239513WA000480014133
B2001213754111N12239510WA000470013903
B2001223754106N12239507WA000460013865
B2001233754102N12239505WA000450013780
B2001243754099N12239501WA000450013639
B2001253754095N12239497WA000440013667
B2001263754092N12239494WA000430013628
B2001273754089N12239490WA000420013440
B2001283754086N12239485WA000410013475
B2001293754084N12239478WA000410013398
B2001303754083N12239474WA000400013347
B2001313754082N12239469WA000390013325
B2001323754081N12239463WA000380013394
B2001333754081N12239458WA000370013257
B2001343754082N12239453WA000360013276
B2001353754083N12239446WA000350013169
B2001363754083N12239441WA000340013086
B2001373754084N12239435WA000340012862
B2001383754084N12239429WA000330016095
B2001393754085N12239423WA000320015244
B2001403754085N12239417WA000320014624
B2001413754085N12239411WA000310014306
B2001423754084N12239405WA000300014174
B2001433754084N12239399WA000290013992
B2001443754085N12239392WA000280013699
B2001453754086N12239386WA000270013257
B2001463754087N12239380WA000260013143
B2001473754087N12239374WA000250013092
B2001483754088N12239368WA000240012873
B2001493754089N12239362WA000240012768
B2001503754090N12239356WA000230012665
B2001513754090N12239350WA000220012693
B2001523754092N12239344WA000210012410
B2001533754092N12239338WA000200012291
B2001543754093N12239332WA000200012175
B2001553754094N12239326WA000190012079
B2001563754095N12239321WA000180011812
B2001573754096N12239316WA000170011716
B2001583754097N12239311WA000160011468
B2001593754098N12239306WA000150011183
B2002003754100N12239300WA000140011095
B2002013754103N12239295WA000130011002
B2002023754105N12239289WA000120010998
B2002033754109N12239284WA000110010881
B2002043754113N12239279WA000100010747
B2002053754117N12239276WA000090010213
B2002063754121N12239273WA000080009911
B2002073754123N12239269WA000070009580
B2002083754126N12239263WA000060009456
B2002093754129N12239259WA000050009479
B2002103754134N12239254WA000040009262
B2002113754138N12239249WA000030009208
B2002123754141N12239245WA000010009001
B2002133754143N12239240WA000000008984
B2002143754146N12239236WA-00010008859
B2002153754149N12239231WA-00020008785
B2002163754152N12239228WA-00030008796
B2002173754159N12239225WA-00050008690
B2002183754166N12239218WA-00050007936
B2002193754169N12239214WA-00050007853
B2002203754171N12239208WA-00060007848
B2002213754172N12239204WA-00070007731
B2002223754172N12239199WA-00080007595
B2002233754170N12239194WA-00090007571
B2002243754166N12239189WA-00100007596
B2002253754162N12239188WA-00120007570
B2002263754158N12239189WA-00140007318
B2002273754153N12239194WA-00150007226
B2002283754151N12239201WA-00170007216
B2002293754149N12239208WA-00190006985
B2002303754148N12239213WA-00200010626
B2002313754148N12239219WA-00200009904
B2002323754147N12239225WA-00200008978
B2002333754147N12239232WA-00210008451
B2002343754148N12239238WA-00220007920
B2002353754149N12239244WA-00230007444
B2002363754150N12239250WA-00250007368
B2002373754151N12239256WA-00260007149
B2002383754150N12239263WA-00270007062
B2002393754148N12239268WA-00280007061
B2002403754148N12239275WA-00290006580
B2002413754150N12239280WA-00300006339
B2002423754152N12239286WA-00320006212
B2002433754155N12239291WA-00330006376
B2002443754159N12239298WA-00340006110
B2002453754163N12239302WA-00350006081
B2002463754170N12239304WA-00360004745
B2002473754175N12239307WA-00370003808
B2002483754179N12239309WA-00380003948
B2002493754185N12239312WA-00390003930
B2002503754189N12239315WA-00400003961
B2002513754195N12239314WA-00410003939
B2002523754202N12239314WA-00410003719
B2002533754206N12239312WA-00420003589
B2002543754211N12239310WA-00430003550
B2002553754214N12239305WA-00450003492
B2002563754217N12239300WA-00460003553
B2002573754218N12239295WA-00480003506
B2002583754217N12239290WA-00500003471
B2002593754214N12239285WA-00520003364
B2003003754210N12239283WA-00540003322
B2003013754205N12239285WA-00570034479
B2003023754203N12239291WA-00590026321
B2003033754201N12239296WA-00610019057
B2003043754200N12239301WA-00610014065
B2003053754197N12239304WA-00610011327
B2003063754193N12239307WA-00610009590
B2003073754190N12239307WA-00620009062
B2003083754186N12239308WA-00630008470
B2003093754183N12239305WA-00640008436
B2003103754181N12239299WA-00670007146
B2003113754180N12239293WA-00690006177
B2003123754185N12239287WA-00720005537
B2003133754189N12239283WA-00740004911
B2003143754193N12239280WA-00740007101
B2003153754196N12239276WA-00740005805
B2003163754198N12239272WA-00740004689
B2003173754201N12239268WA-00740003945
B2003183754203N12239263WA-00760003302
B2003193754203N12239256WA-00780002249
B2003203754202N12239251WA-00800001844
B2003213754196N12239252WA-00830001709
B2003223754191N12239253WA-00850001481
B2003233754188N12239254WA-00850001531
B2003243754185N12239253WA-00850001676
B2003253754183N12239250WA-00860001522
B2003263754182N12239243WA-00880001446
B2003273754182N12239236WA-00910001154
B2003283754182N12239229WA-00930001070
B2003293754183N12239222WA-00940000857
B2003303754183N12239217WA-00950000854
B2003313754183N12239212WA-00960001023
B2003323754181N12239207WA-00960001062
B2003333754179N12239203WA-00970001124
B2003343754177N12239199WA-00980001039
B2003353754174N12239196WA-01000000502
B2003363754171N12239191WA-01020000300
B2003373754168N12239186WA-01040000236
B2003383754166N12239183WA-01040000044
B2003393754164N12239181WA-01040000074
LXCTREPORTEDALT GPS:-1, BARO:-104
B2003403754163N12239179WA-01030000069
LXCTREPORTEDALT GPS:-1, BARO:-103
B2003413754162N12239178WA-01030000085
LXCTREPORTEDALT GPS:-1, BARO:-103
B2003423754161N12239178WA-01030000041
LXCTREPORTEDALT GPS:-2, BARO:-103
B2003433754161N12239178WA-01020000022
LXCTREPORTEDALT GPS:-2, BARO:-102
B2003443754161N12239177WA-01020000029
LXCTREPORTEDALT GPS:-2, BARO:-102
B2003453754161N12239177WA-01020000028
LXCTREPORTEDALT GPS:-3, BARO:-102
B2003463754161N12239176WA-01020000069
LXCTREPORTEDALT GPS:-2, BARO:-102
B2003473754161N12239176WA-01020000078
LXCTREPORTEDALT GPS:-2, BARO:-102
B2003483754161N12239176WA-01020000089
LXCTREPORTEDALT GPS:-2, BARO:-102
B2003493754161N12239177WA-01020000061
LXCTREPORTEDALT GPS:-2, BARO:-102
B2003503754161N12239177WA-01020000062
LXCTREPORTEDALT GPS:-2, BARO:-102
B2003513754161N12239177WA-01020000063
LXCTREPORTEDALT GPS:-2, BARO:-102
B2003523754161N12239177WA-01020000062
LXCTREPORTEDALT GPS:-2, BARO:-102
B2003533754161N12239177WA-01020000070
LXCTREPORTEDALT GPS:-1, BARO:-102
B2003543754161N12239177WA-01020000060
LXCTREPORTEDALT GPS:-1, BARO:-102
B2003553754161N12239177WA-01020000050
LXCTREPORTEDALT GPS:-1, BARO:-102
B2003563754161N12239177WA-01020000051
LXCTREPORTEDALT GPS:-1, BARO:-102
LXCTFAICIVLCOMPLIANT true
G094AE02A92592F3C94BAE6591D78DC1173C3260D57BB178EF7C961D91A221E64
GDCFDBEE322F9A1395C0EFC9015B7FFD74EBADF37418963B9CD3456BBB022ED61
GEEFAB5E9EA0D4302C9B04CDA508DFE109C61C50ED5C2FC6405F6AA564BCDEFA3
G6EF20C7EF9A75829254A1B74E87A21B960BD648630B383B0216380FED5B3FA6B
